Airport Code;Airport Name;City Name;Country Name;Country Code;Latitude;Longitude;World Area Code;City Name geo_name_id;Country Name geo_name_id;coordinates,,
CRS;Corsicana;Corsicana;United States;US;32.1;-96.466667;67;4683462;6252001;32.1,,
VLD;Regional;Valdosta;United States;US;30.783333;-83.283333;67;4228147;6252001;30.783333,,
CIR;Cairo;Cairo;United States;US;4.666667;-76.016667;67;5111056;6252001;4.666667,,
CRP;Corpus Christi International Airport;Corpus Christi,-97.501111,
SIV;County;Sullivan;United States;US;39.1;-87.4;67;4980155;6252001;39.1,,
FBY;Municipal;Fairbury;United States;US;40.133333;-97.183333;67;5067896;6252001;40.133333,,
PAK;Port Allen;Hanapepe;United States;US;21.916667;-159.583333;67;5855631;6252001;21.916667,,
RWL;Rawlins;Rawlins;United States;US;41.8;-107.2;67;5836068;6252001;41.8,,
EKO;Elko Regional;Elko,-115.791667,
FNK;Fin Creek;Fin Creek;United States;US;69.5;-147.583333;67;\N;6252001;69.5,,
PBF;Grider Field;Pine Bluff;United States;US;34.183333;-91.933333;67;4126226;6252001;34.183333,,
EDE;Municipal;Edenton;United States;US;36.066667;-76.65;67;4464897;6252001;36.066667,,
PCU;Pearl River County;Picayune;United States;US;30.516666999999998;-89.705556;67;4440975;6252001;30.516666999999998,,
HWD;Air Terminal;Hayward;United States;US;37.666667;-122.083333;67;5355933;6252001;37.666667,,
JNU;Boundary Bay;Juneau;United States;US;58.35;-134.583333;67;5554072;6252001;58.35,,
CFT;Morenci;Clifton;United States;US;32.95;-109.2;67;5417258;6252001;32.95,,
RSH;Russian SPB;Russian Mission;United States;US;61.783333;-161.333333;67;\N;6252001;61.783333,,
OPL;St Landry Parish;Opelousas;United States;US;30.55;-92.1;67;4336153;6252001;30.55,,
FLU;Flushing;New York;United States;US;5.5;-70.483333;67;5128581;6252001;5.5,,
EWD;Wildman Lake;Wildman Lake;United States;US;-12.333333;131.933333;67;\N;6252001;-12.333333,,
MKT;Municipal;Mankato;United States;US;44.15;-93.983333;67;5036420;6252001;44.15,,
HDE;Brewster Field;Holdrege;United States;US;40.433333;-99.366667;67;5070216;6252001;40.433333,,
MLY;Manley Hot Springs;Manley Hot Springs;United States;US;65.0;-150.633333;67;\N;6252001;65.0,,
JAJ;Perimeter Mall;Atlanta;United States;US;9.716667;-82.983333;67;4883772;6252001;9.716667,,
WOO;Woodchopper;Woodchopper;United States;US;65.3;-143.483333;67;\N;6252001;65.3,,
JDM;Downtown Heliport;Miami;United States;US;10.016667;-73.65;67;5304640;6252001;10.016667,,
WTR;White River;White River;United States;US;33.816667;-109.983333;67;\N;6252001;33.816667,,
BBC;Bay City;Bay City;United States;US;28.983333;-95.966667;67;5712837;6252001;28.983333,,
LPC;Lompoc Airport;Lompoc;United States;US;34.666667;-120.469444;67;5367788;6252001;34.666667,,
HAB;Marion County;Hamilton;United States;US;34.116667;-88.0;67;5655959;6252001;34.116667,,
MTO;Coles County Memorial;Mattoon;United States;US;39.483333;-88.283333;67;4244099;6252001;39.483333,,
WPO;North Fork Valley;Paonia;United States;US;38.866667;-107.6;67;5550409;6252001;38.866667,,
PTL;Port Armstrong;Port Armstrong;United States;US;56.297222;-134.6625;67;\N;6252001;56.297222,,
KKU;Ekuk;Ekuk;United States;US;58.816667;-158.55;67;\N;6252001;58.816667,,
HLB;Hillenbrand;Batesville;United States;US;39.3;-85.216667;67;4672600;6252001;39.3,,
UIL;Quillayute State;Quillayute;United States;US;47.95;-124.566667;67;\N;6252001;47.95,,
DRI;Beauregard Parish;De Ridder;United States;US;53.2;5.45;67;\N;6252001;53.2,,
KWN;Kwinhagak;Quinhagak;United States;US;59.75;-161.916667;67;\N;6252001;59.75,,
OFK;Stefan Field;Norfolk;United States;US;41.983333;-97.433333;67;5128862;6252001;41.983333,,
PNN;Princeton;Princeton;United States;US;45.202778;-67.566667;67;5268096;6252001;45.202778,,
GVW;Richards-Gebaur;Grandview;United States;US;38.883333;-94.533333;67;5795969;6252001;38.883333,,
OSB;Osage Beach;Osage Beach;United States;US;38.15;-92.616667;67;4402040;6252001;38.15,,
FMH;Otis AFB;Falmouth;United States;US;41.566667;-70.633333;67;4963985;6252001;41.566667,,
PUL;Poulsbo;Poulsbo;United States;US;47.733333;-122.65;67;5807337;6252001;47.733333,,
PPF;Tri-City;Parsons;United States;US;37.333333;-95.5;67;4817695;6252001;37.333333,,
BFT;County;Beaufort;United States;US;32.416667;-80.633333;67;4570284;6252001;32.416667,,
MSN;Dane County Regional;Madison;United States;US;43.139722;-89.3375;67;5261457;6252001;43.139722,,
SXP;Sheldon SPB;Sheldon Point;United States;US;62.533333;-164.833333;67;\N;6252001;62.533333,,
HGT;Hunter AAF;Jolon;United States;US;-7.3;157.033333;67;\N;6252001;-7.3,,
AKK;Akhiok SPB;Akhiok;United States;US;56.95;-154.166667;67;\N;6252001;56.95,,
LOL;Derby Field;Lovelock;United States;US;40.058333;-118.566667;67;5705957;6252001;40.058333,,
ECG;Elizabeth City;Elizabeth City,-76.174444,
VQQ;Cecil Field;Jacksonville;United States;US;30.218611;-81.876667;67;5733409;6252001;30.218611,,
FAF;Felker AAF;Fort Eustis;United States;US;19.833333;-72.5;67;\N;6252001;19.833333,,
OBU;Kobuk/Wien;Kobuk;United States;US;66.933333;-156.866667;67;\N;6252001;66.933333,,
CDV;Mudhole Smith;Cordova;United States;US;60.483333;-145.483333;67;5859888;6252001;60.483333,,
MKO;Davis Field;Muskogee;United States;US;35.666667;-95.366667;67;4543338;6252001;35.666667,,
MGE;Dobbins Afb;Marietta;United States;US;33.912222;-84.515278;67;5802418;6252001;33.912222,,
LUF;Luke Afb;Phoenix;United States;US;6.466667;-57.65;67;5745656;6252001;6.466667,,
PHP;Philip;Philip;United States;US;44.033333;-101.65;67;\N;6252001;44.033333,,
DNE;Dallas North Airport;Dallas;United States;US;7.716667;40.916667;67;5722064;6252001;7.716667,,
MCO;Orlando International;Orlando;United States;US;28.429444;-81.308889;67;4167147;6252001;28.429444,,
ALB;Albany International;Albany;United States;US;42.733333;-73.8;67;5710756;6252001;42.733333,,
BGQ;Big Lake;Big Lake;United States;US;61.533333;-149.816667;67;5880661;6252001;61.533333,,
CKB;Benedum;Clarksburg;United States;US;39.3;-80.233333;67;4802316;6252001;39.3,,
LSF;Lawson Aaf;Columbus;United States;US;32.337222;-84.991389;67;5645893;6252001;32.337222,,
MFI;Municipal;Marshfield;United States;US;44.6375;-90.188889;67;5261969;6252001;44.6375,,
CID;Cedar Rapids;Cedar Rapids;United States;US;41.884722;-91.710833;67;4850751;6252001;41.884722,,
MEV;Douglas County;Minden;United States;US;39.0;-119.75;67;5508379;6252001;39.0,,
CCA;Chaffee AFB;Fort Chaffee;United States;US;19.833333;-72.5;67;\N;6252001;19.833333,,
DEH;Municipal;Decorah;United States;US;43.316667;-91.833333;67;4853608;6252001;43.316667,,
NQI;NAS;Kingsville;United States;US;51.366667;-0.283333;67;4703384;6252001;51.366667,,
MIC;Crystal;Minneapolis;United States;US;45.061944;-93.353889;67;5037649;6252001;45.061944,,
KCK;Fairfax Municipal;Kansas City;United States;US;39.116667;-94.65;67;4393217;6252001;39.116667,,
PXL;Polacca;Polacca;United States;US;35.833333;-110.383333;67;\N;6252001;35.833333,,
BRY;Samuels Field;Bardstown,-85.466667,
ABL;Ambler;Ambler;United States;US;67.1;-157.816667;67;5178225;6252001;67.1,,
BKC;Buckland;Buckland;United States;US;65.983333;-161.166667;67;4931627;6252001;65.983333,,
MTX;Metro Field;Fairbanks;United States;US;64.8;-147.75;67;5861897;6252001;64.8,,
APV;Apple Valley;Apple Valley;United States;US;34.575278;-117.186111;67;5324363;6252001;34.575278,,
GST;Gustavus Arpt;Gustavus;United States;US;58.416667;-135.7;67;\N;6252001;58.416667,,
FMN;Municipal;Farmington;United States;US;36.75;-108.233333;67;5774662;6252001;36.75,,
PNS;Regional;Pensacola;United States;US;30.466667;-87.183333;67;4168228;6252001;30.466667,,
SVC;Grant County;Silver City;United States;US;32.633333;-108.166667;67;5491487;6252001;32.633333,,
HUT;Hutchinson;Hutchinson;United States;US;38.066667;-97.866667;67;5030977;6252001;38.066667,,
BUR;Bob Hope;Burbank;United States;US;34.2;-118.35;67;5788497;6252001;34.2,,
HNL;Honolulu International;Honolulu;United States;US;21.333333;-157.933333;67;5856195;6252001;21.333333,,
LBL;Municipal;Liberal;United States;US;37.05;-100.966667;67;5445820;6252001;37.05,,
BGR;Bangor International Airport;Bangor;United States;US;44.8;-68.816667;67;5244626;6252001;44.8,,
CWI;Clinton;Clinton;United States;US;41.833333;-90.35;67;5773001;6252001;41.833333,,
EGP;Maverick Co;Eagle Pass;United States;US;28.866667;-100.533333;67;5520677;6252001;28.866667,,
SQL;San Carlos;San Carlos;United States;US;37.483333;-122.25;67;5391760;6252001;37.483333,,
SXY;Sidney;Sidney;United States;US;42.316667;-75.4;67;5699552;6252001;42.316667,,
ZSH;Bus Station;Santa Fe;United States;US;1.366667;-77.033333;67;5490263;6252001;1.366667,,
ZBP;Baltimore Rail;Baltimore;United States;US;4.666667;-74.516667;67;4505716;6252001;4.666667,,
BOW;Bartow;Bartow;United States;US;27.933333;-81.783333;67;4146723;6252001;27.933333,,
JBP;Commerce Bus. Plaza;Los Angeles;United States;US;33.986667;-118.159722;67;5368361;6252001;33.986667,,
CRO;Corcoran;Corcoran;United States;US;36.1;-119.55;67;5339539;6252001;36.1,,
LAW;Municipal;Lawton;United States;US;34.566667;-98.416667;67;4998956;6252001;34.566667,,
ECA;Emmet County Airport;East Tawas;United States;US;44.266667;-83.483333;67;4991692;6252001;44.266667,,
PVD;T. F. Green Airport;Providence;United States;US;41.733333;-71.433333;67;5780020;6252001;41.733333,,
EDW;Edwards AFB;Edwards AFB;United States;US;34.9;-117.883333;67;\N;6252001;34.9,,
CMH;Port Columbus Intl;Columbus;United States;US;40.0;-82.883333;67;5645893;6252001;40.0,,
POY;Powell;Powell;United States;US;44.866667;-108.8;67;5835606;6252001;44.866667,,
OMK;Municipal;Omak;United States;US;48.4;-119.533333;67;5805734;6252001;48.4,,
KEB;Nanwalek;Nanwalek;United States;US;59.366667;-151.916667;67;\N;6252001;59.366667,,
TEK;Tatitlek;Tatitlek;United States;US;41.633333;24.95;67;\N;6252001;41.633333,,
GBD;Great Bend;Great Bend;United States;US;38.35;-98.866667;67;4272340;6252001;38.35,,
FYM;Municipal;Fayetteville;United States;US;35.15;-86.583333;67;5116968;6252001;35.15,,
KYK;Karluk;Karluk;United States;US;57.566667;-154.416667;67;\N;6252001;57.566667,,
KLW;Klawock;Klawock;United States;US;55.55;-133.1;67;\N;6252001;55.55,,
LTH;Lathrop Wells;Lathrop Wells;United States;US;36.666667;-116.65;67;\N;6252001;36.666667,,
DFW;Dallas/Fort Worth International;Dallas,-97.038056,
DMN;Deming;Deming;United States;US;26.951667;108.578889;67;5464806;6252001;26.951667,,
BIX;Keesler AFB;Biloxi;United States;US;28.666667;-88.433333;67;4418478;6252001;28.666667,,
TOR;Municipal;Torrington;United States;US;51.8;-1.6;67;5841207;6252001;51.8,,
RKH;Rock Hill;Rock Hill;United States;US;34.933333;-81.016667;67;5134115;6252001;34.933333,,
TNT;Dade Collier;Miami;United States;US;25.861944;-80.896944;67;5304640;6252001;25.861944,,
IKB;Wilkes County;Wilkesboro;United States;US;36.166667;-81.15;67;4499138;6252001;36.166667,,
FEP;Albertus;Freeport;United States;US;42.266667;-89.583333;67;5190486;6252001;42.266667,,
FLE;Fort Lee AAF;Petersburg;United States;US;52.3;5.833333;67;5556338;6252001;52.3,,
JBS;Hacienda Bus.Park H/P;Pleasanton;United States;US;37.699722;-121.9;67;5383777;6252001;37.699722,,
BBD;Curtis Field;Brady;United States;US;31.133333;-99.333333;67;4676032;6252001;31.133333,,
TBC;Tuba City;Tuba City;United States;US;13.466667;-14.2;67;5318279;6252001;13.466667,,
JMS;Jamestown;Jamestown;United States;US;46.933333;-98.683333;67;5360382;6252001;46.933333,,
MCF;Mac Dill AFB;Tampa;United States;US;54.433333;23.65;67;4174757;6252001;54.433333,,
PTB;Municipal;Petersburg;United States;US;37.183333;-77.516667;67;5556338;6252001;37.183333,,
EDK;El Dorado;El Dorado;United States;US;37.766667;-96.866667;67;4270863;6252001;37.766667,,
CSV;Memorial;Crossville;United States;US;35.95;-85.083333;67;4616470;6252001;35.95,,
GRE;Municipal;Greenville;United States;US;38.883333;-89.416667;67;5564488;6252001;38.883333,,
HOB;Lea County;Hobbs;United States;US;32.683333;-103.216667;67;5471578;6252001;32.683333,,
EYW;International;Key West;United States;US;24.55;-81.766667;67;4160812;6252001;24.55,,
MLT;Millinocket;Millinocket;United States;US;45.65;-68.7;67;4972220;6252001;45.65,,
EMT;El Monte;El Monte;United States;US;34.1;-118.033333;67;5345743;6252001;34.1,,
JIO;Intl Heliport;Ontario;United States;US;-11.283333;-74.433333;67;5744166;6252001;-11.283333,,
LPS;Lopez Island;Lopez Island;United States;US;48.483333;-122.936111;67;\N;6252001;48.483333,,
CEV;Mettle Field;Connersville;United States;US;39.633333;-85.133333;67;4256085;6252001;39.633333,,
OAK;Oakland International Airport;Oakland;United States;US;37.716667;-122.216667;67;5378538;6252001;37.716667,,
CZF;Cape Romanzof;Cape Romanzof;United States;US;61.733333;-166.0;67;\N;6252001;61.733333,,
CNK;Blosser Municipal;Concordia;United States;US;39.55;-97.65;67;5096867;6252001;39.55,,
HNC;Hatteras;Hatteras;United States;US;35.216667;-75.686111;67;\N;6252001;35.216667,,
SOL;Solomon;Solomon;United States;US;64.583333;-164.3;67;4279540;6252001;64.583333,,
AHT;Amchitka;Amchitka;United States;US;51.5;179.0;67;\N;6252001;51.5,,
AUS;Austin-bergstrom International;Austin;United States;US;30.194444;-97.67;67;5016884;6252001;30.194444,,
OXD;Miami University;Oxford;United States;US;45.733333;-63.866667;67;5130319;6252001;45.733333,,
RBY;Ruby;Ruby;United States;US;64.733333;-155.483333;67;\N;6252001;64.733333,,
WSF;Sarichef;Sarichef;United States;US;31.1;-1.383333;67;\N;6252001;31.1,,
HAX;Hatbox Field;Muskogee;United States;US;35.745833;-95.412778;1;4543338;6252001;35.745833,,
HTW;Lawrence County Airpark;Chesapeake/Huntington Wv;United States;US;42.2525;-82.494444;67;4801966;6252001;42.2525,,
GAI;Montgomery County;Gaithersburg;United States;US;39.168333;-77.166111;67;4355843;6252001;39.168333,,
SMF;Sacramento International;Sacramento,-121.616667,
SKY;Griffing Sandusky;Sandusky;United States;US;41.433333;-82.7;67;5170691;6252001;41.433333,,
HDA;Hidden Falls;Hidden Falls;United States;US;57.066667;-134.983333;67;\N;6252001;57.066667,,
GVT;Majors Field;Greenville;United States;US;33.133333;-96.116667;67;5564488;6252001;33.133333,,
GMV;Monument Valley;Monument Valley Gldngs;United States;US;-2.616667;152.016667;67;\N;6252001;-2.616667,,
PFC;Pacific City State;Pacific City,-123.962222,
NBP;Battery Pk City/N. Cov;New York;United States;US;5.5;-70.483333;67;5128581;6252001;5.5,,
EFW;Municipal;Jefferson;United States;US;42.016667;-94.383333;67;5733532;6252001;42.016667,,
ZTD;Schenectady Rail;Schenectady;United States;US;50.35;21.383333;67;5136454;6252001;50.35,,
LUK;Cincinnati Municipal-Lunken Field;Cincinnati,-84.418611,
CGF;Cuyahoga County;Cleveland;United States;US;41.5525;-81.483889;67;5248933;6252001;41.5525,,
SMD;Smith Field;Fort Wayne,-85.152778,
STS;Sonoma County;Santa Rosa;United States;US;38.516667;-122.8;67;5490338;6252001;38.516667,,
QWG;Wilgrove Air Park;Charlotte,-80.67,
LAS;Mc Carran Intl;Las Vegas;United States;US;36.083333;-115.166667;67;5506956;6252001;36.083333,,
LVM;Mission Field;Livingston;United States;US;45.666667;-110.566667;67;5663049;6252001;45.666667,,
RDU;Raleigh-durham International Airport;Raleigh/Durham,-78.7875,
FFT;Capital City;Frankfort,-84.906111,
KZH;Kizhuyak;Kizhuyak;United States;US;57.583333;-153.15;67;\N;6252001;57.583333,,
ISP;Long Island Mac Arthur;Islip,-73.100278,
ALM;Municipal;Alamogordo;United States;US;32.833333;-106.0;67;5454627;6252001;32.833333,,
TTN;Trenton Mercer Airport;Trenton,-74.813333,
BMT;Beaumont Muni;Beaumont;United States;US;18.5;-73.95;67;5327098;6252001;18.5,,
JAR;Jahrom;Jahrom;United States;US;34.133333;-118.016667;67;\N;6252001;34.133333,,
SBA;Municipal;Santa Barbara,-119.840278,
JHY;Hyatt Regency H/P;Cambridge;United States;US;42.366667;-71.102778;67;5247533;6252001;42.366667,,
WRG;Wrangell SPB;Wrangell;United States;US;56.466667;-132.383333;67;5558586;6252001;56.466667,,
AIY;Bader Field;Atlantic City;United States;US;39.366667;-74.45;67;4500546;6252001;39.366667,,
SEP;Clark Field;Stephenville;United States;US;32.216667;-98.183333;67;4734350;6252001;32.216667,,
MEO;Dare County Regional;Manteo;United States;US;35.911111;-75.7;67;4477893;6252001;35.911111,,
EKX;Elizabethtown;Elizabethtown;United States;US;37.7;-85.866667;67;5188474;6252001;37.7,,
HIF;Hill Afb;Ogden;United States;US;41.123889;-111.973056;67;5779206;6252001;41.123889,,
TWE;Taylor;Taylor;United States;US;56.15;-1.666667;67;5316960;6252001;56.15,,
NXX;Willow Grove NAS;Willow Grove;United States;US;-38.083333;146.2;67;5219619;6252001;-38.083333,,
DWN;Downtown Airpark;Oklahoma City;United States;US;35.449167;-97.533056;67;4544349;6252001;35.449167,,
FLX;Municipal;Fallon;United States;US;39.466667;-118.769444;67;5503914;6252001;39.466667,,
AUK;Alakanuk;Alakanuk;United States;US;62.683333;-164.633333;67;\N;6252001;62.683333,,
DRF;Drift River;Drift River;United States;US;60.583333;-152.15;67;\N;6252001;60.583333,,
ITO;Hilo International;Hilo;United States;US;19.716667;-155.05;67;5855927;6252001;19.716667,,
KCL;Lagoon;Chignik;United States;US;56.3;-158.533333;67;\N;6252001;56.3,,
TOI;Municipal;Troy;United States;US;54.912778;70.348056;67;5216183;6252001;54.912778,,
EDA;Edna Bay;Edna Bay;United States;US;55.95;-133.666667;67;\N;6252001;55.95,,
JDY;Heliport;Downey;United States;US;33.956389;-118.120556;67;5343858;6252001;33.956389,,
SKF;Kelly AFB;San Antonio;United States;US;6.233333;-76.733333;67;4726206;6252001;6.233333,,
OIC;Eaton;Norwich;United States;US;42.983333;-80.6;67;5129359;6252001;42.983333,,
DLF;Laughlin Afb;Del Rio;United States;US;29.516666999999998;-100.0;67;5520076;6252001;29.516666999999998,,
JMD;Market Centre H/P;Dallas;United States;US;7.716667;40.916667;67;5722064;6252001;7.716667,,
APF;Naples;Naples;United States;US;26.15;-81.766667;67;5778807;6252001;26.15,,
MQT;Sawyer International;Marquette;United States;US;46.533333;-87.566667;67;5000947;6252001;46.533333,,
WTL;Tuntutuliak;Tuntutuliak;United States;US;13.45;-15.8;67;\N;6252001;13.45,,
HNH;Hoonah;Hoonah;United States;US;58.1;-135.433333;67;\N;6252001;58.1,,
MKG;Muskegon;Muskegon;United States;US;43.166667;-86.233333;67;5003132;6252001;43.166667,,
WHP;Whiteman;Los Angeles;United States;US;34.259167;-118.413333;67;5368361;6252001;34.259167,,
DBQ;Municipal;Dubuque;United States;US;42.4;-90.716667;67;4854529;6252001;42.4,,
KNW;New Stuyahok;New Stuyahok;United States;US;59.533333;-157.333333;67;\N;6252001;59.533333,,
OME;Nome;Nome;United States;US;64.516667;-165.433333;67;5870133;6252001;64.516667,,
MIA;Miami International Airport;Miami;United States;US;25.783333;-80.266667;67;5304640;6252001;25.783333,,
RTE;Marguerite Bay;Marguerite Bay;United States;US;55.7;-131.633333;67;\N;6252001;55.7,,
RPX;Roundup;Roundup;United States;US;46.433333;-108.533333;67;5674878;6252001;46.433333,,
SIK;Memorial;Sikeston;United States;US;36.883333;-89.566667;67;4408672;6252001;36.883333,,
FXY;Municipal;Forest City;United States;US;43.266667;-93.65;67;5189963;6252001;43.266667,,
RIW;Riverton Regional;Riverton,-108.459722,
AEX;Alexandria International;Alexandria,-92.548611,
AAP;Andrau Airpark;Houston,-95.588333,
FRD;Friday Harbor;Friday Harbor;United States;US;48.521944;-123.024444;67;5795104;6252001;48.521944,,
GDH;Golden Horn Lodge SPB;Golden Horn Lodge,-158.874722,
EFK;Newport;Newport;United States;US;44.883333;-72.233333;67;5804694;6252001;44.883333,,
CTY;Cross City;Cross City;United States;US;29.65;-83.116667;67;4152395;6252001;29.65,,
AGC;Allegheny County;Pittsburgh;United States;US;40.35;-79.933333;67;5206379;6252001;40.35,,
BDL;Bradley International;Windsor Locks,-72.683333,
FKL;Chess-Lambertin;Franklin;United States;US;41.383333;-79.866667;67;5253710;6252001;41.383333,,
HUJ;Hugo;Hugo;United States;US;34.016667;-95.516667;67;5030884;6252001;34.016667,,
JEF;Memorial;Jefferson City,-92.039444,
MWH;Grant County;Moses Lake;United States;US;47.095;-119.261389;67;5803990;6252001;47.095,,
PAE;Snohomish County;Everett;United States;US;47.919444;-122.283611;67;5793933;6252001;47.919444,,
TSP;Kern County;Tehachapi,-118.439167,
LKK;Kulik Lake;Kulik Lake;United States;US;58.966667;-155.083333;67;\N;6252001;58.966667,,
HHI;Wheeler AFB;Wahiawa;United States;US;13.966667;-4.433333;67;5853992;6252001;13.966667,,
EKN;Elkins;Elkins;United States;US;38.883333;-79.85;67;4805033;6252001;38.883333,,
APC;Napa County;Napa;United States;US;38.45;-122.216667;67;5376095;6252001;38.45,,
BDF;Rinkenberger;Bradford;United States;US;41.183333;-89.65;67;5221030;6252001;41.183333,,
NKV;Nichen Cove;Nichen Cove,-133.227778,
OXR;Ventura;Ventura;United States;US;34.2;-119.2;67;5405878;6252001;34.2,,
OBE;County;Okeechobee;United States;US;27.25;-80.833333;67;4166822;6252001;27.25,,
IND;Indianapolis International;Indianapolis,-86.294722,
TRX;Memorial;Trenton;United States;US;44.1;-77.583333;67;5105496;6252001;44.1,,
KOZ;Ouzinkie SPB;Ouzinkie;United States;US;57.916667;-152.483333;67;\N;6252001;57.916667,,
SAG;Sagwon;Sagwon;United States;US;69.366667;-148.7;67;\N;6252001;69.366667,,
ZRV;Providence Rail;Providence;United States;US;4.616667;-54.4;67;5780020;6252001;4.616667,,
DTH;Death Valley;Death Valley;United States;US;36.452222;-116.869167;67;\N;6252001;36.452222,,
COI;Merritt Island;Cocoa;United States;US;28.133333;-80.633333;67;4151440;6252001;28.133333,,
OTO;Vor;Otto;United States;US;35.072222;-105.935556;67;\N;6252001;35.072222,,
BDG;Blanding;Blanding;United States;US;37.583333;-109.483333;67;5535484;6252001;37.583333,,
VNC;Venice Municipal;Venice,-82.440278,
LHV;W T Piper Memorial;Lock Haven;United States;US;41.133333;-77.45;67;5198635;6252001;41.133333,,
ISL;Isabel Pass;Isabel Pass;United States;US;63.5;-145.033333;67;\N;6252001;63.5,,
PNC;Ponca City;Ponca City;United States;US;36.733333;-97.1;67;4548267;6252001;36.733333,,
TBR;Statesboro-Bulloch County Airport;Statesboro,-81.736944,
NGU;Nas Chambers;Norfolk;United States;US;36.937778;-76.289444;67;5128862;6252001;36.937778,,
ESF;Esler Field;Alexandria;United States;US;31.4;-92.3;67;5082573;6252001;31.4,,
AFW;Fort Worth Alliance;Fort Worth,-97.318889,
COP;Cooperstown - Westville Airport;Cooperstown,-74.891111,
DHT;Dalhart;Dalhart;United States;US;12.186111;42.89;67;5519862;6252001;12.186111,,
GLH;Greenville;Greenville;United States;US;33.477222;-90.985;67;5564488;6252001;33.477222,,
NEW;Lakefront;New Orleans;United States;US;30.049444;-90.028889;67;4335045;6252001;30.049444,,
QWP;Van Service;Winter Park;United States;US;11.033333;3.65;67;4178560;6252001;11.033333,,
BCE;Bryce;Bryce;United States;US;37.7;-112.15;67;\N;6252001;37.7,,
YKN;Chan Gurney;Yankton;United States;US;42.916667;-97.383333;67;5233053;6252001;42.916667,,
EXI;SPB;Excursion Inlet;United States;US;58.416667;-135.433333;67;\N;6252001;58.416667,,
BYH;Blytheville AFB;Blytheville;United States;US;-13.25;130.7;67;4102412;6252001;-13.25,,
MHT;Manchester-boston Regional Airport;Manchester,-71.435556,
BLU;Blue Canyon;Blue Canyon;United States;US;51.181111;-3.401389;67;\N;6252001;51.181111,,
BGD;Borger;Borger;United States;US;35.65;-101.4;67;5517469;6252001;35.65,,
PDK;Dekalb-Peachtree;Atlanta,-84.301944,
WDG;Enid Woodring Mun.;Enid;United States;US;36.383333;-97.783333;67;4535961;6252001;36.383333,,
NVD;Nevada;Nevada;United States;US;37.85;-94.3;67;4868620;6252001;37.85,,
HRL;Valley International;Harlingen;United States;US;26.2;-97.75;67;4696233;6252001;26.2,,
WKL;Waikoloa Airport;Waikoloa;United States;US;19.916667;-155.866667;67;\N;6252001;19.916667,,
CAK;Akron/canton Regional;Akron/Canton,-81.442222,
LNI;Dew Station;Lonely;United States;US;70.916667;-153.25;67;\N;6252001;70.916667,,
SKW;Intermediate;Skwentna;United States;US;61.95;-151.2;67;\N;6252001;61.95,,
FFO;Patterson Afb;Dayton;United States;US;39.826111;-84.048333;67;6545140;6252001;39.826111,,
TKE;Tenakee SPB;Tenakee Springs;United States;US;43.286389;18.933056;67;\N;6252001;43.286389,,
BTL;WK Kellogg Regional;Battle Creek;United States;US;42.3;-85.25;67;5063564;6252001;42.3,,
BSF;Bradshaw AAF;Pohakuloa;United States;US;66.15;25.866667;67;\N;6252001;66.15,,
FOX;Fox;Fox;United States;US;64.85;-147.766667;67;\N;6252001;64.85,,
THP;Hot Springs;Thermopolis;United States;US;40.9;23.55;67;5840846;6252001;40.9,,
KYU;Koyukuk;Koyukuk;United States;US;64.9;-157.7;67;\N;6252001;64.9,,
NOL;Nakolik River;Nakolik River;United States;US;50.483333;21.45;67;\N;6252001;50.483333,,
ZSF;Springfield MA RR;Springfield;United States;US;44.633333;-64.85;67;5754005;6252001;44.633333,,
DCK;Dahl Creek Arpt;Dahl Creek;United States;US;66.933333;-156.9;67;\N;6252001;66.933333,,
OTN;Green;Oaktown;United States;US;38.866667;-87.433333;67;\N;6252001;38.866667,,
SEG;Penn Valley;Selinsgrove;United States;US;40.783333;-76.85;67;5211411;6252001;40.783333,,
DGW;Converse County;Douglas;United States;US;42.75;-105.4;67;5823516;6252001;42.75,,
KKA;Koyuk;Koyuk;United States;US;64.916667;-161.133333;67;\N;6252001;64.916667,,
LGD;La Grande;La Grande;United States;US;45.316667;-118.033333;67;5735537;6252001;45.316667,,
LEE;Leesburg;Leesburg;United States;US;28.833333;-81.816667;67;4769125;6252001;28.833333,,
OVE;Oroville;Oroville;United States;US;39.483333;-121.633333;67;5805838;6252001;39.483333,,
WWR;West Woodward;Woodward;United States;US;36.433333;-99.516667;67;4882453;6252001;36.433333,,
ADK;Adak Island Ns;Adak Island;United States;US;51.878056;-176.646111;67;\N;6252001;51.878056,,
EEN;Dillant-Hopkins;Keene;United States;US;42.9;-72.266667;67;5088262;6252001;42.9,,
AVO;Municipal;Avon Park;United States;US;27.6;-81.516667;67;4146440;6252001;27.6,,
FDK;Frederick Municipal;Frederick;United States;US;39.4175;-77.374444;67;5577217;6252001;39.4175,,
PKF;Park Falls;Park Falls;United States;US;45.933333;-90.433333;67;5266230;6252001;45.933333,,
PTC;Port Alice;Port Alice;United States;US;55.791667;-133.6;67;\N;6252001;55.791667,,
DVL;Devils Lake;Devils Lake;United States;US;48.116667;-98.9;67;5058868;6252001;48.116667,,
TRH;Trona;Trona;United States;US;35.8125;-117.327222;67;\N;6252001;35.8125,,
ZPH;Zephyrhills;Zephyrhills;United States;US;28.233333;-82.166667;67;4178941;6252001;28.233333,,
EVA;Landing Strip;Evadale;United States;US;30.35;-94.066667;67;4689569;6252001;30.35,,
PTT;Pratt;Pratt;United States;US;37.7;-98.75;67;4277752;6252001;37.7,,
CKD;Crooked Creek;Crooked Creek;United States;US;61.866667;-158.133333;67;\N;6252001;61.866667,,
DET;Detroit City;Detroit,-83.009722,
OCE;Municipal;Ocean City;United States;US;38.316667;-75.116667;67;4503351;6252001;38.316667,,
PPV;Port Protection;Port Protection;United States;US;56.333333;-133.666667;67;\N;6252001;56.333333,,
APN;Alpena County Regional;Alpena;United States;US;45.083333;-83.55;67;4984075;6252001;45.083333,,
TSG;Intermediate;Tanacross;United States;US;45.228056;18.073333;67;\N;6252001;45.228056,,
RDV;Red Devil;Red Devil;United States;US;61.833333;-157.333333;67;\N;6252001;61.833333,,
OCF;Taylor Field;Ocala;United States;US;29.166667;-82.216667;67;4166673;6252001;29.166667,,
MGM;Dannelly Fld;Montgomery;United States;US;32.3;-86.4;67;5201752;6252001;32.3,,
WCR;Chandalar;Chandalar;United States;US;67.5;-148.5;67;\N;6252001;67.5,,
CHA;Lovell Field;Chattanooga,-85.203889,
XPR;Pine Ridge;Pine Ridge;United States;US;43.016667;-102.516667;67;5767939;6252001;43.016667,,
MQY;Smyrna;Smyrna;United States;US;35.983333;-86.516667;67;4658590;6252001;35.983333,,
AYZ;Zahns;Amityville;United States;US;40.666667;-73.416667;67;5107140;6252001;40.666667,,
SRU;Skypark;Santa Cruz;United States;US;2.166667;-76.1;67;5393052;6252001;2.166667,,
ZNC;Nyac;Nyac;United States;US;60.983333;-159.983333;67;\N;6252001;60.983333,,
SME;Pulaski County;Somerset;United States;US;37.083333;-84.6;67;5273620;6252001;37.083333,,
RNC;Warren County;Mcminnville;United States;US;-24.016667;132.25;67;5739936;6252001;-24.016667,,
PMB;Intermediate;Pembina;United States;US;48.95;-97.233333;67;\N;6252001;48.95,,
OCI;Oceanic;Oceanic;United States;US;60.1;-148.216667;67;\N;6252001;60.1,,
PTU;Platinum;Platinum;United States;US;59.016667;-161.816667;67;\N;6252001;59.016667,,
GON;New London;New London;United States;US;41.333333;-72.05;67;5264455;6252001;41.333333,,
WRL;Worland;Worland,-107.884167,
GWV;Glendale;Glendale;United States;US;-17.360556;31.059722;67;5423075;6252001;-17.360556,,
SIY;Siskiyou County;Montague;United States;US;41.781389;-122.466389;67;5568152;6252001;41.781389,,
PLK;M Graham Clark;Branson/point Lookout;United States;US;36.616667;-93.216667;67;4378219;6252001;36.616667,,
MXO;Municipal;Monticello;United States;US;40.65;15.016667;67;5543377;6252001;40.65,,
SGF;Springfield-Branson Rg;Springfield;United States;US;37.25;-93.383333;67;5754005;6252001;37.25,,
MYV;Yuba County;Marysville;United States;US;39.1;-121.566667;67;5802570;6252001;39.1,,
BIL;Billings;Billings;United States;US;45.8;-108.533333;67;5640350;6252001;45.8,,
CZN;Chisana Field;Chisana;United States;US;62.083333;-142.05;67;\N;6252001;62.083333,,
DLL;Dillon;Dillon;United States;US;34.416667;-79.366667;67;5648657;6252001;34.416667,,
ANV;Anvik;Anvik;United States;US;62.65;-160.216667;67;\N;6252001;62.65,,
MRB;Eastern Wv Regional Airport/Shepherd Field;Martinsburg;United States;US;39.401667;-77.984444;67;5200055;6252001;39.401667,,
ROA;Roanoke Regional Airport;Roanoke;United States;US;37.316667;-79.983333;67;4925483;6252001;37.316667,,
SFO;San Francisco International;San Francisco,-122.375,
INL;Falls Intl;International Falls;United States;US;48.566667;-93.4;67;5031404;6252001;48.566667,,
ALN;Alton;Alton;United States;US;38.891667;-90.172222;67;5082602;6252001;38.891667,,
ESD;Orcas Island;Eastsound;United States;US;48.716667;-122.816667;67;\N;6252001;48.716667,,
GRB;Austin-straubel Field;Green Bay;United States;US;44.483333;-88.133333;67;5254962;6252001;44.483333,,
NJK;El Centro NAF;El Centro,-115.671667,
SEE;Gillespie Field;San Diego;United States;US;32.550278;-116.916389;67;5391811;6252001;32.550278,,
MCK;Mccook;Mccook;United States;US;40.2;-100.583333;67;5697383;6252001;40.2,,
LSE;Municipal;La Crosse;United States;US;43.883333;-91.25;67;5258957;6252001;43.883333,,
MPZ;Municipal;Mt Pleasant;United States;US;40.966667;-91.55;67;\N;6252001;40.966667,,
EAU;Chippewa Valley Regional Airport;Eau Claire,-91.484167,
OGG;Kahului;Maui,-156.430556,
OTZ;Kotzebue;Kotzebue;United States;US;66.866667;-162.633333;67;5866726;6252001;66.866667,,
CBF;Municipal;Council Bluffs;United States;US;41.266667;-95.866667;67;4852832;6252001;41.266667,,
IDI;ndiana County Airport;Indiana,-79.105556,
SUS;Spirit Of St Louis;St Louis;United States;US;38.662222;-90.651944;67;\N;6252001;38.662222,,
BKE;Baker;Baker;United States;US;44.833333;-117.816667;67;5638252;6252001;44.833333,,
BTV;Burlington International;Burlington;United States;US;44.471944;-73.153333;67;5788539;6252001;44.471944,,
AHH;Municipal;Amery;United States;US;45.283333;-92.366667;67;5243872;6252001;45.283333,,
PRB;Paso Robles;Paso Robles;United States;US;35.666667;-120.633333;67;5381438;6252001;35.666667,,
ASX;Ashland;Ashland;United States;US;46.548611;-90.918889;67;5711789;6252001;46.548611,,
HSV;Huntsville International - Carl T. Jones Field;Huntsville,-86.775,
SAT;San Antonio International;San Antonio;United States;US;29.533333;-98.466667;67;4726206;6252001;29.533333,,
TKJ;Tok;Tok;United States;US;53.333333;6.35;67;5876363;6252001;53.333333,,
SSF;Stinson Municipal;San Antonio;United States;US;6.233333;-76.733333;67;4726206;6252001;6.233333,,
DRT;International;Del Rio;United States;US;29.366667;-100.916667;67;5520076;6252001;29.366667,,
CGX;Merrill C Meigs;Chicago;United States;US;41.858889;-87.608333;67;4887398;6252001;41.858889,,
BAR;Baker Aaf;Baker Island;United States;US;0.216667;-176.516667;67;\N;6252001;0.216667,,
CEW;Bob Sikes;Crestview;United States;US;30.783333;-86.516667;67;4152311;6252001;30.783333,,
ZME;Metropark Rail;Newark;United States;US;40.919444;74.169444;67;5376803;6252001;40.919444,,
TOG;Togiak Village;Togiak Village;United States;US;-0.333333;122.0;67;\N;6252001;-0.333333,,
ANC;Ted Stevens Anchorage International Airport;Anchorage;United States;US;61.174444;-149.996389;67;5879400;6252001;61.174444,,
KSR;Federal No 1;Sandy River;United States;US;51.0;-96.383333;67;\N;6252001;51.0,,
LAL;Municipal;Lakeland;United States;US;28.083333;-81.95;67;5123872;6252001;28.083333,,
AXB;Alexandria Bay;Alexandria Bay;United States;US;44.2525;-75.901389;67;5106950;6252001;44.2525,,
BFG;Bullfrog Basin;Bullfrog Basin;United States;US;37.55;-110.708333;67;\N;6252001;37.55,,
CJN;Gillespie Field;El Cajon;United States;US;32.826111;-116.9725;67;5345529;6252001;32.826111,,
WDY;Kodiak Fss;Kodiak;United States;US;56.866667;-1.25;67;5866583;6252001;56.866667,,
SJN;St Johns;St Johns;United States;US;34.518889;-109.3775;67;\N;6252001;34.518889,,
HCB;Shoal Cove;Shoal Cove;United States;US;55.458333;-131.283333;67;\N;6252001;55.458333,,
SUD;Stroud;Stroud;United States;US;35.733333;-96.65;67;4552361;6252001;35.733333,,
OCH;A L Mangham Jr. Regional;Nacogdoches,-94.65,
MGJ;Orange County;Montgomery;United States;US;41.51;-74.264722;67;5201752;6252001;41.51,,
SMK;St Michael;St Michael;United States;US;63.483333;-162.016667;67;\N;6252001;63.483333,,
AVL;Asheville Regional Airport;Fletcher;United States;US;35.436111;-82.541667;67;4536996;6252001;35.436111,,
IVH;Ivishak;Ivishak;United States;US;69.4;-148.25;67;\N;6252001;69.4,,
PNU;Panguitch;Panguitch;United States;US;37.833333;-112.383333;67;5544525;6252001;37.833333,,
CFV;Municipal;Coffeyville;United States;US;17.533333;-88.166667;67;4269789;6252001;17.533333,,
GAG;Gage;Gage;United States;US;36.316667;-99.75;67;\N;6252001;36.316667,,
MSP;Minneapolis - St. Paul Intl;Minneapolis;United States;US;44.883333;-93.216944;67;5037649;6252001;44.883333,,
WSX;Westsound;Westsound;United States;US;48.666667;-122.883333;67;\N;6252001;48.666667,,
MMU;Municipal;Morristown;United States;US;40.8;-74.416667;67;5238755;6252001;40.8,,
RDG;Municipal/Spaatz Fld;Reading;United States;US;40.383333;-75.966667;67;5207728;6252001;40.383333,,
AFN;Municipal;Jaffrey;United States;US;42.8;-72.0;67;5088061;6252001;42.8,,
KPK;Parks SPB;Parks;United States;US;57.416667;-155.9;67;5308164;6252001;57.416667,,
MQI;Quincy;Quincy;United States;US;42.25;-71.0;67;5807713;6252001;42.25,,
DSM;Des Moines International;Des Moines,-93.663056,
KPT;Jackpot;Jackpot;United States;US;41.966667;-114.666667;67;\N;6252001;41.966667,,
MHE;Municipal;Mitchell;United States;US;43.766667;-98.033333;67;5697633;6252001;43.766667,,
RAL;Riverside Municipal;Riverside;United States;US;33.95;-117.433333;67;5387877;6252001;33.95,,
ISO;Stallings Field;Kinston;United States;US;35.333333;-77.616667;67;4474436;6252001;35.333333,,
AKC;Fulton International;Akron/Canton;United States;US;-26.8;23.75;67;5574199;6252001;-26.8,,
IMM;Immokalee;Immokalee;United States;US;26.416667;-81.416667;67;4159553;6252001;26.416667,,
CNH;Municipal;Claremont;United States;US;43.366667;-72.366667;67;5337696;6252001;43.366667,,
RLA;National;Rolla;United States;US;38.133333;-91.783333;67;5061159;6252001;38.133333,,
BXK;Buckeye Municipal;Buckeye;United States;US;33.366667;-112.583333;67;5287262;6252001;33.366667,,
CFK;Chefornak;Chefornak,-164.285556,
COS;Colorado Springs;Colorado Springs;United States;US;38.816667;-104.716667;67;5417598;6252001;38.816667,,
FOD;Fort Dodge Regional;Fort Dodge,-94.191944,
MPV;Edward F Knapp State;Montpelier,-72.562222,
BIF;Biggs Aaf;El Paso;United States;US;31.849444;-106.38;67;5520993;6252001;31.849444,,
STJ;Rosecrans Memorial;St Joseph;United States;US;39.766667;-94.916667;67;\N;6252001;39.766667,,
MOR;Moore-Murrell;Morristown;United States;US;36.183333;-83.366667;67;5238755;6252001;36.183333,,
SFZ;North Central;Pawtucket,-71.491389,
MIF;Roy Hurd Memorial;Monahans;United States;US;31.6;-102.9;67;5526514;6252001;31.6,,
CKX;Chicken;Chicken;United States;US;64.083333;-141.916667;67;\N;6252001;64.083333,,
SCH;Schenectady County;Schenectady,-73.928889,
TNC;Tin City Afs;Tin City,-167.921667,
HED;Herendeen;Herendeen;United States;US;55.8;-160.9;67;\N;6252001;55.8,,
DRU;Drummond;Drummond;United States;US;46.616667;-113.2;67;\N;6252001;46.616667,,
SKJ;Sitkinak Cgs;Sitkinak Island;United States;US;56.533333;-154.133333;67;\N;6252001;56.533333,,
ERV;Kerrville;Kerrville;United States;US;29.983333;-99.083333;67;4703078;6252001;29.983333,,
DRO;La Plata;Durango;United States;US;37.15;-107.75;67;5420241;6252001;37.15,,
IJX;Municipal;Jacksonville;United States;US;39.766667;-90.233333;67;5733409;6252001;39.766667,,
HIO;Portland;Hillsboro;United States;US;45.516667;-122.983333;67;5731371;6252001;45.516667,,
BVO;Bartlesville;Bartlesville;United States;US;36.766667;-96.0;67;4529987;6252001;36.766667,,
KGZ;Glacier Creek;Glacier Creek;United States;US;61.45;-142.4;67;\N;6252001;61.45,,
RME;Griffiss AFB;Rome,-75.406944,
LHM;Lincoln Regional Airport;Lincoln,-121.351389,
FNT;Bishop International Airport;Flint;United States;US;42.965556;-83.743611;67;4992982;6252001;42.965556,,
PRT;Coast Guard Heliport;Point Retreat;United States;US;47.533333;12.516667;67;\N;6252001;47.533333,,
AXX;Angel Fire;Angel Fire;United States;US;36.416667;-105.283333;67;\N;6252001;36.416667,,
SPQ;Catalina SPB;San Pedro;United States;US;33.75;-118.366667;67;\N;6252001;33.75,,
GUN;Gunter AFB;Montgomery;United States;US;51.066667;-1.166667;67;5201752;6252001;51.066667,,
OEA;Oneal;Vincennes;United States;US;38.666667;-87.516667;67;4266307;6252001;38.666667,,
RCT;Miller Field;Reed City;United States;US;43.9;-85.516667;67;5006946;6252001;43.9,,
CBK;Municipal;Colby;United States;US;39.416667;-101.05;67;5445194;6252001;39.416667,,
OCA;Ocean Reef;Ocean Reef;United States;US;25.366667;-80.266667;67;\N;6252001;25.366667,,
CHZ;State;Chiloquin;United States;US;42.583333;-121.866667;67;\N;6252001;42.583333,,
FIC;Fire Cove;Fire Cove;United States;US;55.777778;-131.5375;67;\N;6252001;55.777778,,
CRE;Grand Strand Airport;Myrtle Beach;United States;US;33.811667;-78.723889;67;4588718;6252001;33.811667,,
HMS;Homeshore;Homeshore AK;United States;US;58.294444;-135.347222;67;\N;6252001;58.294444,,
UUK;Kuparuk;Kuparuk;United States;US;70.416667;-148.916667;67;\N;6252001;70.416667,,
MLB;Melbourne International Airport;Melbourne;United States;US;28.1;-80.633333;67;4163971;6252001;28.1,,
IRB;Municipal;Iraan;United States;US;30.9;-101.9;67;5523798;6252001;30.9,,
BRG;Municipal;Whitesburg;United States;US;37.116667;-82.816667;67;4313346;6252001;37.116667,,
ASY;Ashley;Ashley;United States;US;46.033333;-99.366667;67;5178612;6252001;46.033333,,
BXC;Boxborough;Boxborough;United States;US;42.483611;-71.535278;67;\N;6252001;42.483611,,
LRD;International;Laredo;United States;US;27.533333;-99.466667;67;4705349;6252001;27.533333,,
KEU;Kelly Bar;Kelly Bar;United States;US;50.6;-4.266667;67;\N;6252001;50.6,,
CLD;Mc Clellan-Palomar Airport;Carlsbad,-117.266667,
PMX;Metropolitan;Palmer;United States;US;42.15;-72.316667;67;5871146;6252001;42.15,,
ZML;Milwaukee General Mitchell;Milwaukee,171.916667,
MGW;Morgantown;Morgantown;United States;US;39.633333;-79.916667;67;4815352;6252001;39.633333,,
SCK;Stockton Metropolitan Airport;Stockton;United States;US;37.9;-121.25;67;5399020;6252001;37.9,,
PAQ;Municipal;Palmer;United States;US;61.6;-149.116667;67;5871146;6252001;61.6,,
JSD;Sikorsky Heliport;Stratford,-73.096667,
CIK;Chalkyitsik;Chalkyitsik;United States;US;66.65;-143.75;67;\N;6252001;66.65,,
LPW;Little Port Walter;Little Port Walter;United States;US;56.383333;-134.833333;67;\N;6252001;56.383333,,
LQK;Pickens;Pickens;United States;US;34.816667;-82.7;67;4590946;6252001;34.816667,,
BSZ;Bartletts;Bartletts;United States;US;58.266667;-157.483333;67;\N;6252001;58.266667,,
CLT;Charlotte Douglas;Charlotte;United States;US;35.216667;-80.933333;67;4988584;6252001;35.216667,,
HOM;Homer;Homer;United States;US;59.633333;-151.5;67;5864145;6252001;59.633333,,
CTO;Peconic River;Calverton;United States;US;40.916667;-72.75;67;5111137;6252001;40.916667,,
PLR;St Clair County;Pell City;United States;US;33.583333;-86.283333;67;4082589;6252001;33.583333,,
LRF;Little Rock Afb;Jacksonville;United States;US;34.918056;-92.146389;67;5733409;6252001;34.918056,,
WVL;Robert Lafleur;Waterville;United States;US;44.533333;-69.666667;67;5815184;6252001;44.533333,,
LAX;Los Angeles International;Los Angeles;United States;US;33.9425;-118.407222;67;5368361;6252001;33.9425,,
PEC;Pelican SPB;Pelican;United States;US;57.95;-136.233333;67;\N;6252001;57.95,,
RST;International;Rochester;United States;US;43.908333;-92.5;67;5808524;6252001;43.908333,,
CGI;Cape Girardeau;Cape Girardeau;United States;US;37.216667;-89.566667;67;4379966;6252001;37.216667,,
ATE;Antlers;Antlers;United States;US;34.233333;-95.616667;67;4529418;6252001;34.233333,,
CCR;Buchanan Fld;Concord;United States;US;37.983333;-122.052778;67;5339111;6252001;37.983333,,
BNW;Boone;Boone;United States;US;42.066667;-93.883333;67;4849051;6252001;42.066667,,
PMD;La Palmdale Regional Airport;Palmdale,-118.084444,
ELA;Eagle Lake;Eagle Lake;United States;US;29.583333;-96.333333;67;5251145;6252001;29.583333,,
PGR;Municipal;Paragould;United States;US;36.05;-90.5;67;4125388;6252001;36.05,,
KPC;Port Clarence;Port Clarence;United States;US;65.25;-166.85;67;\N;6252001;65.25,,
ALO;Waterloo;Waterloo;United States;US;42.55;-92.383333;67;5277989;6252001;42.55,,
BGE;Decatur County;Bainbridge;United States;US;30.9;-84.6;67;5146368;6252001;30.9,,
DUT;Emergency Field;Dutch Harbor;United States;US;53.9;-166.533333;67;\N;6252001;53.9,,
FAY;Municipal;Fayetteville;United States;US;35.0;-78.883333;67;5116968;6252001;35.0,,
OLY;Olney-Noble;Olney;United States;US;38.716667;-88.083333;67;4716683;6252001;38.716667,,
WSJ;San Juan SPB;San Juan;United States;US;57.733333;-153.3;67;4726440;6252001;57.733333,,
PCK;Porcupine Creek;Porcupine Creek;United States;US;67.25;-150.283333;67;\N;6252001;67.25,,
ILL;Willmar;Willmar;United States;US;45.116667;-95.1;67;5052916;6252001;45.116667,,
MLS;Municipal;Miles City;United States;US;46.433333;-105.883333;67;5666176;6252001;46.433333,,
ONN;Onion Bay;Onion Bay;United States;US;58.233333;-152.833333;67;\N;6252001;58.233333,,
SNS;Salinas;Salinas;United States;US;36.666667;-121.616667;67;5391295;6252001;36.666667,,
NES;East 34th St Landing;New York;United States;US;5.5;-70.483333;67;5128581;6252001;5.5,,
LKV;Lake County;Lakeview;United States;US;42.166667;-120.4;67;5735792;6252001;42.166667,,
MIO;Miami;Miami;United States;US;10.016667;-73.65;67;5304640;6252001;10.016667,,
HYR;Municipal;Hayward;United States;US;46.033333;-91.45;67;5355933;6252001;46.033333,,
BCJ;Baca Grande;Baca Grande;United States;US;37.966667;-105.766667;67;\N;6252001;37.966667,,
PSC;Tri-cities;Pasco,-119.119167,
CBE;Wiley Ford;Cumberland;United States;US;39.6;-78.766667;67;5249896;6252001;39.6,,
GDM;Municipal;Gardner;United States;US;42.566667;-72.0;67;4937557;6252001;42.566667,,
UQE;Queen;Queen;United States;US;58.883333;-158.5;67;\N;6252001;58.883333,,
AHC;Amedee AAF;Herlong;United States;US;60.572222;4.951667;67;\N;6252001;60.572222,,
PSP;Municipal;Palm Springs;United States;US;33.833333;-116.5;67;5380668;6252001;33.833333,,
EED;Needles;Needles;United States;US;34.85;-114.616667;67;5376358;6252001;34.85,,
FST;Pecos County;Fort Stockton;United States;US;30.916667;-102.916667;67;5521746;6252001;30.916667,,
SSC;Shaw AFB;Sumter;United States;US;53.283333;10.9;67;4597948;6252001;53.283333,,
ESC;Delta County Arpt;Escanaba;United States;US;45.722778;-87.093611;67;4992232;6252001;45.722778,,
VPS;Eglin AFB;Valparaiso,-86.525278,
CSM;Sherman;Clinton;United States;US;35.516667;-98.983333;67;5773001;6252001;35.516667,,
MHN;Mullen;Mullen;United States;US;42.05;-101.066667;67;\N;6252001;42.05,,
HUL;International;Houlton;United States;US;46.133333;-67.8;67;4967563;6252001;46.133333,,
SNK;Winston Field;Snyder;United States;US;32.7;-100.95;67;5530921;6252001;32.7,,
RBL;Red Bluff Fss;Red Bluff;United States;US;40.15;-122.25;67;5570065;6252001;40.15,,
CZO;Chistochina;Chistochina;United States;US;62.566667;-144.666667;67;\N;6252001;62.566667,,
HAO;Hamilton;Hamilton;United States;US;39.433333;-84.5;67;5655959;6252001;39.433333,,
HUF;Hulman Field;Terre Haute;United States;US;10.733333;-61.35;67;4265737;6252001;10.733333,,
AHF;Municipal;Arapahoe;United States;US;15.316667;-88.883333;67;5817340;6252001;15.316667,,
VEL;Vernal;Vernal,-109.516667,
BOF;Bolling AFB;Washington;United States;US;49.0;-72.5;67;5549222;6252001;49.0,,
JPD;Heliport;Pasadena;United States;US;34.133333;-118.133333;67;5381396;6252001;34.133333,,
EOK;Keokuk;Keokuk;United States;US;40.466667;-91.433333;67;4863349;6252001;40.466667,,
JNH;North Park Inn H/P;Dallas;United States;US;7.716667;40.916667;67;5722064;6252001;7.716667,,
NSF;Andrews NAF;Camp Springs;United States;US;19.35;100.55;67;4350288;6252001;19.35,,
CCB;Cable Airport;Upland,-117.6875,
LZU;Gwinnett County Airport;Lawrenceville;United States;US;33.978056;-83.9625;67;5100356;6252001;33.978056,,
MNN;Municipal;Marion;United States;US;40.616667;-83.066667;67;5261872;6252001;40.616667,,
SVS;Stevens Village;Stevens Village;United States;US;66.033333;-149.1;67;\N;6252001;66.033333,,
ACV;Arcata;Arcata;United States;US;40.983333;-124.1;67;5558953;6252001;40.983333,,
FDR;Municipal;Frederick;United States;US;34.35;-98.983333;67;5577217;6252001;34.35,,
GUS;Grissom Afb;Peru,-86.152222,
CAE;Metropolitan Airport;Columbia,-81.116667,
HKA;Municipal;Blytheville;United States;US;35.933333;-89.916667;67;4102412;6252001;35.933333,,
THM;Thompsonfield;Thompsonfield;United States;US;50.233333;-1.566666999999999;67;\N;6252001;50.233333,,
XPU;West Kuparuk;West Kuparuk;United States;US;70.333333;-149.333333;67;\N;6252001;70.333333,,
CHL;Challis;Challis;United States;US;44.5;-114.233333;67;\N;6252001;44.5,,
ASE;Aspen;Aspen;United States;US;39.223056;-106.868889;67;5412230;6252001;39.223056,,
SUO;Sun River;Sun River;United States;US;-0.533333;-88.55;67;\N;6252001;-0.533333,,
OCW;Warren Field;Washington;United States;US;35.55;-77.05;67;5549222;6252001;35.55,,
TOP;Philip Billard;Topeka;United States;US;-13.35;32.766667;67;4927264;6252001;-13.35,,
UKN;Municipal;Waukon;United States;US;43.266667;-91.483333;67;4880997;6252001;43.266667,,
PTW;Pottstown/Limerick;Pottstown;United States;US;40.233333;-75.65;67;5207069;6252001;40.233333,,
PRC;Prescott;Prescott;United States;US;34.65;-112.416667;67;5309842;6252001;34.65,,
IMT;Ford;Iron Mountain;United States;US;45.816667;-88.116667;67;4997232;6252001;45.816667,,
ARV;Noble F. Lee;Minocqua;United States;US;45.916667;-89.733333;67;\N;6252001;45.916667,,
PSN;Palestine Municipal Airport;Palestine,-95.706389,
SLJ;Stellar Air Park;Chandler;United States;US;33.319444;-111.9;67;5289282;6252001;33.319444,,
SER;Freeman Municipal;Seymour;United States;US;38.95;-85.883333;67;5272776;6252001;38.95,,
FMS;Municipal;Fort Madison;United States;US;40.65;-91.316667;67;4857507;6252001;40.65,,
JMN;Municipal Heliport;Mankato;United States;US;44.168889;-93.995;67;5036420;6252001;44.168889,,
CLI;Clintonville;Clintonville;United States;US;43.6;-81.533333;67;5248985;6252001;43.6,,
ZRK;VanGalder Bus Termina;Rockford;United States;US;-32.85;24.166667;67;5168451;6252001;-32.85,,
CHI;Chicago FSS;Chicago;United States;US;41.883056;-87.766111;67;4887398;6252001;41.883056,,
SUN;Sun Valley;Sun Valley;United States;US;43.5;-114.316667;67;5609286;6252001;43.5,,
RIR;Riverside Fla-Bob;Riverside;United States;US;-29.666667;30.016667;67;5387877;6252001;-29.666667,,
ZUA;Utica NNY Rail;Utica;United States;US;37.066667;10.066667;67;5174913;6252001;37.066667,,
VCB;View Cove;View Cove;United States;US;55.080556;-133.016667;67;\N;6252001;55.080556,,
CHS;Charleston, SC;United States;US;32.898611;-80.040556;67;4960682;6252001;32.898611,-80.040556
EUE;Eureka;Eureka;United States;US;39.516667;-115.966667;67;5651208;6252001;39.516667,,
KXA;Kasaan SPB;Kasaan;United States;US;55.5;-132.5;67;\N;6252001;55.5,,
UMT;Umiat;Umiat;United States;US;69.366667;-152.133333;67;\N;6252001;69.366667,,
YNG;Youngstown;Youngstown;United States;US;41.266667;-80.666667;67;5177568;6252001;41.266667,,
SNL;Municipal;Shawnee;United States;US;35.316667;-96.916667;67;4551177;6252001;35.316667,,
EGE;Eagle County;Vail/Eagle;United States;US;39.633333;-106.916667;67;5442727;6252001;39.633333,,
RNO;Reno-Tahoe International;Reno,-119.768056,
CNW;TSTC Waco Airport;Waco,-97.074167,
CZP;Cape Pole;Cape Pole;United States;US;55.966667;-133.783333;67;\N;6252001;55.966667,,
ENA;Kenai;Kenai;United States;US;60.55;-151.266667;67;5866063;6252001;60.55,,
SES;Selfield;Selma;United States;US;32.45;-86.95;67;5394329;6252001;32.45,,
ANN;Annette Island;Annette Island;United States;US;55.033333;-131.566667;67;\N;6252001;55.033333,,
EDF;Elmendorf Afb;Anchorage;United States;US;61.251389;-149.806389;67;5879400;6252001;61.251389,,
AXS;Municipal;Altus;United States;US;34.702778;-99.333333;67;4529292;6252001;34.702778,,
UIN;Municipal;Quincy;United States;US;39.933333;-91.183333;67;5807713;6252001;39.933333,,
VNY;Van Nuys;Los Angeles,-118.49,
GBO;Baltimore Greenbelt T;Baltimore;United States;US;39.186111;-76.683333;67;4505716;6252001;39.186111,,
MEJ;Meadville;Meadville;United States;US;41.619444;-80.2;67;5200644;6252001;41.619444,,
DTR;Decatur Island;Decatur Island;United States;US;42.218611;-83.348333;67;\N;6252001;42.218611,,
TBN;Forney AAF;Fort Leonard Wood;United States;US;37.733333;-92.15;67;\N;6252001;37.733333,,
LNS;Lancaster;Lancaster;United States;US;40.116667;-76.3;67;5364940;6252001;40.116667,,
LTW;St Marys County;Leonardtown;United States;US;38.283333;-77.633333;67;4360551;6252001;38.283333,,
VOK;Volk Field;Camp Douglas;United States;US;43.916667;-90.266667;67;\N;6252001;43.916667,,
YIP;Willow Run;Detroit,-83.383333,
BBX;Wings Field;Blue Bell;United States;US;40.15;-75.266667;67;5180961;6252001;40.15,,
SHV;Regional;Shreveport;United States;US;32.45;-93.816667;67;4341513;6252001;32.45,,
MSS;Richards Field;Massena;United States;US;44.933333;-74.85;67;5126194;6252001;44.933333,,
KCR;Colorado Creek;Colorado Creek;United States;US;-17.2;129.366667;67;\N;6252001;-17.2,,
FFL;Municipal;Fairfield;United States;US;40.933333;-91.95;67;5347335;6252001;40.933333,,
LNP;Wise;Wise;United States;US;36.983333;-82.566667;67;4829341;6252001;36.983333,,
ORF;Norfolk International Airport;Norfolk;United States;US;36.9;-76.2;67;5128862;6252001;36.9,,
OWA;Owatonna;Owatonna;United States;US;44.116667;-93.25;67;5040647;6252001;44.116667,,
PIR;Pierre;Pierre;United States;US;44.383333;-100.283333;67;5767918;6252001;44.383333,,
SCF;Scottsdale Municipal;Phoenix;United States;US;33.5;-111.933333;67;5745656;6252001;33.5,,
ESO;Espanola;Espanola;United States;US;36.1;-106.033333;67;5467024;6252001;36.1,,
FLO;Florence;Florence;United States;US;34.183333;-79.716667;67;5727032;6252001;34.183333,,
MSL;Sheffield;Sheffield;United States;US;34.75;-87.616667;67;5281031;6252001;34.75,,
JAX;Jacksonville, FL;United States;US;30.416667;-81.633333;67;5733409;6252001;30.416667,-81.633333
OLM;Olympia;Olympia;United States;US;46.966667;-122.9;67;5805687;6252001;46.966667,,
MXY;Mccarthy;Mccarthy;United States;US;61.416667;-142.916667;67;\N;6252001;61.416667,,
CHK;Municipal;Chickasha;United States;US;35.033333;-97.966667;67;4533029;6252001;35.033333,,
ETS;Municipal;Enterprise;United States;US;31.316667;-85.85;67;5774535;6252001;31.316667,,
NIB;Nikolai;Nikolai;United States;US;63.016667;-154.383333;67;\N;6252001;63.016667,,
CIB;Ap In The Sky;Catalina Island;United States;US;33.416389;-118.416389;67;\N;6252001;33.416389,,
PLN;Emmet County;Pellston;United States;US;45.566667;-84.8;67;\N;6252001;45.566667,,
JLB;Heliport;Long Beach;United States;US;-53.2;73.483333;67;5801520;6252001;-53.2,,
SJT;Mathis Fld;San Angelo;United States;US;31.357778;-100.496389;67;5530022;6252001;31.357778,,
MRC;Maury County;Columbia;United States;US;-10.75;-67.866667;67;5338800;6252001;-10.75,,
AUZ;Municipal Airport;Aurora;United States;US;41.766667;-88.316667;67;5412347;6252001;41.766667,,
ARA;Acadiana Regional;New Iberia;United States;US;80.133333;32.583333;67;4334971;6252001;80.133333,,
AOH;Allen County;Lima;United States;US;40.716667;-84.033333;67;5160783;6252001;40.716667,,
JDT;Downtown Heliport;Minneapolis;United States;US;8.316667;40.033333;67;5037649;6252001;8.316667,,
CAR;Municipal;Caribou;United States;US;46.866667;-68.016667;67;4960140;6252001;46.866667,,
PTH;Port Heiden;Port Heiden;United States;US;56.966667;-158.633333;67;\N;6252001;56.966667,,
MHR;Sacramento Mather Airport;Sacramento,-121.297222,
EWN;Simmons Nott;New Bern;United States;US;35.066667;-77.05;67;4481682;6252001;35.066667,,
PIM;Garden Harris County;Pine Mountain;United States;US;32.833333;-84.85;67;4216049;6252001;32.833333,,
CCY;Municipal;Charles City;United States;US;43.066667;-92.666667;67;4851163;6252001;43.066667,,
INT;Smith-Reynolds;Winston Salem;United States;US;36.133333;-80.219444;67;\N;6252001;36.133333,,
ENV;Wendover;Wendover;United States;US;40.733333;-114.033333;67;5784492;6252001;40.733333,,
JRE;East 60th Street H/P;New York;United States;US;40.8;-73.966667;67;5128581;6252001;40.8,,
SHH;Shishmaref;Shishmaref;United States;US;66.25;-166.05;67;\N;6252001;66.25,,
LSD;Blue Grass Station Army Heliport;Lexington,-84.316667,
CDC;Cedar City;Cedar City;United States;US;37.7;-113.1;67;5536630;6252001;37.7,,
NNK;Naknek;Naknek;United States;US;58.75;-156.533333;67;\N;6252001;58.75,,
BTR;Ryan;Baton Rouge;United States;US;30.533333;-91.15;67;4315588;6252001;30.533333,,
FRR;Front Royal-Warren County;Front Royal,-78.253611,
JCY;Johnson;Johnson;United States;US;32.333333;-97.333333;67;5445688;6252001;32.333333,,
DTL;Municipal;Detroit Lakes;United States;US;46.833333;-95.883333;67;5024237;6252001;46.833333,,
AED;Aleneva;Aleneva;United States;US;-0.6000000000000001;10.083333;67;\N;6252001;-0.6000000000000001,,
BIS;Bismarck;Bismarck;United States;US;46.783333;-100.75;67;5688025;6252001;46.783333,,
EFD;Ellington Field;Houston;United States;US;29.602778;-95.152778;67;5864312;6252001;29.602778,,
LAM;Los Alamos;Los Alamos;United States;US;35.883333;-106.316667;67;5476825;6252001;35.883333,,
HLM;Park Township;Holland;United States;US;42.783333;-86.116667;67;5157759;6252001;42.783333,,
ANW;Ainsworth;Ainsworth;United States;US;42.583333;-99.983333;67;5062769;6252001;42.583333,,
CNO;Chino;Chino;United States;US;34.016667;-117.7;67;5336537;6252001;34.016667,,
JDB;Downtown Heliport;Dallas;United States;US;32.766667;-97.316667;67;5722064;6252001;32.766667,,
SWF;Stewart;Newburgh;United States;US;41.5;-74.016667;67;5128654;6252001;41.5,,
TVC;Cherry Capital Airport;Traverse City;United States;US;44.741389;-85.582222;67;5012495;6252001;44.741389,,
CIU;Chippewa County;Sault Ste Marie;United States;US;46.25;-84.466667;67;\N;6252001;46.25,,
HSH;Henderson Sky Harbor;Las Vegas;United States;US;35.968333;-115.119167;67;5506956;6252001;35.968333,,
GKT;Gatlinburg;Gatlinburg;United States;US;31.353611;-84.375;67;4624443;6252001;31.353611,,
HOL;Holikachu;Holikachu;United States;US;62.9;-159.516667;67;\N;6252001;62.9,,
LOR;Lowe Army Heliport;Ozark;United States;US;53.116667;22.45;67;4402245;6252001;53.116667,,
ECS;Mondell;Newcastle;United States;US;43.883333;-104.316667;67;5833349;6252001;43.883333,,
RKC;Yreka;Yreka;United States;US;41.733333;-122.633333;67;5574093;6252001;41.733333,,
GFA;Malmstrom AFB;Great Falls;United States;US;27.083333;-77.0;67;5655240;6252001;27.083333,,
APG;Phillips AAF;Aberdeen;United States;US;52.316667;-1.283333;67;5785243;6252001;52.316667,,
HMT;Ryan Field;Hemet;United States;US;33.75;-116.966667;67;5356277;6252001;33.75,,
TDW;Tradewind;Amarillo;United States;US;35.166667;-101.833333;67;5516233;6252001;35.166667,,
UOX;University-Oxford;Oxford;United States;US;34.383333;-89.533333;67;5130319;6252001;34.383333,,
UCE;Eunice;Eunice;United States;US;30.5;-92.416667;67;5467187;6252001;30.5,,
FLD;Fond Du Lac;Fond Du Lac;United States;US;43.766667;-88.483333;67;5253352;6252001;43.766667,,
SLT;Salida;Salida;United States;US;38.55;-106.033333;67;5437555;6252001;38.55,,
BWI;Baltimore/Washington International Thurgood Marshall;Baltimore,-76.668333,
DEN;Denver International;Denver;United States;US;39.861667;-104.673056;67;5419384;6252001;39.861667,,
CEZ;Montezuma County;Cortez;United States;US;37.316667;-108.633333;67;5418104;6252001;37.316667,,
CYE;Crystal Lake;Crystal Lake;United States;US;41.210278;-75.832222;67;4889229;6252001;41.210278,,
NKI;Naukiti;Naukiti;United States;US;55.855556;-133.183333;67;\N;6252001;55.855556,,
ORL;Orlando Executive;Orlando;United States;US;28.533333;-81.35;67;4167147;6252001;28.533333,,
SEM;Craig AFB;Selma;United States;US;-12.2;96.916667;67;5394329;6252001;-12.2,,
MLC;Mc Alester;Mc Alester;United States;US;34.883333;-95.783333;67;\N;6252001;34.883333,,
WLD;Arkansas City;Winfield;United States;US;37.166667;-97.05;67;4928354;6252001;37.166667,,
UGN;Memorial;Waukegan;United States;US;42.35;-87.833333;67;4915734;6252001;42.35,,
CAD;Cadillac;Cadillac;United States;US;44.275833;-85.422222;67;4987617;6252001;44.275833,,
VEE;Venetie;Venetie;United States;US;67.016667;-146.416667;67;\N;6252001;67.016667,,
MOB;Mobile Regional Airport;Alabama,-88.242778,
CUS;Municipal;Columbus;United States;US;31.833333;-107.633333;67;5645893;6252001;31.833333,,
TNP;Twentynine Palms;Twentynine Palms;United States;US;52.116667;7.4;67;5404198;6252001;52.116667,,
BTN;Bennettsville;Bennettsville;United States;US;34.616667;-79.683333;67;4570634;6252001;34.616667,,
CFA;Coffee Point;Coffee Point;United States;US;58.230556;-157.5;67;\N;6252001;58.230556,,
PVW;Hale County;Plainview;United States;US;34.166667;-101.716667;67;5528450;6252001;34.166667,,
CLE;Hopkins International;Cleveland;United States;US;41.416667;-81.85;1;5248933;6252001;41.416667,,
NIN;Ninilchik;Ninilchik;United States;US;60.05;-151.666667;67;\N;6252001;60.05,,
CHD;Williams Gateway Airport;Mesa;United States;US;33.307778;-111.655556;67;5316163;6252001;33.307778,,
ERR;Errol;Errol;United States;US;44.7925;-71.164722;67;\N;6252001;44.7925,,
MCG;Mcgrath;Mcgrath;United States;US;62.966667;-155.633333;67;\N;6252001;62.966667,,
FSM;Regional;Fort Smith;United States;US;35.333333;-94.366667;67;4111410;6252001;35.333333,,
SAN;San Diego International Airport;San Diego;United States;US;32.733333;-117.183333;67;5391811;6252001;32.733333,,
TPO;Tanalian Point;Tanalian Point;United States;US;3.711944;-75.469444;67;\N;6252001;3.711944,,
CEF;Westover Metro Arpt;Springfield;United States;US;44.633333;-64.85;67;5754005;6252001;44.633333,,
RDR;Grand Forks AFB;Red River;United States;US;58.4;-1.75;67;\N;6252001;58.4,,
PRZ;Prineville;Prineville;United States;US;44.3;-120.85;67;5746901;6252001;44.3,,
BKT;Blackstone AAF;Blackstone;United States;US;37.083333;-77.95;67;4930738;6252001;37.083333,,
FCY;Municipal;Forrest City;United States;US;34.95;-90.766667;67;4111382;6252001;34.95,,
WBW;Wilkes-Barre/Wyoming Valley;Wilkes-Barre,-75.851111,
AGO;Municipal;Magnolia;United States;US;33.233333;-93.216667;67;4708747;6252001;33.233333,,
ENN;Municipal;Nenana;United States;US;64.55;-149.083333;67;\N;6252001;64.55,,
HTS;Tri-State/Milton;Huntington;United States;US;38.35;-82.533333;67;5540810;6252001;38.35,,
CPM;Compton;Compton,-118.243611,
SNA;John Wayne;Santa Ana,-117.866667,
VGT;North Air Terminal;Las Vegas;United States;US;36.216667;-115.2;67;5506956;6252001;36.216667,,
SNY;Sidney;Sidney;United States;US;41.1;-102.983333;67;5699552;6252001;41.1,,
MVL;Morrisville-Stowe;Stowe;United States;US;44.583333;-72.625;67;5214449;6252001;44.583333,,
IDG;Municipal;Ida Grove;United States;US;42.35;-95.466667;67;4861464;6252001;42.35,,
PRO;Municipal;Perry;United States;US;18.6;-74.05;67;5779613;6252001;18.6,,
GCN;National Park;Grand Canyon;United States;US;35.95;-112.15;67;\N;6252001;35.95,,
SGH;Springfield;Springfield;United States;US;44.633333;-64.85;67;5754005;6252001;44.633333,,
VCT;County-Foster;Victoria;United States;US;28.85;-96.916667;67;5051387;6252001;28.85,,
DCR;Decatur Hi-Way;Decatur;United States;US;40.833333;-84.933333;67;4990524;6252001;40.833333,,
LPO;Municipal;Laporte;United States;US;41.6;-86.716667;67;5578877;6252001;41.6,,
FBR;Fort Bridger;Fort Bridger;United States;US;41.316667;-110.383333;67;\N;6252001;41.316667,,
KWT;Kwethluk;Kwethluk;United States;US;60.8;-161.45;67;\N;6252001;60.8,,
EKI;Municipal;Elkhart;United States;US;41.716667;-85.983333;67;5445338;6252001;41.716667,,
HTL;Roscommon County;Houghton;United States;US;52.333333;-1.716667;67;5121382;6252001;52.333333,,
PBI;Palm Beach International;West Palm Beach;United States;US;26.683056;-80.095556;67;4177887;6252001;26.683056,,
OTG;Worthington;Worthington;United States;US;43.65;-95.583333;67;5177396;6252001;43.65,,
GOK;Guthrie;Guthrie;United States;US;35.883333;-97.416667;67;4538142;6252001;35.883333,,
HIB;Chisholm;Chisholm;United States;US;47.383333;-92.833333;67;5021088;6252001;47.383333,,
MOU;Mountain Village;Mountain Village;United States;US;62.083333;-163.733333;67;5432105;6252001;62.083333,,
ELZ;Municipal;Wellsville;United States;US;42.116667;-77.933333;67;5555129;6252001;42.116667,,
INK;Wink;Wink;United States;US;31.783333;-103.2;67;\N;6252001;31.783333,,
LEW;Auburn;Lewiston;United States;US;44.05;-70.283333;67;5777244;6252001;44.05,,
MIE;Delaware County;Muncie;United States;US;40.233333;-85.4;67;4924006;6252001;40.233333,,
LSB;Lordsburg;Lordsburg;United States;US;32.416667;-108.666667;67;5476799;6252001;32.416667,,
MLL;Marshall;Marshall;United States;US;61.883333;-162.066667;67;5261952;6252001;61.883333,,
RCP;Cinder River;Cinder River;United States;US;-4.733333;12.65;67;\N;6252001;-4.733333,,
JBT;City Landing;Bethel;United States;US;60.8;-161.766667;67;5880568;6252001;60.8,,
UGI;Uganik;Uganik;United States;US;57.883333;-153.5;67;\N;6252001;57.883333,,
BEC;Beech;Wichita;United States;US;37.686389;-97.221111;67;4281730;6252001;37.686389,,
GLE;Municipal;Gainesville;United States;US;45.4;2.9;67;4760363;6252001;45.4,,
ZRP;Pennsylvania Railroad Station;Newark;United States;US;40.733333;-74.166667;67;5376803;6252001;40.733333,,
PTD;Port Alexander;Port Alexander;United States;US;56.25;-134.65;67;\N;6252001;56.25,,
SBO;Salina;Salina;United States;US;39.029167;-111.8375;67;5546253;6252001;39.029167,,
XSD;Test Range;Tonopah;United States;US;62.2;34.283333;67;5513795;6252001;62.2,,
KBC;Birch Creek;Birch Creek;United States;US;66.266667;-145.8;67;\N;6252001;66.266667,,
CZT;Carrizo Springs;Carrizo Springs;United States;US;28.516666999999998;-99.866667;67;4679148;6252001;28.516666999999998,,
LIV;Livengood;Livengood,-148.669167,
WSB;SPB;Steamboat Bay;United States;US;55.55;-133.633333;67;\N;6252001;55.55,,
HOU;William P Hobby;Houston,-95.278889,
FHU;Municipal;Sierra Vista;United States;US;31.588333;-110.344444;67;5314328;6252001;31.588333,,
ONY;Olney;Olney;United States;US;33.366667;-98.75;67;4716683;6252001;33.366667,,
KUK;Kasigluk;Kasigluk;United States;US;60.866667;-162.533333;67;\N;6252001;60.866667,,
KNT;Municipal;Kennett;United States;US;36.233333;-90.05;67;4393451;6252001;36.233333,,
UCY;Everett-Stewart;Union City;United States;US;36.416667;-89.05;67;5404555;6252001;36.416667,,
ELV;Elfin Cove SPB;Elfin Cove;United States;US;58.183333;-136.316667;67;\N;6252001;58.183333,,
SAC;Executive;Sacramento;United States;US;38.516667;-121.483333;67;5389489;6252001;38.516667,,
WGO;Municipal;Winchester;United States;US;39.183333;-78.166667;67;5515345;6252001;39.183333,,
PTK;Pontiac;Pontiac;United States;US;42.666667;-83.4;67;5006166;6252001;42.666667,,
WDR;Winder;Winder;United States;US;33.983333;-83.666667;67;4231523;6252001;33.983333,,
KPD;King Of Prussia;King Of Prussia;United States;US;40.083333;-75.383333;67;5196220;6252001;40.083333,,
JMH;Marriott Heliport;Schaumburg;United States;US;42.033333;-88.083333;67;4910713;6252001;42.033333,,
STC;Municipal;Saint Cloud;United States;US;45.583333;-94.183333;67;5044407;6252001;45.583333,,
PSF;Pittsfield;Pittsfield;United States;US;42.433333;-73.3;67;5091251;6252001;42.433333,,
DMO;Sedalia;Sedalia;United States;US;38.833333;-93.416667;67;4408000;6252001;38.833333,,
RBH;Brooks Lodge;Brooks Lodge;United States;US;58.55;-155.8;67;\N;6252001;58.55,,
APT;Marion County;Jasper;United States;US;35.066667;-85.633333;67;4700731;6252001;35.066667,,
MCN;Lewis B Wilson;Macon;United States;US;32.683333;-83.65;67;4434645;6252001;32.683333,,
RBW;Municipal;Walterboro;United States;US;32.9;-80.666667;67;4600065;6252001;32.9,,
CTX;Cortland;Cortland;United States;US;36.5;33.616667;67;5151174;6252001;36.5,,
PMH;Greater Portsmouth Regional;Portsmouth,-82.847222,
DAN;Municipal;Danville;United States;US;36.566667;-79.35;67;5341531;6252001;36.566667,,
NZY;North Island Nas;San Diego;United States;US;32.699167;-117.215278;67;5391811;6252001;32.699167,,
PWA;Wiley Post;Oklahoma City;United States;US;35.534167;-97.666667;67;4544349;6252001;35.534167,,
AVP;Wilkes-Barre/Scranton International Airport;Wilkes-Barre/Scranton,-75.723333,
BTP;Butler County - Kenny Scholter Field;Butler;United States;US;40.793611;-79.949722;67;5247307;6252001;40.793611,,
EIL;Eielson AFB;Fairbanks;United States;US;64.665556;-147.101389;67;5861897;6252001;64.665556,,
LDJ;Linden;Linden;United States;US;40.633333;-74.25;67;5366582;6252001;40.633333,,
JFK;John F Kennedy Intl;New York;United States;US;40.633333;-73.783333;67;5128581;6252001;40.633333,,
ONM;Socorro;Socorro;United States;US;34.05;-106.883333;67;5530932;6252001;34.05,,
VYS;Illinois Valley Regnl;Peru;United States;US;41.3525;-89.149722;67;5131010;6252001;41.3525,,
WSD;Condron AAF;White Sands;United States;US;61.833333;-1.833333;67;5497914;6252001;61.833333,,
FBK;Ft Wainwright;Fairbanks;United States;US;-32.533333;26.7;67;5861897;6252001;-32.533333,,
LAA;Lamar Field;Lamar;United States;US;38.066667;-102.683333;67;5427957;6252001;38.066667,,
RCE;Roche Harbor;Roche Harbor;United States;US;48.616667;-123.116667;67;\N;6252001;48.616667,,
ICY;Icy Bay;Icy Bay;United States;US;59.983333;-141.65;67;\N;6252001;59.983333,,
LAN;Capital City;Lansing;United States;US;42.783333;-84.583333;67;5123993;6252001;42.783333,,
TPL;Draughon-miller Central Texas Regional;Temple,-97.407778,
TYS;Mc Ghee Tyson;Knoxville;United States;US;35.95;-83.916667;67;4898734;6252001;35.95,,
DAB;Regional;Daytona Beach;United States;US;29.183333;-81.05;67;4152872;6252001;29.183333,,
WHT;Wharton;Wharton;United States;US;29.316667;-96.1;67;5106361;6252001;29.316667,,
NHX;Barin Olf Osn;Foley;United States;US;30.416667;-87.683333;67;5027025;6252001;30.416667,,
MDA;Martindale Army Heliport;San Antonio,-98.377778,
MLU;Municipal;Monroe;United States;US;32.5;-92.033333;67;5803786;6252001;32.5,,
SZP;Oxnard;Santa Paula;United States;US;34.347222;-119.061111;67;5393245;6252001;34.347222,,
PIP;Pilot Point;Pilot Point;United States;US;57.580278;-157.571944;67;4719021;6252001;57.580278,,
CBZ;Cabin Creek;Cabin Creek;United States;US;55.383333;-132.416667;67;\N;6252001;55.383333,,
WHH;Hiltons Har H;Boulder;United States;US;-30.783333;121.483333;67;5641473;6252001;-30.783333,,
FET;Municipal;Fremont;United States;US;41.433333;-96.5;67;5350734;6252001;41.433333,,
REE;Reese AFB;Lubbock;United States;US;-18.55;126.75;67;5525577;6252001;-18.55,,
EHT;Rentschler;East Hartford;United States;US;41.766667;-72.65;67;4833403;6252001;41.766667,,
SUA;Witham Field;Stuart;United States;US;27.183333;-80.216667;67;4877761;6252001;27.183333,,
AXG;Algona;Algona;United States;US;43.066667;-94.233333;67;5785484;6252001;43.066667,,
CKR;Crane Island;Crane Island;United States;US;48.6;-123.0;67;\N;6252001;48.6,,
ORH;Worcester Regional Airport;Worcester;United States;US;42.267222;-71.875833;67;4956184;6252001;42.267222,,
ALZ;Alitak SPB;Alitak;United States;US;56.895833;-154.245833;67;\N;6252001;56.895833,,
BYS;Bicycle Lake AAF;Fort Irwin;United States;US;35.283333;-116.633333;67;\N;6252001;35.283333,,
MCE;Merced Municipal Arpt;Merced;United States;US;37.283333;-120.516667;67;5372253;6252001;37.283333,,
MGR;Moultrie Municipal;Moultrie;United States;US;31.083333;-83.8;67;4210397;6252001;31.083333,,
PCD;Municipal;Prairie Du Chien;United States;US;43.016667;-91.116667;67;5268002;6252001;43.016667,,
GRR;Kent County Intl;Grand Rapids;United States;US;42.883333;-85.533333;67;5028537;6252001;42.883333,,
OKM;Okmulgee;Okmulgee;United States;US;35.616667;-95.966667;67;4544383;6252001;35.616667,,
PGM;Port Graham;Port Graham;United States;US;59.35;-151.833333;67;\N;6252001;59.35,,
SUX;Sioux Gateway;Sioux City;United States;US;42.4;-96.383333;67;4876523;6252001;42.4,,
CRG;Craig Municipal;Jacksonville;United States;US;30.333889;-81.5025;67;5733409;6252001;30.333889,,
ORI;Port Lions SPB;Port Lions;United States;US;57.883333;-152.85;67;\N;6252001;57.883333,,
INS;Af Aux;Indian Springs;United States;US;46.283333;22.1;67;5506040;6252001;46.283333,,
VJI;Virginia Highlands;Abingdon;United States;US;-0.616667;-90.883333;67;4882839;6252001;-0.616667,,
UWA;Ware;Ware;United States;US;42.25;-72.233333;67;4954477;6252001;42.25,,
LOT;Lewis Lockport;Lockport;United States;US;41.6;-88.05;67;5125011;6252001;41.6,,
SQA;Santa Ynez;Santa Ynez;United States;US;13.816667;39.2;67;5393388;6252001;13.816667,,
IRS;Kirsch Municipal;Sturgis;United States;US;41.8;-85.416667;67;5769489;6252001;41.8,,
PSX;Palacios;Palacios;United States;US;28.7;-96.216667;67;4717218;6252001;28.7,,
IAN;Bob Barker Memorial;Kiana;United States;US;66.983333;-160.416667;67;\N;6252001;66.983333,,
CLS;Centralia;Chehalis;United States;US;46.683333;-122.983333;67;5789817;6252001;46.683333,,
FRY;Fryeburg;Fryeburg;United States;US;44.016667;-70.983333;67;4964996;6252001;44.016667,,
ISS;Wiscasset;Wiscasset;United States;US;43.969444;-69.716667;67;4983359;6252001;43.969444,,
SDM;Brown Field Municipal;San Diego;United States;US;32.572222;-116.98;67;5391811;6252001;32.572222,,
TSS;East 34th St Heliport;New York;United States;US;40.744444;-73.970833;67;5128581;6252001;40.744444,,
NBU;NAS;Glenview;United States;US;-32.683333;151.633333;67;4893886;6252001;-32.683333,,
GXY;Weld County;Greeley;United States;US;40.333333;-104.616667;67;5577592;6252001;40.333333,,
AMN;Gratiot Community;Alma;United States;US;43.383333;-84.65;67;5062898;6252001;43.383333,,
UTO;Indian Mountain AFS;Utopia Creek;United States;US;65.983333;-153.683333;67;\N;6252001;65.983333,,
CPR;Natrona County International Airport;Casper,-106.464444,
SYN;Carleton;Stanton;United States;US;44.468056;-93.0;67;5531683;6252001;44.468056,,
JSK;Municipal Heliport;Saint Cloud;United States;US;18.766666999999998;-72.066667;67;5044407;6252001;18.766666999999998,,
PHL;Philadelphia International;Philadelphia;United States;US;39.871944;-75.241111;67;5131095;6252001;39.871944,,
GNV;Gainesville Regional;Gainesville;United States;US;29.683333;-82.266667;67;4760363;6252001;29.683333,,
LCK;Rickenbacker;Columbus;United States;US;40.002778;-82.883333;67;5645893;6252001;40.002778,,
IRC;Circle City;Circle;United States;US;65.833333;-144.083333;67;\N;6252001;65.833333,,
QWF;Fort Collins Bus Servi;Fort Collins/Loveland;United States;US;19.833333;-72.5;67;5577147;6252001;19.833333,,
HZL;Hazleton;Hazleton;United States;US;40.983333;-76.0;67;5193011;6252001;40.983333,,
UBS;Lowndes County;Columbus;United States;US;33.449722;-88.365833;67;5645893;6252001;33.449722,,
BWL;Blackwell;Blackwell;United States;US;36.8;-97.283333;67;4530866;6252001;36.8,,
OWB;Daviess County;Owensboro;United States;US;37.75;-87.166667;67;4303436;6252001;37.75,,
BIG;Intermediate Field;Big Delta;United States;US;64.0;-145.733333;67;\N;6252001;64.0,,
SMX;Public;Santa Maria;United States;US;34.9;-120.45;67;5393180;6252001;34.9,,
WAA;Wales;Wales;United States;US;65.666667;-168.083333;67;5277716;6252001;65.666667,,
LCI;Municipal;Laconia;United States;US;43.566667;-71.416667;67;5088438;6252001;43.566667,,
OGB;Municipal;Orangeburg;United States;US;33.45;-80.85;67;5129923;6252001;33.45,,
PJS;Port San Juan;Port San Juan;United States;US;60.05;-148.066667;67;\N;6252001;60.05,,
KLG;Municipal;Kalskag;United States;US;61.533333;-160.366667;67;\N;6252001;61.533333,,
XZU;Off line Point;Rail;United States;US;37.716667;28.966667;67;\N;6252001;37.716667,,
BWD;Brownwood;Brownwood;United States;US;31.8;-98.95;67;4676798;6252001;31.8,,
GWO;Leflore;Greenwood;United States;US;33.5;-90.2;67;5255102;6252001;33.5,,
MTW;Municipal;Manitowoc;United States;US;44.116667;-87.666667;67;5261585;6252001;44.116667,,
MYR;Myrtle Beach Afb;Myrtle Beach;United States;US;33.7;-78.966667;67;4588718;6252001;33.7,,
KTH;SPB;Tikchik;United States;US;27.666667;88.516667;67;\N;6252001;27.666667,,
CFD;Coulter Field;Bryan;United States;US;18.433333;-77.466667;67;5148533;6252001;18.433333,,
NLC;Lemoore NAS;Lemoore,-119.951944,
ATT;Atmautluak;Atmautluak;United States;US;61.0;-162.75;67;\N;6252001;61.0,,
LEX;Blue Grass;Lexington;United States;US;38.036389;-84.605833;67;5160635;6252001;38.036389,,
VLA;Vandalia;Vandalia;United States;US;38.95;-89.083333;67;4527124;6252001;38.95,,
RKP;Aransas County;Rockport;United States;US;28.083333;-97.033333;67;4976817;6252001;28.083333,,
FID;Elizabeth Field;Fishers Island;United States;US;41.266667;-72.033333;67;\N;6252001;41.266667,,
FTL;Fortuna Ledge;Fortuna Ledge;United States;US;61.866667;-162.033333;67;\N;6252001;61.866667,,
TDZ;Toledo;Toledo;United States;US;6.533333;-75.783333;67;5757007;6252001;6.533333,,
JGL;Galleria Heliport;Atlanta;United States;US;33.885;-84.462778;67;4883772;6252001;33.885,,
OTH;North Bend;North Bend;United States;US;43.416667;-124.25;67;5804915;6252001;43.416667,,
PSQ;SPB;Philadelphia;United States;US;29.483333;31.066667;67;5131095;6252001;29.483333,,
QCE;Van Service;Copper Mountain;United States;US;49.3;-1.5;67;\N;6252001;49.3,,
EFB;Eight Fathom Bight;Eight Fathom Bight;United States;US;58.0;-135.733333;67;\N;6252001;58.0,,
CWO;Ft Wolter AAF;Mineral Wells;United States;US;-5.133333;137.533333;67;4711647;6252001;-5.133333,,
NHK;Patuxent River NAS;Patuxent River,-76.411667,
PRL;Port Oceanic;Port Oceanic;United States;US;60.208333;-147.819444;67;\N;6252001;60.208333,,
FPR;St Lucie County;Fort Pierce;United States;US;27.483333;-80.366667;67;4156018;6252001;27.483333,,
ELD;Goodwin Field;El Dorado;United States;US;33.216667;-92.816667;67;4270863;6252001;33.216667,,
MNZ;Manassas;Manassas;United States;US;38.716667;-77.516667;67;4771401;6252001;38.716667,,
MRK;Marco Island;Marco Island;United States;US;25.933333;-81.716667;67;\N;6252001;25.933333,,
NUW;Whidbey Island NAS;Oak Harbor;United States;US;48.351667;-122.655833;67;5805441;6252001;48.351667,,
LEB;White River;White River;United States;US;43.633333;-72.316667;67;\N;6252001;43.633333,,
KAE;SPB;Kake;United States;US;56.966667;-133.95;67;\N;6252001;56.966667,,
FAR;Hector Field;Fargo;United States;US;46.916667;-96.816667;67;5059163;6252001;46.916667,,
NRI;Shangri-la;Shangri-la;United States;US;36.566667;-94.85;67;\N;6252001;36.566667,,
SVW;Sparrevohn AFS;Sparrevohn;United States;US;61.083333;-155.566667;67;\N;6252001;61.083333,,
WOW;Willow;Willow;United States;US;61.75;-150.05;67;5878102;6252001;61.75,,
JEM;Heliport;Emeryville;United States;US;37.95;-122.336111;67;5346462;6252001;37.95,,
JLN;Joplin Regional;Joplin,-94.498333,
MYK;May Creek;May Creek;United States;US;61.366667;-142.683333;67;5802666;6252001;61.366667,,
GNT;Milan;Grants;United States;US;35.15;-107.866667;67;5469841;6252001;35.15,,
STK;Crosson Field;Sterling;United States;US;40.616667;-103.266667;67;5875173;6252001;40.616667,,
HYA;Barnstable;Hyannis;United States;US;41.669444;-70.280278;67;4940190;6252001;41.669444,,
BPT;Jefferson County;Beaumont;United States;US;30.083333;-94.1;67;5327098;6252001;30.083333,,
RSN;Ruston;Ruston;United States;US;32.516667;-92.616667;67;4339348;6252001;32.516667,,
EVW;Evanston;Evanston;United States;US;41.35;-111.016667;67;5824805;6252001;41.35,,
HON;Howes;Huron;United States;US;44.383333;-98.233333;67;5358769;6252001;44.383333,,
IRK;Municipal;Kirksville;United States;US;40.1;-92.55;67;5055787;6252001;40.1,,
BBF;Burlington;Burlington;United States;US;42.5;-71.183333;67;5788539;6252001;42.5,,
KKH;Kongiganak;Kongiganak;United States;US;59.966667;-162.75;67;\N;6252001;59.966667,,
SLO;Leckrone;Salem;United States;US;38.616667;-88.933333;67;5750162;6252001;38.616667,,
MUT;Muscatine;Muscatine;United States;US;41.363889;-91.144722;67;4868404;6252001;41.363889,,
MCB;Pike County;Mccomb;United States;US;31.15;-90.433333;67;5162260;6252001;31.15,,
TGE;Sharpe Field;Tuskegee;United States;US;46.966667;17.083333;67;4094490;6252001;46.966667,,
JAS;County;Jasper;United States;US;30.916667;-94.016667;67;4700731;6252001;30.916667,,
GKN;Gulkana;Gulkana;United States;US;62.166667;-145.466667;67;\N;6252001;62.166667,,
JAC;Jackson Hole;Jackson;United States;US;43.6;-110.733333;67;5828648;6252001;43.6,,
SDF;Louisville International;Louisville,-85.736111,
TPH;Tonopah Arpt;Tonopah;United States;US;38.06;-117.086944;67;5513795;6252001;38.06,,
SJC;Mineta San Jose International Airport;San Jose;United States;US;37.352778;-121.919444;1;5392171;6252001;37.352778,,
OCN;Municipal;Oceanside;United States;US;33.217222;-117.352778;67;5378771;6252001;33.217222,,
FME;Tipton AAF;Fort Meade;United States;US;19.833333;-72.5;67;4155988;6252001;19.833333,,
CLW;Executive;Clearwater;United States;US;50.433333;-93.45;67;5021527;6252001;50.433333,,
CIG;Craig-Moffat;Craig;United States;US;40.5;-107.583333;67;5845544;6252001;40.5,,
TLR;Mefford Field;Tulare,-119.326111,
RFG;Rooke Field;Refugio;United States;US;-41.066667;-72.466667;67;4722145;6252001;-41.066667,,
ALX;Thomas C Russell Fld;Alexander City;United States;US;32.933333;-85.95;67;4829843;6252001;32.933333,,
RTN;Crews Field;Raton;United States;US;36.733333;-104.5;67;5486795;6252001;36.733333,,
CKV;Outlaw Field;Clarksville,-87.415,
FRG;Republic Field;Farmingdale;United States;US;40.733333;-73.416667;67;5116931;6252001;40.733333,,
BKH;Barking Sands PMRF;Kekaha;United States;US;22.024722;-159.789444;67;5849164;6252001;22.024722,,
MUV;Mustin Alf;Philadelphia;United States;US;29.483333;31.066667;67;5131095;6252001;29.483333,,
ZRD;Richmond VA Rail;Richmond;United States;US;48.166667;-65.833333;67;5780388;6252001;48.166667,,
SKK;Shaktoolik;Shaktoolik;United States;US;64.383333;-161.1;67;\N;6252001;64.383333,,
BVD;Sea Port;Beaver Inlet;United States;US;53.733333;-166.316667;67;\N;6252001;53.733333,,
LIT;Adams Field Airport;Little Rock,-92.224444,
SEF;Sebring Regional Airport;Sebring,-81.3425,
GPT;Gulfport-Biloxi International;Gulfport;United States;US;30.4;-89.066667;67;4428667;6252001;30.4,,
IPT;Lycoming County;Williamsport;United States;US;41.25;-76.916667;67;5219585;6252001;41.25,,
KOY;Olga Bay SPB;Olga Bay;United States;US;57.15;-154.233333;67;\N;6252001;57.15,,
PDB;Pedro Bay;Pedro Bay;United States;US;59.783333;-154.116667;67;\N;6252001;59.783333,,
PUC;Carbon County;Price;United States;US;39.602778;-110.75;67;5545269;6252001;39.602778,,
LLX;Lyndonville;Lyndonville;United States;US;44.5;-72.016667;67;5238203;6252001;44.5,,
CLP;Clarks Point;Clarks Point;United States;US;58.85;-158.5;67;\N;6252001;58.85,,
EPG;Browns;Weeping Water;United States;US;40.866667;-96.133333;67;5081518;6252001;40.866667,,
ABQ;Albuquerque International;Albuquerque;United States;US;35.040278;-106.609167;67;5454711;6252001;35.040278,,
NCQ;Atlanta Nas;Marietta,-84.287222,
CEA;Cessna Aircraft Field;Wichita;United States;US;15.658889;101.1125;67;4281730;6252001;15.658889,,
HIK;Hickam AFB;Honolulu;United States;US;21.316111;-157.926667;67;5856195;6252001;21.316111,,
HVN;New Haven;New Haven;United States;US;41.266667;-72.883333;67;5003384;6252001;41.266667,,
TKF;Truckee-Tahoe;Truckee,-120.139444,
BFP;Beaver Falls;Beaver Falls;United States;US;40.766667;-80.4;67;5179478;6252001;40.766667,,
SVH;Municipal;Statesville;United States;US;35.766667;-80.95;67;4493316;6252001;35.766667,,
DUF;Pine Island Airport;Corolla,-75.788611,
AMA;Rick Husband Amarillo International;Amarillo,-101.705833,
GEY;South Big Horn County;Greybull;United States;US;44.516667;-108.083333;67;5826603;6252001;44.516667,,
DWH;David Wayne Hooks;Houston;United States;US;30.061944;-95.552778;67;5864312;6252001;30.061944,,
HUS;Municipal;Hughes;United States;US;66.033333;-154.233333;67;4115578;6252001;66.033333,,
HAI;Dr Haines;Three Rivers;United States;US;6.0;-9.75;67;5756628;6252001;6.0,,
OOA;Municipal;Oskaloosa;United States;US;41.283333;-92.633333;67;4870239;6252001;41.283333,,
MPB;SPB;Miami;United States;US;25.775;-80.175;67;5304640;6252001;25.775,,
WLM;Waltham;Waltham;United States;US;42.385278;-71.251389;67;4954380;6252001;42.385278,,
ZUG;Harrisburg Rail;Harrisburg;United States;US;34.251389;36.009722;67;5730389;6252001;34.251389,,
MNT;Minto;Minto;United States;US;64.9;-149.166667;67;\N;6252001;64.9,,
NUP;Nunapitchuk;Nunapitchuk;United States;US;60.883333;-162.466667;67;\N;6252001;60.883333,,
ATW;Outagamie County;Appleton;United States;US;44.266667;-88.516667;67;5244080;6252001;44.266667,,
SNP;Saint Paul Island;Saint Paul Island;United States;US;57.166667;-170.216667;67;\N;6252001;57.166667,,
CTZ;Sampson County;Clinton;United States;US;35.0;-78.333333;67;5773001;6252001;35.0,,
TNK;Tununak;Tununak;United States;US;72.033333;-80.916667;67;\N;6252001;72.033333,,
LGU;Cache;Logan;United States;US;41.783333;-111.85;67;5777544;6252001;41.783333,,
WSM;Wiseman;Wiseman;United States;US;67.416667;-150.116667;67;\N;6252001;67.416667,,
CVN;Municipal;Clovis;United States;US;34.416667;-103.083333;67;5462393;6252001;34.416667,,
WLW;Glenn County;Willows;United States;US;39.516667;-122.216667;67;5409777;6252001;39.516667,,
PWM;Intl Jetport;Portland;United States;US;43.65;-70.3;67;5746545;6252001;43.65,,
PQS;Pilot Station;Pilot Station;United States;US;61.933333;-162.883333;67;\N;6252001;61.933333,,
SAV;Savannah/Hilton Head;Savannah;United States;US;32.133333;-81.2;67;4656006;6252001;32.133333,,
BWC;Brawley;Brawley;United States;US;32.983333;-115.516667;67;5330567;6252001;32.983333,,
FTW;Meacham Field;Fort Worth;United States;US;32.855556;-96.85;67;4691930;6252001;32.855556,,
PDT;Pendleton;Pendleton;United States;US;45.7;-118.833333;67;5745380;6252001;45.7,,
PTN;Williams Memorial;Patterson;United States;US;29.75;-91.308333;67;5381515;6252001;29.75,,
SRW;Rowan County;Salisbury;United States;US;35.633333;-80.516667;67;5136107;6252001;35.633333,,
AUM;Austin;Austin;United States;US;43.666667;-92.933333;67;5016884;6252001;43.666667,,
FRN;Bryant AAF;Fort Richardson;United States;US;19.833333;-72.5;67;\N;6252001;19.833333,,
PIZ;Dew Station;Point Lay;United States;US;69.733333;-163.016667;67;\N;6252001;69.733333,,
FFM;Fergus Falls;Fergus Falls;United States;US;46.283333;-96.166667;67;5026416;6252001;46.283333,,
TVF;Regional;Thief River Falls;United States;US;52.883333;-0.30000000000000004;67;5049970;6252001;52.883333,,
LWB;Greenbrier Valley;Lewisburg;United States;US;37.783333;-80.336111;67;5197842;6252001;37.783333,,
MPE;Griswold;Madison;United States;US;41.283333;-72.6;67;5261457;6252001;41.283333,,
YAK;Yakutat;Yakutat;United States;US;59.5;-139.666667;67;\N;6252001;59.5,,
PSB;Bellefonte;Bellefonte;United States;US;60.933333;7.2;67;5179799;6252001;60.933333,,
SDY;Richland Municipal;Sidney;United States;US;47.716667;-104.183333;67;5699552;6252001;47.716667,,
ALE;Alpine;Alpine;United States;US;30.386111;-103.683333;67;5770732;6252001;30.386111,,
PWT;Bremerton;Bremerton;United States;US;47.483333;-122.75;67;5788054;6252001;47.483333,,
NYG;Quantico Nas;Quantico;United States;US;38.503611;-77.305;67;\N;6252001;38.503611,,
BTF;Salt Lake Skypark;Bountiful;United States;US;40.883333;-111.883333;67;5771826;6252001;40.883333,,
PTV;Porterville;Porterville;United States;US;36.033333;-119.066667;67;5384471;6252001;36.033333,,
GRI;Grand Island;Grand Island,-98.309722,
VTN;Miller Field;Valentine;United States;US;42.85;-100.55;67;5700344;6252001;42.85,,
RKR;Robert S Kerr;Poteau;United States;US;35.05;-94.616667;67;4548363;6252001;35.05,,
DXR;Danbury Municipal Airport;Danbury,-73.482222,
MKC;Downtown;Kansas City;United States;US;39.116667;-94.583333;67;4393217;6252001;39.116667,,
LOG;Longview;Longview;United States;US;46.116667;-122.883333;67;5801617;6252001;46.116667,,
LNA;Palm Beach County Park;West Palm Beach;United States;US;26.593056;-80.085;67;4177887;6252001;26.593056,,
RIF;Reynolds;Richfield;United States;US;38.75;-112.1;67;5545710;6252001;38.75,,
GUP;Senator Clark;Gallup;United States;US;35.516667;-108.783333;67;5468773;6252001;35.516667,,
CSN;Carson City;Carson City;United States;US;39.2;-119.733333;67;5501344;6252001;39.2,,
CDB;Cold Bay;Cold Bay;United States;US;55.2;-162.716667;67;\N;6252001;55.2,,
IYK;Kern County;Inyokern;United States;US;35.65;-117.833333;67;5359623;6252001;35.65,,
CLG;Coalinga;Coalinga;United States;US;36.15;-120.35;67;5338196;6252001;36.15,,
EPH;Ephrata;Ephrata;United States;US;47.3;-119.516667;67;5793832;6252001;47.3,,
MWS;Mount Wilson;Mount Wilson;United States;US;51.916667;-2.866667;67;\N;6252001;51.916667,,
WDB;Deep Bay;Deep Bay;United States;US;55.45;-131.783333;67;\N;6252001;55.45,,
TRM;Thermal;Thermal;United States;US;46.591111;13.825556;67;\N;6252001;46.591111,,
AUG;Augusta;Augusta;United States;US;44.316667;-69.8;67;5244365;6252001;44.316667,,
SMO;Santa Monica;Santa Monica;United States;US;34.015833;-118.45;67;5393212;6252001;34.015833,,
NWH;Parlin Field;Newport;United States;US;43.333333;-72.166667;67;5804694;6252001;43.333333,,
VSF;State;Springfield;United States;US;43.333333;-72.516667;67;5754005;6252001;43.333333,,
WAH;Wahpeton;Wahpeton;United States;US;46.266667;-96.6;67;5062355;6252001;46.266667,,
ATY;Watertown;Watertown;United States;US;44.916667;-97.15;67;5278005;6252001;44.916667,,
MBL;Blacker;Manistee;United States;US;44.266667;-86.25;67;5000611;6252001;44.266667,,
BYA;Boundary;Boundary;United States;US;64.083333;-141.116667;67;\N;6252001;64.083333,,
KFP;False Pass;False Pass;United States;US;54.85;-163.416667;67;\N;6252001;54.85,,
ATU;Casco Cove;Attu Island;United States;US;52.833333;173.183333;67;\N;6252001;52.833333,,
KGX;Grayling;Grayling;United States;US;62.666667;-160.008333;67;4994578;6252001;62.666667,,
GMU;Greenville Downtown;Greenville;United States;US;34.848056;-82.35;67;5564488;6252001;34.848056,,
ORQ;Heliport;Norwalk;United States;US;41.116667;-73.45;67;5377995;6252001;41.116667,,
ATO;Ohio University;Athens;United States;US;39.333333;-82.1;67;5244312;6252001;39.333333,,
ONH;Municipal;Oneonta;United States;US;42.45;-75.116667;67;5129852;6252001;42.45,,
RID;Richmond Municipal Airport;Richmond,-84.842778,
KYO;Topp Of Tampa;Tampa;United States;US;54.433333;23.65;67;4174757;6252001;54.433333,,
EHM;Cape Newenham;Cape Newenham;United States;US;58.633333;-162.066667;67;\N;6252001;58.633333,,
TOL;Toledo Express;Toledo,-83.807778,
SHD;Shenandoah Valley;Staunton;United States;US;38.266667;-78.9;67;4787440;6252001;38.266667,,
IFA;Iowa Falls;Iowa Falls;United States;US;42.516667;-93.266667;67;4862069;6252001;42.516667,,
DCA;Ronald Reagan Washington National Airport;Washington,-77.037778,
TEX;Telluride;Telluride;United States;US;42.095278;8.709722;67;5441199;6252001;42.095278,,
DUA;Eaker;Durant;United States;US;18.083333;-73.85;67;4854674;6252001;18.083333,,
RIL;Garfield County;Rifle;United States;US;39.516667;-107.716667;67;5436363;6252001;39.516667,,
VRB;Municipal;Vero Beach;United States;US;27.65;-80.416667;67;4176409;6252001;27.65,,
LWS;Nez Perce County Rgnl;Lewiston;United States;US;46.383333;-117.033333;67;5777244;6252001;46.383333,,
PKB;Wood County;Parkersburg;United States;US;39.35;-81.433333;67;4870730;6252001;39.35,,
ZFZ;Buffalo Depew Rr;Buffalo;United States;US;50.8;-1.683333;67;5819881;6252001;50.8,,
RZZ;Halifax County;Roanoke Rapids;United States;US;36.466667;-77.666667;67;4488232;6252001;36.466667,,
VPZ;Porter County;Valparaiso;United States;US;41.45;-86.983333;67;4927537;6252001;41.45,,
HPB;Hooper Bay;Hooper Bay;United States;US;61.5;-166.083333;67;5864197;6252001;61.5,,
PIT;Pittsburgh International;Pittsburgh,-80.232778,
SPF;Black Hills;Spearfish;United States;US;44.483333;-103.85;67;5769288;6252001;44.483333,,
LIJ;Long Island;Long Island;United States;US;54.9;-132.75;67;\N;6252001;54.9,,
HBG;The Hattiesburg-Bobby L. Chain Mun.;Hattiesburg;United States;US;19.233333;-72.233333;67;4429295;6252001;19.233333,,
RHI;Oneida County;Rhinelander;United States;US;45.633333;-89.45;67;5268720;6252001;45.633333,,
BFK;Buffalo Municipal Airport;Buffalo;United States;US;36.863333;-99.618611;67;5819881;6252001;36.863333,,
LKI;Lakeside USAF;Duluth;United States;US;-19.233333;18.2;67;5024719;6252001;-19.233333,,
0A7;Hendersonville Airport;Hendersonville;United States;US;35.316667;-82.45;67;4628735;6252001;35.316667,,
CNE;Canon City;Canon City;United States;US;38.416667;-105.1;67;5416005;6252001;38.416667,,
RNH;Municipal;New Richmond;United States;US;45.116667;-92.533333;67;5264475;6252001;45.116667,,
ULM;New Ulm;New Ulm;United States;US;44.316667;-94.5;67;5039173;6252001;44.316667,,
PDX;Portland International;Portland,-122.5975,
SOP;Pinehurst-S. Pines;Southern Pines;United States;US;35.215278;-79.588333;67;4492722;6252001;35.215278,,
LSR;Lost River;Lost River;United States;US;65.4;-167.15;67;\N;6252001;65.4,,
POB;Pope AFB;Fayetteville,-79.014444,
SCC;Prudhoe Bay/Deadhorse;Prudhoe Bay/Deadhorse;United States;US;70.333333;-148.333333;67;\N;6252001;70.333333,,
WLK;Selawik;Selawik;United States;US;66.6;-159.983333;67;\N;6252001;66.6,,
KKI;Spb;Akiachak;United States;US;60.916667;-161.433333;67;\N;6252001;60.916667,,
FYU;Fort Yukon;Fort Yukon;United States;US;66.566667;-145.266667;67;\N;6252001;66.566667,,
CCG;Crane County Arpt;Crane;United States;US;31.4;-102.35;67;5519648;6252001;31.4,,
LNK;Lincoln;Lincoln,-96.759167,
XSM;St Marys;St Marys;United States;US;38.283333;-76.633333;67;\N;6252001;38.283333,,
PVY;Pope Vanoy;Pope Vanoy;United States;US;59.316667;-154.916667;67;\N;6252001;59.316667,,
AKB;Atka;Atka;United States;US;52.2;-174.2;67;\N;6252001;52.2,,
BSQ;Bisbee Municipal Arpt;Bisbee;United States;US;31.363889;-109.881111;67;5284905;6252001;31.363889,,
SYI;Bomar Field;Shelbyville;United States;US;35.566667;-86.45;67;4657077;6252001;35.566667,,
FYV;Municipal;Fayetteville;United States;US;36.0;-94.166667;67;5116968;6252001;36.0,,
EUF;Weedon Field;Eufaula;United States;US;31.95;-85.133333;67;4536031;6252001;31.95,,
NCN;New Chenega;New Chenega;United States;US;60.001111;-148.008333;67;\N;6252001;60.001111,,
HLR;Fort Hood AAF;Killeen;United States;US;31.138611;-97.714444;67;4703223;6252001;31.138611,,
GAM;Gambell;Gambell;United States;US;63.766667;-171.75;67;\N;6252001;63.766667,,
OJC;Johnson Executive;Kansas City;United States;US;38.85;-94.733333;67;4393217;6252001;38.85,,
AIZ;Lee C Fine Memorial;Kaiser/Lake Ozark;United States;US;38.1;-92.55;67;\N;6252001;38.1,,
WMH;Mountain Home;Mountain Home;United States;US;36.366667;-92.466667;67;5601615;6252001;36.366667,,
HEE;Thompson-Robbins;Helena;United States;US;34.583333;-90.666667;67;5656882;6252001;34.583333,,
AID;Municipal;Anderson;United States;US;32.4;34.866667;67;5558857;6252001;32.4,,
FWA;Municipal/Baer Field;Fort Wayne;United States;US;41.116667;-85.116667;67;4920423;6252001;41.116667,,
BRO;South Padre Is. Intl;Brownsville;United States;US;25.916667;-97.416667;67;5716061;6252001;25.916667,,
PIA;Greater Peoria;Peoria,-89.683333,
MWL;Mineral Wells Arpt;Mineral Wells;United States;US;32.783333;-98.066667;67;4711647;6252001;32.783333,,
GFL;Warren County;Glens Falls;United States;US;43.35;-73.616667;67;5118693;6252001;43.35,,
RFD;Greater Rockford Airport;Rockford;United States;US;42.2;-89.1;67;5168451;6252001;42.2,,
KPN;Kipnuk SPB;Kipnuk;United States;US;59.933333;-164.033333;67;\N;6252001;59.933333,,
BCT;Public;Boca Raton;United States;US;26.366667;-80.116667;67;4148411;6252001;26.366667,,
GRD;Greenwood;Greenwood;United States;US;34.25;-82.15;67;5255102;6252001;34.25,,
VAD;Moody AFB;Valdosta;United States;US;46.286111;12.437778;67;4228147;6252001;46.286111,,
WWT;Newtok;Newtok;United States;US;60.933333;-164.633333;67;\N;6252001;60.933333,,
ASN;Talladega;Talladega;United States;US;38.6;-0.683333;67;4092788;6252001;38.6,,
OAJ;Albert J Ellis;Jacksonville;United States;US;34.716667;-77.416667;67;5733409;6252001;34.716667,,
LTS;Altus AFB;Altus;United States;US;34.65;-99.35;67;4529292;6252001;34.65,,
TMB;Tamiami;Miami;United States;US;10.016667;-73.65;67;5304640;6252001;10.016667,,
NLG;Nelson Lagoon;Nelson Lagoon;United States;US;56.016667;-161.15;67;\N;6252001;56.016667,,
GLD;Renner Field;Goodland;United States;US;39.366667;-101.7;67;5445479;6252001;39.366667,,
RLU;Bornite Upper;Bornite;United States;US;67.1;-156.933333;67;\N;6252001;67.1,,
CBM;Columbus AFB;Columbus,-88.443889,
CTH;Chestercounty Carlson;Coatesville;United States;US;39.966667;-75.816667;67;4557247;6252001;39.966667,,
NTJ;Manti-Ephraim;Manti;United States;US;39.266667;-111.633333;67;5542758;6252001;39.266667,,
TUP;Lemons Municipal;Tupelo;United States;US;34.268056;-88.77;67;4448903;6252001;34.268056,,
KIB;SPB;Ivanof Bay;United States;US;55.9;-159.483333;67;\N;6252001;55.9,,
PKA;SPB;Napaskiak;United States;US;60.7;-161.7;67;\N;6252001;60.7,,
TRI;Tri-cities Regional;Blountville;United States;US;36.475278;-82.4075;67;4607201;6252001;36.475278,,
DYS;Dyess AFB;Abilene;United States;US;54.1075;-1.483611;67;4669635;6252001;54.1075,,
JXN;Reynolds Municipal;Jackson;United States;US;42.266667;-84.466667;67;5828648;6252001;42.266667,,
PBA;Point Barrow;Barrow;United States;US;71.333333;-156.633333;67;5880054;6252001;71.333333,,
BZS;Buzzards Pt S;Washington;United States;US;49.0;-72.5;67;5549222;6252001;49.0,,
FBS;Friday Harbor SPB;Friday Harbor SPB;United States;US;-28.033333;115.6;67;\N;6252001;-28.033333,,
GLS;Scholes Field;Galveston;United States;US;29.266666999999998;-94.866667;67;4920577;6252001;29.266666999999998,,
SDX;Sedona;Sedona;United States;US;34.866667;-111.766667;67;5313667;6252001;34.866667,,
HWI;SPB;Hawk Inlet;United States;US;58.116667;-134.733333;67;\N;6252001;58.116667,,
DIK;Dickinson;Dickinson;United States;US;46.8;-102.8;67;5688789;6252001;46.8,,
GTY;Gettysburg;Gettysburg;United States;US;39.833333;-77.233333;67;5228053;6252001;39.833333,,
ADW;Andrews AFB;Camp Springs;United States;US;38.8;-76.916667;67;4350288;6252001;38.8,,
APA;Arapahoe Co;Denver;United States;US;39.566667;-104.833333;67;5419384;6252001;39.566667,,
ISZ;Cincinnati-Blue Ash Airport;Cincinnati,-84.388889,
DNT;Downtown Heliport;Santa Ana;United States;US;1.083333;-77.55;67;5392900;6252001;1.083333,,
ICT;Mid-Continent;Wichita;United States;US;37.65;-97.433333;67;4281730;6252001;37.65,,
DWS;Walt Disney World;Orlando;United States;US;28.400278;-82.438333;67;4167147;6252001;28.400278,,
ETB;West Bend;West Bend;United States;US;43.416667;-88.183333;67;5278422;6252001;43.416667,,
AUN;Auburn;Auburn;United States;US;38.9;-121.066667;67;5785965;6252001;38.9,,
BDE;Baudette;Baudette;United States;US;54.383333;19.7;67;5017385;6252001;54.383333,,
MTH;Marathon Flight Strip;Marathon;United States;US;24.716667;-81.05;67;5261788;6252001;24.716667,,
MSD;Mt Pleasant;Mt Pleasant;United States;US;39.524722;-111.474444;67;\N;6252001;39.524722,,
PIH;Pocatello;Pocatello;United States;US;42.916667;-112.583333;67;5604045;6252001;42.916667,,
EGX;Egegik;Egegik;United States;US;58.216667;-157.366667;67;\N;6252001;58.216667,,
STL;Lambert-St. Louis International;St Louis;United States;US;38.748611;-90.37;67;\N;6252001;38.748611,,
GVL;Lee Gilmer Memorial;Gainesville;United States;US;34.266667;-83.833333;67;4760363;6252001;34.266667,,
CTK;Canton;Canton;United States;US;43.3;-96.583333;67;5226716;6252001;43.3,,
KQA;Akutan;Akutan;United States;US;54.116667;-165.75;67;\N;6252001;54.116667,,
KTN;International;Ketchikan;United States;US;55.333333;-131.65;67;5554428;6252001;55.333333,,
MCC;Mcclellan AFB;Sacramento;United States;US;10.783333;-74.15;67;5389489;6252001;10.783333,,
BQK;Glynco Jetport;Brunswick;United States;US;31.25;-81.45;67;5148480;6252001;31.25,,
SBP;San Luis County Regional Airport;San Luis Obispo;United States;US;35.236944;-120.641944;67;5392323;6252001;35.236944,,
SXQ;Soldotna;Soldotna;United States;US;60.483333;-151.066667;67;5874678;6252001;60.483333,,
PHK;Palm Beach Co Glades;Pahokee;United States;US;26.816667;-80.65;67;4167473;6252001;26.816667,,
LWV;Municipal;Lawrenceville;United States;US;38.766667;-87.6;67;5100356;6252001;38.766667,,
RTD;Rotunda;Rotunda;United States;US;26.866667;-82.266667;67;\N;6252001;26.866667,,
XMD;Madison;Madison;United States;US;44.0;-97.116667;67;5261457;6252001;44.0,,
HYS;Municipal;Hays;United States;US;38.85;-99.266667;67;4470384;6252001;38.85,,
AWM;Municipal;West Memphis;United States;US;35.133333;-90.183333;67;4135865;6252001;35.133333,,
BCC;Bear Creek;Bear Creek;United States;US;57.6175;-155.867222;67;5880147;6252001;57.6175,,
MHV;Kern County;Mojave;United States;US;35.483333;-118.2;67;5373965;6252001;35.483333,,
PSK;New River Valley;Dublin;United States;US;37.116667;-80.683333;67;5344157;6252001;37.116667,,
WYB;SPB;Yes Bay;United States;US;55.916667;-131.8;67;\N;6252001;55.916667,,
WWP;Whale Pass;Whale Pass;United States;US;56.116667;-133.125;67;\N;6252001;56.116667,,
CHU;Chuathbaluk;Chuathbaluk;United States;US;61.666667;-159.25;67;\N;6252001;61.666667,,
FXE;Executive;Fort Lauderdale;United States;US;26.183333;-80.166667;1;4155966;6252001;26.183333,,
POU;Dutchess County;Poughkeepsie;United States;US;41.633333;-73.883333;67;5132143;6252001;41.633333,,
MRY;Monterey Peninsula;Monterey;United States;US;36.583333;-121.85;67;5374361;6252001;36.583333,,
RRL;Municipal;Merrill;United States;US;-34.683333;149.216667;67;5262680;6252001;-34.683333,,
MML;Municipal-Ryan Field;Marshall;United States;US;44.444167;-95.82;67;5261952;6252001;44.444167,,
PJB;Payson;Payson;United States;US;34.261111;-111.341667;67;5779548;6252001;34.261111,,
ARB;Municipal;Ann Arbor,-83.745556,
BZN;Gallatin Field;Bozeman;United States;US;45.7775;-111.153056;67;5641727;6252001;45.7775,,
OMA;Eppley Airfield;Omaha;United States;US;41.3;-95.9;67;5074472;6252001;41.3,,
JHM;Kapalua West Maui;Lahaina;United States;US;20.963056;-156.673056;67;5849996;6252001;20.963056,,
IML;Imperial;Imperial;United States;US;40.516667;-101.616667;67;5696354;6252001;40.516667,,
KMO;Manokotak SPB;Manokotak;United States;US;58.966667;-159.05;67;\N;6252001;58.966667,,
ACK;Nantucket Memorial;Nantucket;United States;US;41.266667;-70.066667;67;4944903;6252001;41.266667,,
SZL;Whiteman AFB;Kansas;United States;US;51.083333;5.683333;67;\N;6252001;51.083333,,
EMP;Emporia;Emporia;United States;US;38.333333;-96.183333;67;4757673;6252001;38.333333,,
FRI;Marshall AAF;Fort Riley,-96.764444,
TCS;Municipal;Truth Or Consequences;United States;US;50.033333;7.433333;67;5495292;6252001;50.033333,,
PAO;Palo Alto;Palo Alto;United States;US;37.466667;-122.116667;67;5380748;6252001;37.466667,,
POE;Polk AAF;Fort Polk;United States;US;31.033333;-93.183333;67;\N;6252001;31.033333,,
ZTJ;Princeton JT Rail;Princeton;United States;US;48.416667;-53.6;67;5268096;6252001;48.416667,,
OTM;Industrial;Ottumwa;United States;US;41.1;-92.45;67;4870380;6252001;41.1,,
WNA;Napakiak SPB;Napakiak;United States;US;60.7;-162.116667;67;\N;6252001;60.7,,
SPS;Sheppard AFB;Wichita Falls;United States;US;33.983333;-98.516667;67;4741752;6252001;33.983333,,
KKB;SPB;Kitoi Bay;United States;US;58.183333;-152.35;67;\N;6252001;58.183333,,
BWS;Blaine;Blaine;United States;US;48.966667;-122.833333;67;5787475;6252001;48.966667,,
ATL;Hartsfield-jackson Atlanta International;Atlanta,-84.428056,
DAL;Love Field;Dallas;United States;US;32.852778;-96.85;67;5722064;6252001;32.852778,,
ABI;Municipal;Abilene;United States;US;32.416667;-99.683333;67;4669635;6252001;32.416667,,
MEI;Key Field;Meridian;United States;US;32.333333;-88.75;67;5600685;6252001;32.333333,,
WLR;Loring;Loring;United States;US;55.6;-131.566667;67;\N;6252001;55.6,,
ANA;Orange County Steel Salvage Heliport;Anaheim;United States;US;33.848333;-117.850278;67;5323810;6252001;33.848333,,
MRF;Municipal;Marfa;United States;US;30.233333;-103.866667;67;5525775;6252001;30.233333,,
DRE;Drummond Island;Drummond Island;United States;US;46.016667;-83.75;67;\N;6252001;46.016667,,
FDY;Findlay;Findlay;United States;US;41.016667;-83.666667;67;5153924;6252001;41.016667,,
PUO;Prudhoe Bay;Prudhoe Bay;United States;US;54.95;-1.85;67;\N;6252001;54.95,,
LCH;Municipal;Lake Charles;United States;US;30.116667;-93.216667;67;4330236;6252001;30.116667,,
LRJ;Municipal;Lemars;United States;US;42.783333;-96.15;67;\N;6252001;42.783333,,
GED;Sussex County;Georgetown;United States;US;38.683333;-75.366667;67;5422889;6252001;38.683333,,
BKD;Stephens County;Breckenridge;United States;US;32.75;-98.9;67;5414872;6252001;32.75,,
FSI;Henry Post AAF;Fort Sill;United States;US;19.833333;-72.5;67;\N;6252001;19.833333,,
JBK;Berkeley;Berkeley;United States;US;37.95;-122.3;67;5327684;6252001;37.95,,
DAG;Barstow-Daggett;Daggett;United States;US;34.85;-116.783333;67;\N;6252001;34.85,,
JOT;Municipal;Joliet;United States;US;41.533333;-88.083333;67;4898015;6252001;41.533333,,
MDJ;City-county;Madras;United States;US;44.633333;-121.133333;67;5738690;6252001;44.633333,,
SPZ;Springdale Muni;Springdale;United States;US;36.183333;-94.133333;67;5213447;6252001;36.183333,,
SLK;Adirondack;Saranac Lake;United States;US;44.4;-74.2;67;5136322;6252001;44.4,,
BIH;Bishop;Bishop;United States;US;37.366667;-118.35;67;5328808;6252001;37.366667,,
ZWI;Wilmington Rail;Wilmington;United States;US;-32.65;138.1;67;4955840;6252001;-32.65,,
AYE;AAF Heliport;Fort Devens;United States;US;19.833333;-72.5;67;\N;6252001;19.833333,,
WAL;Wallops Flight Center;Chincoteague;United States;US;37.933333;-75.383333;67;4752495;6252001;37.933333,,
ELP;El Paso International Airport;El Paso;United States;US;31.8;-106.383333;67;5520993;6252001;31.8,,
HUD;Humboldt;Humboldt;United States;US;42.733333;-94.216667;67;4861335;6252001;42.733333,,
AIK;Municipal;Aiken;United States;US;33.65;-81.683333;67;4569067;6252001;33.65,,
OEO;Municipal;Osceola;United States;US;45.316667;-92.7;67;5265824;6252001;45.316667,,
SCM;SPB;Scammon Bay;United States;US;61.866667;-165.583333;67;\N;6252001;61.866667,,
TEH;Tetlin;Tetlin;United States;US;36.766667;49.5;67;\N;6252001;36.766667,,
BQV;Bartlett SPB;Gustavus;United States;US;58.45;-135.883333;67;\N;6252001;58.45,,
JCT;Kimble County;Junction;United States;US;30.483333;-99.766667;67;4701791;6252001;30.483333,,
LDM;Mason County;Ludington;United States;US;50.8;24.05;67;5000306;6252001;50.8,,
PHN;St Clair County Intl;Port Huron;United States;US;42.9;-82.533333;67;5006233;6252001;42.9,,
CZZ;Campo;Campo;United States;US;18.45;-72.1;67;\N;6252001;18.45,,
ELI;Elim;Elim;United States;US;64.616667;-162.266667;67;5188469;6252001;64.616667,,
IPL;Imperial County;Imperial;United States;US;32.833333;-115.566667;67;5696354;6252001;32.833333,,
WOD;Wood River;Wood River;United States;US;59.066667;-157.433333;67;5082201;6252001;59.066667,,
FCM;Flying Cloud;Minneapolis;United States;US;44.827222;-93.456944;67;5037649;6252001;44.827222,,
BDR;Igor I. Sikorsky Mem.;Bridgeport;United States;US;41.166667;-73.133333;67;5788111;6252001;41.166667,,
SRQ;Sarasota-Bradenton International Airport;Sarasota,-82.554444,
FBG;Simmons AAF;Fort Bragg;United States;US;19.833333;-72.5;67;5350039;6252001;19.833333,,
KPY;Port Bailey SPB;Port Bailey;United States;US;57.93;-153.040556;67;\N;6252001;57.93,,
RCR;Fulton County;Rochester;United States;US;49.916667;-0.966666999999999;67;5808524;6252001;49.916667,,
JVI;Central Jersey Regional Airport;Manville;United States;US;40.524444;-74.598333;67;5100830;6252001;40.524444,,
PAM;Tyndall AFB;Panama City,-85.576389,
HHH;Hilton Head;Hilton Head;United States;US;32.224444;-80.6975;67;\N;6252001;32.224444,,
BUM;Butler;Butler;United States;US;38.25;-94.316667;67;5247307;6252001;38.25,,
MAW;Malden;Malden;United States;US;36.6;-89.983333;67;4942939;6252001;36.6,,
NEL;Naec;Lakehurst;United States;US;36.833333;49.4;67;5100269;6252001;36.833333,,
GRF;Gray Aaf;Tacoma;United States;US;35.339167;-77.960556;67;5812944;6252001;35.339167,,
NGC;North Rim;Grand Canyon;United States;US;36.183333;-112.133333;67;\N;6252001;36.183333,,
TWD;Port Townsend;Port Townsend;United States;US;48.116667;-122.766667;67;5807239;6252001;48.116667,,
CYF;Chefornak SPB;Chefornak;United States;US;60.2;-164.183333;67;\N;6252001;60.2,,
GBG;Galesburg;Galesburg;United States;US;40.933333;-90.433333;67;4993609;6252001;40.933333,,
GUC;Gunnison;Gunnison;United States;US;38.533333;-106.933333;67;5540026;6252001;38.533333,,
SGR;Sugar Land Regional;Houston,-95.656667,
PII;Phillips Field;Fairbanks;United States;US;64.85;-147.783333;67;5861897;6252001;64.85,,
SAR;Sparta Community;Sparta;United States;US;38.116667;-89.7;67;5273927;6252001;38.116667,,
PMU;SPB;Paimiut;United States;US;61.966667;-160.233333;67;\N;6252001;61.966667,,
WBQ;Beaver;Beaver;United States;US;66.35;-147.4;67;5534882;6252001;66.35,,
CDS;Childress;Childress;United States;US;34.416667;-100.216667;67;5518758;6252001;34.416667,,
BNH;Barnes;Hartford;United States;US;41.766389;-72.683333;67;5255628;6252001;41.766389,,
DRG;Deering;Deering;United States;US;66.083333;-162.766667;67;5085351;6252001;66.083333,,
STP;Downtown;St Paul;United States;US;44.933333;-93.066667;67;\N;6252001;44.933333,,
HLI;Hollister;Hollister;United States;US;36.85;-121.4;67;5357499;6252001;36.85,,
CLU;Columbus Municipal;Columbus;United States;US;39.133333;-85.933333;67;5645893;6252001;39.133333,,
VDZ;Municipal;Valdez;United States;US;61.133333;-146.233333;67;5877389;6252001;61.133333,,
JLA;Quartz Creek;Cooper Lodge;United States;US;60.483333;-149.85;67;\N;6252001;60.483333,,
UNK;Unalakleet;Unalakleet;United States;US;63.883333;-160.783333;67;\N;6252001;63.883333,,
ACB;Antrim County;Bellaire;United States;US;44.983333;-85.202778;67;5146946;6252001;44.983333,,
JBC;Boston City Heliport;Boston;United States;US;42.343889;-71.049444;67;4930956;6252001;42.343889,,
BLI;Bellingham;Bellingham;United States;US;48.8;-122.533333;67;5786899;6252001;48.8,,
OYS;Yosemite Ntl Park;Yosemite Ntl Park;United States;US;37.85;-119.55;67;\N;6252001;37.85,,
EAT;Pangborn Field;Wenatchee;United States;US;47.4;-120.2;67;5815342;6252001;47.4,,
RAP;Regional;Rapid City;United States;US;44.033333;-103.05;67;5768233;6252001;44.033333,,
TLH;Tallahassee Regional Airport;Tallahassee;United States;US;30.396389;-84.350278;67;4174715;6252001;30.396389,,
FXM;Flaxman Island;Flaxman Island;United States;US;70.216667;-146.0;67;\N;6252001;70.216667,,
KCQ;Chignik;Chignik;United States;US;56.261111;-158.777778;67;\N;6252001;56.261111,,
HSI;Hastings;Hastings;United States;US;40.6;-98.433333;67;5192858;6252001;40.6,,
OGS;Ogdensburg;Ogdensburg;United States;US;44.683333;-75.466667;67;5129626;6252001;44.683333,,
SYA;Shemya AFB;Shemya;United States;US;52.716667;174.1;67;\N;6252001;52.716667,,
TIW;Industrial;Tacoma;United States;US;-16.3;-67.45;67;5812944;6252001;-16.3,,
NKX;Miramar MCAS;San Diego;United States;US;32.868333;-117.1425;67;5391811;6252001;32.868333,,
ROL;Roosevelt;Roosevelt;United States;US;40.3;-109.983333;67;5780699;6252001;40.3,,
MAC;Smart;Macon;United States;US;50.033333;4.2;67;4434645;6252001;50.033333,,
RNT;Renton;Renton,-122.215833,
KBK;Klag Bay;Klag Bay;United States;US;57.0;-136.0;67;\N;6252001;57.0,,
ILE;Municipal;Killeen;United States;US;31.15;-97.716667;67;4703223;6252001;31.15,,
NZW;South Weymouth;South Weymouth;United States;US;42.166667;-70.95;67;\N;6252001;42.166667,,
IAD;Washington Dulles International;Washington,-77.455833,
OWD;Memorial;Norwood;United States;US;42.183333;-71.183333;67;5129364;6252001;42.183333,,
RSP;Raspberry Strait;Raspberry Strait;United States;US;58.166667;-154.833333;67;\N;6252001;58.166667,,
KCC;Coffman Cove SPB;Coffman Cove;United States;US;56.0;-132.833333;67;\N;6252001;56.0,,
HBB;Industrial Airpark;Hobbs;United States;US;-18.999722;142.0;67;5471578;6252001;-18.999722,,
NBG;NAS/Alvin Callendar;New Orleans;United States;US;7.435556;123.415;67;4335045;6252001;7.435556,,
SWO;Searcy Fld;Stillwater;United States;US;36.166667;-97.083333;67;5139732;6252001;36.166667,,
DNN;Municipal;Dalton;United States;US;34.716667;-84.866667;67;5186267;6252001;34.716667,,
BMX;Big Mountain;Big Mountain;United States;US;59.366667;-155.266667;67;\N;6252001;59.366667,,
GSP;Greenville Spartanbur Int'l Airport;Greenville;United States;US;34.895556;-82.218889;67;5564488;6252001;34.895556,,
MZJ;Marana;Marana;United States;US;32.509722;-111.325278;67;5303705;6252001;32.509722,,
MDH;Southern Illinois;Carbondale;United States;US;37.783333;-89.25;67;5416113;6252001;37.783333,,
TUL;Tulsa International;Tulsa;United States;US;36.198333;-95.888056;67;4553433;6252001;36.198333,,
OKK;Kokomo;Kokomo;United States;US;40.533333;-86.066667;67;4922388;6252001;40.533333,,
ONA;Municipal;Winona;United States;US;50.3;-1.333333;67;5053156;6252001;50.3,,
KNB;Kanab;Kanab;United States;US;37.25;-112.833333;67;5541458;6252001;37.25,,
HLG;Ohio County;Wheeling;United States;US;16.196389;122.103611;67;5280854;6252001;16.196389,,
PFA;Paf Warren;Paf Warren;United States;US;58.681389;-156.8375;67;\N;6252001;58.681389,,
UMM;Summit;Summit;United States;US;63.333333;-149.133333;67;5812505;6252001;63.333333,,
DHN;Dothan Arpt;Dothan;United States;US;31.316667;-85.45;67;4059102;6252001;31.316667,,
LBE;Westmoreland County;Latrobe;United States;US;40.283333;-79.4;67;5197227;6252001;40.283333,,
SDP;Municipal;Sand Point;United States;US;55.316667;-160.516667;67;\N;6252001;55.316667,,
MCD;Mackinac Island;Mackinac Island;United States;US;45.865;-84.637222;67;\N;6252001;45.865,,
NWS;Pier 11/Wall St. SPB;New York;United States;US;5.5;-70.483333;67;5128581;6252001;5.5,,
TRT;Tremonton;Tremonton;United States;US;-7.8;-38.283333;67;5783768;6252001;-7.8,,
MWO;Hook Field;Middletown,-84.395278,
DPG;Michael AAF;Dugway;United States;US;48.583333;-81.016667;67;5774159;6252001;48.583333,,
EDG;Weide AAF;Edgewood;United States;US;49.783333;-1.133333;67;5793406;6252001;49.783333,,
YKM;Yakima Air Terminal;Yakima;United States;US;46.566667;-120.533333;67;5816605;6252001;46.566667,,
TUH;Arnold AFS;Tullahoma;United States;US;52.777222;-8.404167;67;4663494;6252001;52.777222,,
BLV;Belleville;Belleville;United States;US;44.166667;-77.383333;67;5245354;6252001;44.166667,,
ORV;Curtis Memorial;Noorvik;United States;US;66.833333;-161.033333;67;\N;6252001;66.833333,,
EVM;Eveleth;Eveleth;United States;US;47.433333;-92.5;67;5025971;6252001;47.433333,,
KKK;Kalakaket AFS;Kalakaket;United States;US;64.416667;-156.833333;67;\N;6252001;64.416667,,
MOD;Municipal;Modesto,-120.954444,
TYR;Tyler Pounds Regional Airport;Tyler;United States;US;32.354167;-95.4025;67;5050847;6252001;32.354167,,
MCW;Mason City Municipal;Mason City,-93.331389,
OTS;Anacortes;Anacortes;United States;US;48.5;-122.616667;67;5785657;6252001;48.5,,
OKS;Oshkosh;Oshkosh;United States;US;41.4;-102.333333;67;5265838;6252001;41.4,,
STE;Stevens Point;Stevens Point;United States;US;41.433333;20.166667;67;5274644;6252001;41.433333,,
UNS;Umnak;Umnak Island;United States;US;26.8;98.083333;67;\N;6252001;26.8,,
ZTL;Bus Station;Telluride;United States;US;42.095278;8.709722;67;5441199;6252001;42.095278,,
CDW;Caldwell Wright;Caldwell,-74.281389,
WAY;Greene County;Waynesburg;United States;US;39.9;-80.144167;67;5175935;6252001;39.9,,
MXE;Maxton;Maxton;United States;US;34.733333;-79.35;67;4478372;6252001;34.733333,,
ALS;Municipal;Alamosa;United States;US;37.433333;-105.866667;67;5411479;6252001;37.433333,,
NUL;Nulato;Nulato;United States;US;64.733333;-158.1;67;\N;6252001;64.733333,,
SSW;Stuart Island;Stuart Island;United States;US;48.7;-123.2;67;\N;6252001;48.7,,
FRM;Fairmont;Fairmont;United States;US;43.65;-94.416667;67;5026114;6252001;43.65,,
MGC;Michigan City Arpt;Michigan City;United States;US;41.7;-86.816667;67;4923531;6252001;41.7,,
CNM;Carlsbad;Carlsbad;United States;US;32.333333;-104.266667;67;5460459;6252001;32.333333,,
DGB;Danger Bay;Danger Bay;United States;US;58.083333;-152.75;67;\N;6252001;58.083333,,
EAR;Kearney;Kearney;United States;US;40.733333;-99.016667;67;5071348;6252001;40.733333,,
MVC;Monroe - Walton County;Monroeville;United States;US;10.1;18.75;67;5201734;6252001;10.1,,
MLI;Quad-City;Moline;United States;US;41.45;-90.516667;67;4902476;6252001;41.45,,
CNU;Martin Johnson;Chanute;United States;US;37.683333;-95.45;67;4269392;6252001;37.683333,,
ARX;Asbury Park;Neptune,-74.09,
KVC;King Cove;King Cove;United States;US;55.066667;-162.316667;67;\N;6252001;55.066667,,
KWP;Village SPB;West Point;United States;US;57.766667;-153.55;67;5784580;6252001;57.766667,,
PWK;Pal-Waukee;Chicago;United States;US;42.0;-87.966667;67;4887398;6252001;42.0,,
RHV;Reid-hillview;San Jose;United States;US;22.916667;-80.883333;67;5392171;6252001;22.916667,,
AVX;Avalon Bay;Catalina Island;United States;US;33.333333;-118.35;67;\N;6252001;33.333333,,
DBN;Municipal;Dublin;United States;US;32.55;-82.983333;67;5344157;6252001;32.55,,
BZT;Hinkles Ferry;Brazoria;United States;US;29.05;-95.566667;67;4676131;6252001;29.05,,
OSU;Ohio State University;Columbus;United States;US;40.066667;-83.066667;67;5645893;6252001;40.066667,,
RNG;Rangely;Rangely;United States;US;40.094722;-108.760556;67;5581213;6252001;40.094722,,
MUO;AFB;Mountain Home;United States;US;-32.816667;27.133333;67;5601615;6252001;-32.816667,,
ARC;Arctic Village;Arctic Village;United States;US;68.116667;-145.583333;67;\N;6252001;68.116667,,
BKL;Burke Lakefront;Cleveland;United States;US;41.511111;-81.688889;67;5248933;6252001;41.511111,,
SUW;Richard I Bong Arpt;Superior;United States;US;46.733333;-92.166667;67;5440838;6252001;46.733333,,
OLU;Columbus Municipal;Columbus,-97.342778,
TWH;Two Harbors;Catalina Island;United States;US;41.633333;-120.05;67;\N;6252001;41.633333,,
BFI;Boeing Field/King County International Airport;Seattle;United States;US;47.53;-122.301944;67;5809844;6252001;47.53,,
FAI;Fairbanks International Airport;Fairbanks;United States;US;64.816667;-147.866667;67;5861897;6252001;64.816667,,
MOP;Municipal;Mount Pleasant;United States;US;43.616667;-84.733333;67;5543514;6252001;43.616667,,
CBA;Corner Bay;Corner Bay;United States;US;57.716667;-135.2;67;\N;6252001;57.716667,,
EUG;Eugene;Eugene;United States;US;44.116667;-123.216667;67;5725846;6252001;44.116667,,
PRF;Port Johnson;Port Johnson;United States;US;55.122222;-132.05;67;\N;6252001;55.122222,,
CEC;Mc Namara Fld;Crescent City;United States;US;41.783333;-124.233333;67;5562087;6252001;41.783333,,
CXL;International;Calexico;United States;US;32.666667;-115.516667;67;5332698;6252001;32.666667,,
CAO;Clayton;Clayton;United States;US;36.45;-103.183333;67;5462269;6252001;36.45,,
IKK;Greater Kankakee;Kankakee;United States;US;41.066667;-87.85;67;4898182;6252001;41.066667,,
MVE;Montevideo-Chippewa;Montevideo,-95.710278,
KNK;Kakhonak;Kakhonak;United States;US;59.433333;-154.85;67;\N;6252001;59.433333,,
HYL;SPB;Hollis;United States;US;55.483333;-132.65;67;5087559;6252001;55.483333,,
ZTN;Trenton Rail STN;Philadelphia;United States;US;29.483333;31.066667;67;5131095;6252001;29.483333,,
APH;Camp A P Hill;Bowling Green;United States;US;38.05;-77.35;67;5147968;6252001;38.05,,
FIL;Municipal;Fillmore;United States;US;38.966667;-112.333333;67;5539097;6252001;38.966667,,
DPK;Deer Park;Deer Park;United States;US;40.766667;-73.333333;67;5792143;6252001;40.766667,,
FSN;Haley AAF;Fort Sheridan;United States;US;19.833333;-72.5;67;\N;6252001;19.833333,,
HOT;Memorial Field;Hot Springs;United States;US;34.483333;-93.1;67;5765751;6252001;34.483333,,
KPH;Pauloff Harbor SPB;Pauloff Harbor;United States;US;54.466667;-162.7;67;\N;6252001;54.466667,,
PLY;Plymouth;Plymouth;United States;US;41.366667;-86.3;67;5383872;6252001;41.366667,,
DTA;Delta;Delta;United States;US;39.383333;-112.5;67;5538080;6252001;39.383333,,
AFO;Municipal;Afton;United States;US;42.716667;-110.933333;67;5816861;6252001;42.716667,,
TNU;Municipal;Newton;United States;US;41.7;-93.05;67;5101848;6252001;41.7,,
EAN;Phifer Field;Wheatland;United States;US;42.058333;-104.919444;67;5842753;6252001;42.058333,,
SIT;Sitka;Sitka;United States;US;57.066667;-135.35;67;5557293;6252001;57.066667,,
DBS;Dubois;Dubois;United States;US;44.166667;-112.233333;67;\N;6252001;44.166667,,
RMC;Machesney;Rockford;United States;US;-32.85;24.166667;67;5168451;6252001;-32.85,,
DVT;Phoenix Deer Valley Airport;Phoenix;United States;US;33.688333;-112.0825;67;5745656;6252001;33.688333,,
SBS;Steamboat Springs;Steamboat Springs;United States;US;40.516667;-106.866667;67;5582371;6252001;40.516667,,
WJF;William J Fox;Lancaster;United States;US;34.7;-118.133333;67;5364940;6252001;34.7,,
UVA;Garner Fld;Uvalde;United States;US;29.2;-99.733333;67;4738721;6252001;29.2,,
KEH;Kenmore Air Harbor;Kenmore Air Harbor;United States;US;47.738333;-122.268056;67;\N;6252001;47.738333,,
MEM;Memphis International;Memphis;United States;US;35.066667;-89.966667;67;5526145;6252001;35.066667,,
MRI;Merrill Field;Anchorage;United States;US;61.2;-149.833333;67;5879400;6252001;61.2,,
BHM;Birmingham;Birmingham;United States;US;33.566667;-86.75;67;4986172;6252001;33.566667,,
GTR;Golden Triangle Reg.;Columbus;United States;US;33.466667;-88.383333;67;5645893;6252001;33.466667,,
PTR;Pleasant Harbour;Pleasant Harbour;United States;US;57.833333;-153.25;67;\N;6252001;57.833333,,
RIE;Rice Lake;Rice Lake;United States;US;45.5;-91.733333;67;5268798;6252001;45.5,,
CMX;Houghton County;Hancock;United States;US;47.123611;-88.573333;67;5119916;6252001;47.123611,,
BAM;Lander County;Battle Mountain;United States;US;40.633333;-116.933333;67;5701361;6252001;40.633333,,
TIK;Tinker AFB;Oklahoma City;United States;US;35.414722;-97.386667;67;4544349;6252001;35.414722,,
JAO;Beaver Ruin;Atlanta;United States;US;9.716667;-82.983333;67;4883772;6252001;9.716667,,
BPA;Grumman;Bethpage;United States;US;40.75;-73.483333;67;5108955;6252001;40.75,,
NNL;Nondalton;Nondalton;United States;US;60.0;-154.816667;67;\N;6252001;60.0,,
UDD;Bermuda Dunes;Palm Springs;United States;US;33.733333;-116.266667;67;5380668;6252001;33.733333,,
ZRZ;New Carrolton RR;Washington;United States;US;49.0;-72.5;67;5549222;6252001;49.0,,
SXC;Avalo Vor/WP;Catalina Island;United States;US;-21.583333;-67.583333;67;\N;6252001;-21.583333,,
RSX;Rouses Point;Rouses Point;United States;US;44.984722;-73.352222;67;5134565;6252001;44.984722,,
HTH;Hawthorne;Hawthorne;United States;US;38.535278;-118.633611;67;5505321;6252001;38.535278,,
LFI;Langley AFB;Hampton;United States;US;52.166667;-2.016667;67;5098787;6252001;52.166667,,
NUI;Nuiqsut;Nuiqsut;United States;US;70.216667;-150.916667;67;\N;6252001;70.216667,,
KLL;Levelock;Levelock;United States;US;59.116667;-156.883333;67;\N;6252001;59.116667,,
MFE;Mc Allen Miller International;Mc Allen,-98.238611,
SBY;Wicomico Regional;Salisbury-Ocean City;United States;US;38.333333;-75.516667;67;\N;6252001;38.333333,,
GHM;Municipal;Centerville;United States;US;35.783333;-87.466667;67;5772654;6252001;35.783333,,
GAK;Gakona;Gakona;United States;US;62.3;-145.3;67;\N;6252001;62.3,,
LNR;Tri County;Lone Rock;United States;US;43.183333;-90.2;67;\N;6252001;43.183333,,
HKB;Healy Lake;Healy Lake;United States;US;63.866667;-148.966667;67;\N;6252001;63.866667,,
PTS;Municipal;Pittsburg;United States;US;37.45;-94.733333;67;5383465;6252001;37.45,,
OLD;Old Town;Old Town;United States;US;44.95;-68.666667;67;4974231;6252001;44.95,,
PBG;Plattsburgh International;Plattsburgh;United States;US;44.650833;73.468056;67;5131692;6252001;44.650833,,
CTB;Cut Bank;Cut Bank;United States;US;48.633333;-112.333333;67;5647469;6252001;48.633333,,
CGA;Craig SPB;Craig;United States;US;55.483333;-133.15;67;5845544;6252001;55.483333,,
MIV;Millville;Millville;United States;US;39.366667;-75.083333;67;5778379;6252001;39.366667,,
SGY;Municipal;Skagway;United States;US;59.483333;-135.3;67;\N;6252001;59.483333,,
AUW;Municipal;Wausau;United States;US;44.766667;-89.680556;67;5278120;6252001;44.766667,,
XNA;Northwest Arkansas Regional;Fayetteville,-94.306667,
HVR;City County;Havre;United States;US;48.55;-109.766667;67;5656497;6252001;48.55,,
DJN;Delta Junction;Delta Junction;United States;US;64.033333;-145.683333;67;\N;6252001;64.033333,,
HHR;Hawthorne;Hawthorne;United States;US;33.916667;-118.35;67;5505321;6252001;33.916667,,
LSN;Los Banos;Los Banos;United States;US;37.066667;-120.85;67;5368453;6252001;37.066667,,
JGC;Heliport;Grand Canyon;United States;US;35.975;-112.140278;67;\N;6252001;35.975,,
SBM;Memorial;Sheboygan;United States;US;43.762222;-87.850833;67;5272893;6252001;43.762222,,
VIK;Airstrip;Kavik;United States;US;39.733333;36.4;67;\N;6252001;39.733333,,
NOH;Chicago NAS;Chicago;United States;US;17.8;-88.3;67;4887398;6252001;17.8,,
OUN;Max Westheimer;Norman;United States;US;35.158333;-97.466667;67;4543762;6252001;35.158333,,
CSQ;Municipal;Creston;United States;US;41.066667;-94.366667;67;5151415;6252001;41.066667,,
NHZ;NAS;Brunswick;United States;US;50.933333;5.95;67;5148480;6252001;50.933333,,
PCA;Portage Creek;Portage Creek;United States;US;60.833333;-150.0;67;\N;6252001;60.833333,,
MUE;Kamuela;Kamuela;United States;US;20.0;-155.683333;67;\N;6252001;20.0,,
OAR;Marina Municipal;Marina,-121.762222,
LLY;Burlington County;Mount Holly;United States;US;39.983333;-74.783333;67;4503134;6252001;39.983333,,
MXA;Municipal;Manila;United States;US;4.766667;-74.433333;67;4120426;6252001;4.766667,,
OLE;Municipal;Olean;United States;US;42.233333;-78.366667;67;5129780;6252001;42.233333,,
LVD;Lime Village;Lime Village;United States;US;61.35;-155.466667;67;\N;6252001;61.35,,
MTP;Montauk Airport;Montauk;United States;US;41.083333;-71.916667;67;5127321;6252001;41.083333,,
GLR;Otsego County;Gaylord;United States;US;45.016667;-84.7;67;5027765;6252001;45.016667,,
OGA;Searle Field;Ogallala;United States;US;41.133333;-101.716667;67;5698040;6252001;41.133333,,
ZTF;Stamford Rail STN;Westchester County;United States;US;21.65;-72.466667;67;\N;6252001;21.65,,
COD;Yellowstone Regional;Cody/Yellowstone;United States;US;44.516667;-109.033333;67;5821593;6252001;44.516667,,
ADG;Lenawee County;Adrian;United States;US;41.9;-84.033333;67;5015882;6252001;41.9,,
RIV;March ARB;Riverside;United States;US;33.880833;-117.259444;67;5387877;6252001;33.880833,,
CRT;Municipal;Crossett;United States;US;33.133333;-91.966667;67;4107198;6252001;33.133333,,
MYU;Ellis Field;Mekoryuk;United States;US;60.383333;-166.2;67;\N;6252001;60.383333,,
BFM;Mob Aerospace;Mobile;United States;US;47.25;-52.85;67;4076598;6252001;47.25,,
ETN;Municipal;Eastland;United States;US;32.416667;-98.8;67;4688071;6252001;32.416667,,
RWI;Rocky Mount-wilson;Rocky Mount,-77.891944,
GQQ;Galion;Galion;United States;US;40.733333;-82.8;67;5155414;6252001;40.733333,,
GEK;Ganes Creek;Ganes Creek;United States;US;62.983333;-156.5;67;\N;6252001;62.983333,,
MAE;Madera;Madera;United States;US;-13.083333;49.083333;67;5369568;6252001;-13.083333,,
HOP;Campbell AAF;Hopkinsville;United States;US;50.516667;23.666667;67;4295251;6252001;50.516667,,
ELM;Elmira Corning Regional;Corning,-76.9,
AHD;Downtown;Ardmore;United States;US;-16.933333;179.9;67;5178481;6252001;-16.933333,,
BYG;Municipal;Buffalo;United States;US;44.35;-106.7;67;5819881;6252001;44.35,,
MKE;General Mitchell International;Milwaukee;United States;US;42.95;-87.9;67;5263045;6252001;42.95,,
BLM;Monmouth Executive Airport;Belmar - Farmingdale;United States;US;40.185556;-74.123611;67;\N;6252001;40.185556,,
FBL;Municipal;Faribault;United States;US;44.333333;-93.316667;67;5026291;6252001;44.333333,,
SFB;Orlando Sanford Intl;Sanford;United States;US;28.783333;-81.25;67;4977762;6252001;28.783333,,
PTA;Port Alsworth;Port Alsworth;United States;US;60.2;-154.333333;67;\N;6252001;60.2,,
ZWB;Williamsburg Rail;Hampton;United States;US;52.166667;-2.016667;67;5098787;6252001;52.166667,,
SGW;Saginaw Bay;Saginaw Bay;United States;US;56.866667;-134.15;67;\N;6252001;56.866667,,
BFB;Blue Fox Bay;Blue Fox Bay;United States;US;58.183333;-152.133333;67;\N;6252001;58.183333,,
CWA;Central Wisconsin;Wausau;United States;US;44.769444;-89.683056;67;5278120;6252001;44.769444,,
FMC;Five Mile;Five Mile;United States;US;65.916667;-149.833333;67;\N;6252001;65.916667,,
WLB;Labouchere Bay;Labouchere Bay;United States;US;56.291667;-133.658333;67;\N;6252001;56.291667,,
SAF;Santa Fe;Santa Fe;United States;US;35.616667;-106.083333;67;5490263;6252001;35.616667,,
BFF;Scotts Bluff County;Scottsbluff;United States;US;41.866667;-103.6;67;5699404;6252001;41.866667,,
ANI;Aniak;Aniak;United States;US;61.583333;-159.533333;67;\N;6252001;61.583333,,
COT;Cotulla;Cotulla;United States;US;28.433333;-99.233333;67;4683696;6252001;28.433333,,
DSI;Destin-Fort Walton Beach Airport;Destin;United States;US;30.388611;-86.538333;67;4153188;6252001;30.388611,,
JGX;Heliport;Glendale;United States;US;34.133333;-118.266667;67;5423075;6252001;34.133333,,
MHS;Rep;Mount Shasta;United States;US;41.316667;-122.316667;67;5568295;6252001;41.316667,,
LVS;Las Vegas;Las Vegas;United States;US;35.65;-105.15;67;5506956;6252001;35.65,,
WMO;White Mountain;White Mountain;United States;US;64.683333;-163.4;67;\N;6252001;64.683333,,
PAH;Barkley Regional;Paducah,-88.773056,
FOE;Forbes Field;Topeka,-95.663611,
SRF;Hamilton Field;San Rafael;United States;US;8.45;-73.916667;67;5392567;6252001;8.45,,
LKS;Lakeside;Lakeside;United States;US;29.847777999999998;-95.688611;67;5735782;6252001;29.847777999999998,,
JHC;Island Heliport;Garden City;United States;US;40.744444;-73.608333;67;5593814;6252001;40.744444,,
KGK;New Koliganek;New Koliganek;United States;US;59.783333;-157.333333;67;\N;6252001;59.783333,,
HIE;Regional;Whitefield;United States;US;44.366667;-71.55;67;5094647;6252001;44.366667,,
THV;York Airport;York;United States;US;48.75;-64.583333;67;5082331;6252001;48.75,,
AIV;George Downer;Aliceville;United States;US;33.1;-88.2;67;4829885;6252001;33.1,,
HCW;Cheraw;Cheraw;United States;US;34.7;-79.883333;67;4574434;6252001;34.7,,
DPA;Dupage County;Chicago;United States;US;41.914444;-88.246389;67;4887398;6252001;41.914444,,
TCT;Takotna;Takotna;United States;US;65.983333;-18.55;67;\N;6252001;65.983333,,
JLH;US Army Heliport;Arlington Heights;United States;US;-6.3;155.833333;67;5785858;6252001;-6.3,,
BHC;Bhurban Heliport;Bhurban;United States;US;35.15;-114.566667;67;\N;6252001;35.15,,
DVN;Davenport;Davenport;United States;US;-24.233333;141.066667;67;5791805;6252001;-24.233333,,
MMH;Mammoth Lakes;Mammoth Lakes;United States;US;37.616667;-118.85;67;5370006;6252001;37.616667,,
MVM;Monument Valley;Kayenta,-110.236667,
DYL;Doylestown;Doylestown;United States;US;40.316667;-75.133333;67;5187248;6252001;40.316667,,
ACT;Municipal;Waco;United States;US;31.616667;-97.233333;67;4739526;6252001;31.616667,,
TEB;Teterboro;Teterboro;United States;US;40.85;-74.060833;67;\N;6252001;40.85,,
LVL;Lawrenceville;Lawrenceville;United States;US;36.75;-77.85;67;5100356;6252001;36.75,,
MPS;Mount Pleasant;Mount Pleasant;United States;US;33.15;-94.966667;67;5543514;6252001;33.15,,
BRD;Brainerd Lakes Regional;Brainerd,-94.135556,
RDD;Redding;Redding;United States;US;40.5;-122.3;67;5570160;6252001;40.5,,
FFA;First Flight;Kill Devil Hills;United States;US;36.016667;-75.666667;67;4474274;6252001;36.016667,,
SUM;Municipal;Sumter;United States;US;33.9;-80.116667;67;4597948;6252001;33.9,,
CXO;Montgomery Co;Conroe;United States;US;30.316667;-95.45;67;4682991;6252001;30.316667,,
OSC;Wurtsmith AFB;Oscoda;United States;US;44.433333;-83.333333;67;\N;6252001;44.433333,,
MLJ;Baldwin County;Milledgeville;United States;US;33.15;-83.25;67;4209448;6252001;33.15,,
BWM;Bowman;Bowman;United States;US;46.133333;-103.583333;67;5688127;6252001;46.133333,,
JRB;Downtown Manhattan H/p;New York,-74.009167,
GFK;Grand Forks;Grand Forks;United States;US;47.95;-97.183333;67;5059429;6252001;47.95,,
SFM;Sanford;Sanford;United States;US;43.383333;-70.7;67;4977762;6252001;43.383333,,
NSE;Whiting Field NAS;Milton;United States;US;43.516667;-79.883333;67;5803556;6252001;43.516667,,
JHW;Jamestown;Jamestown;United States;US;42.15;-79.25;67;5360382;6252001;42.15,,
HPT;Municipal;Hampton;United States;US;42.75;-93.2;67;5098787;6252001;42.75,,
GFD;Pope Field;Greenfield;United States;US;6.716667;-57.95;67;5354172;6252001;6.716667,,
WHD;SPB;Hyder;United States;US;55.916667;-130.016667;67;\N;6252001;55.916667,,
ESW;State;Easton;United States;US;47.233333;-121.183333;67;5345171;6252001;47.233333,,
CON;Concord;Concord;United States;US;6.683333;-57.9;67;5339111;6252001;6.683333,,
PNX;Grayson County;Sherman-Denison;United States;US;33.633333;-96.583333;67;\N;6252001;33.633333,,
SGT;Stuttgart Municipal;Stuttgart,-91.575,
SLR;Sulphur Springs;Sulphur Springs;United States;US;33.133333;-95.6;67;4734909;6252001;33.133333,,
CSP;Coast Guard Heliport;Cape Spencer;United States;US;45.2;-65.916667;67;\N;6252001;45.2,,
MDT;Harrisburg International;Harrisburg,-76.763333,
HSP;Ingalls Field;Hot Springs;United States;US;37.95;-79.816667;67;5765751;6252001;37.95,,
DLG;Municipal;Dillingham;United States;US;59.066667;-158.466667;67;5860695;6252001;59.066667,,
GAD;Municipal;Gadsden;United States;US;33.966667;-86.083333;67;5550161;6252001;33.966667,,
REH;Rehoboth Beach;Rehoboth Beach;United States;US;38.716667;-75.133333;67;4144284;6252001;38.716667,,
RKS;Sweetwater County;Rock Springs;United States;US;41.6;-109.066667;67;5836898;6252001;41.6,,
BMG;Bloomington;Bloomington;United States;US;39.133333;-86.616667;67;5329408;6252001;39.133333,,
DGL;Douglas Municipal;Douglas;United States;US;12.616667;14.983333;67;5823516;6252001;12.616667,,
GDW;Gladwin;Gladwin;United States;US;43.983333;-84.483333;67;4993985;6252001;43.983333,,
FNL;Municipal Airport;Fort Collins/Loveland;United States;US;40.583333;-105.083333;67;5577147;6252001;40.583333,,
PPC;Prospect Creek;Prospect Creek;United States;US;66.8;-150.633333;67;\N;6252001;66.8,,
AST;Astoria;Astoria;United States;US;46.166667;-123.883333;67;5711847;6252001;46.166667,,
NFL;NAS;Fallon;United States;US;47.5;6.483333;67;5503914;6252001;47.5,,
LRO;Sharpe AAF;Lathrop;United States;US;36.702778;26.955;67;5365425;6252001;36.702778,,
UES;Waukesha;Waukesha;United States;US;43.016667;-88.2;67;5278052;6252001;43.016667,,
EBR;Downtown;Baton Rouge;United States;US;6.45;17.366667;67;4315588;6252001;6.45,,
UOS;Franklin County;Sewanee;United States;US;35.205278;-85.898056;67;4656589;6252001;35.205278,,
GLV;Golovin;Golovin;United States;US;64.55;-163.016667;67;\N;6252001;64.55,,
GLW;Municipal;Glasgow;United States;US;37.033333;-85.95;67;5654320;6252001;37.033333,,
HDN;Yampa Valley;Hayden;United States;US;40.519444;-106.869444;67;5595320;6252001;40.519444,,
CZK;Cascade Locks/Stevens;Cascade Locks;United States;US;45.666667;-121.9;67;5718132;6252001;45.666667,,
ERI;International;Erie;United States;US;42.083333;-80.183333;67;5576859;6252001;42.083333,,
SWD;Seward;Seward;United States;US;60.133333;-149.416667;67;5873776;6252001;60.133333,,
BDY;State;Bandon;United States;US;43.116667;-124.416667;67;5712417;6252001;43.116667,,
BNO;Burns;Burns;United States;US;43.583333;-118.95;67;5716833;6252001;43.583333,,
BJI;Bemidji;Bemidji;United States;US;47.516667;-94.933333;67;5017822;6252001;47.516667,,
GLQ;Glennallen;Glennallen;United States;US;62.116667;-145.55;67;\N;6252001;62.116667,,
GWS;Glenwood Springs;Glenwood Springs;United States;US;-32.6;27.55;67;5423092;6252001;-32.6,,
TWF;Joslin Field - Magic Valley Regional;Twin Falls,-114.487778,
PEQ;Pecos City;Pecos City;United States;US;31.4;-103.516667;67;\N;6252001;31.4,,
ENW;Kenosha Regional Airport;Kenosha;United States;US;42.583333;-87.916667;67;5258393;6252001;42.583333,,
SLB;Municipal;Storm Lake;United States;US;42.6;-95.233333;67;4877655;6252001;42.6,,
VDI;Municipal;Vidalia;United States;US;32.216667;-82.4;67;4344599;6252001;32.216667,,
IKO;Nikolski AFS;Nikolski;United States;US;52.95;-168.866667;67;\N;6252001;52.95,,
VCV;Southern California Logistics;Victorville,-117.383056,
TKL;Taku SPB;Taku Lodge;United States;US;59.783333;-1.25;67;\N;6252001;59.783333,,
JRA;West 30th St Heliport;New York;United States;US;40.754444;-74.0075;67;5128581;6252001;40.754444,,
FLJ;Falls Bay;Falls Bay;United States;US;60.0325;-148.008333;67;\N;6252001;60.0325,,
HLC;Hill City;Hill City;United States;US;39.366667;-99.85;67;4272980;6252001;39.366667,,
AIO;Municipal;Atlantic;United States;US;41.4;-95.016667;67;4847385;6252001;41.4,,
RBN;Fort Jefferson;Fort Jefferson;United States;US;19.833333;-72.5;67;\N;6252001;19.833333,,
LIH;Lihue;Kauai Island;United States;US;21.983333;-159.35;67;\N;6252001;21.983333,,
FRH;Municipal;French Lick;United States;US;38.55;-86.616667;67;4257770;6252001;38.55,,
OLH;Old Harbor SPB;Old Harbor;United States;US;57.2;-153.316667;67;\N;6252001;57.2,,
AND;Anderson;Anderson;United States;US;34.5;-82.716667;67;5558857;6252001;34.5,,
NRC;Aux Field;Crows Landing;United States;US;37.4;-121.066667;67;\N;6252001;37.4,,
BWG;Warren County;Bowling Green;United States;US;36.966667;-86.416667;67;5147968;6252001;36.966667,,
OKC;Will Rogers World Airport;Oklahoma City;United States;US;35.393056;-97.600833;67;4544349;6252001;35.393056,,
DWF;Wright AFB;Dayton;United States;US;46.233333;-83.333333;67;6545140;6252001;46.233333,,
AKI;Akiak;Akiak;United States;US;60.9;-161.233333;67;\N;6252001;60.9,,
CYS;Cheyenne;Cheyenne;United States;US;41.15;-104.8;67;5821086;6252001;41.15,,
BET;Bethel Airport;Bethel;United States;US;60.783333;-161.833333;67;5880568;6252001;60.783333,,
BOS;Logan International;Boston;United States;US;42.363056;-71.0;67;4930956;6252001;42.363056,,
OGD;Municipal;Ogden;United States;US;41.2;-112.016667;67;5779206;6252001;41.2,,
SRV;Stony River;Stony River;United States;US;61.783333;-156.583333;67;\N;6252001;61.783333,,
BTM;Bert Mooney Airport;Butte,-112.4975,
DEC;Decatur Arpt;Decatur;United States;US;39.833333;-88.866667;67;4990524;6252001;39.833333,,
JNP;Heliport;Newport Beach;United States;US;33.6;-117.883333;67;5376890;6252001;33.6,,
GGW;International;Glasgow;United States;US;48.216667;-106.616667;67;5654320;6252001;48.216667,,
SLG;Smith Field;Siloam Springs;United States;US;36.183333;-94.533333;67;4131116;6252001;36.183333,,
CDR;Chadron;Chadron;United States;US;42.833333;-103.083333;67;5694163;6252001;42.833333,,
BGM;Greater Binghamton;Binghamton,-75.979722,
MBY;Moberly;Moberly;United States;US;39.466667;-92.433333;67;4398730;6252001;39.466667,,
MHK;Municipal;Manhattan;United States;US;39.133333;-96.666667;67;5664535;6252001;39.133333,,
EOS;Neosho;Neosho;United States;US;36.866667;-94.366667;67;4400183;6252001;36.866667,,
ASQ;Austin;Austin;United States;US;39.5;-117.066667;67;5016884;6252001;39.5,,
GRN;Gordon;Gordon;United States;US;42.8;-102.2;67;5695713;6252001;42.8,,
INR;Kincheloe AFB;Sault Ste Marie;United States;US;45.85;5.416667;67;\N;6252001;45.85,,
UMB;North Shore;Umnak Island;United States;US;53.366667;-167.9;67;\N;6252001;53.366667,,
TWA;Twin Hills;Twin Hills;United States;US;46.266667;-1.85;67;\N;6252001;46.266667,,
LAR;General Brees Field;Laramie;United States;US;41.316667;-105.666667;67;5830062;6252001;41.316667,,
RAC;Horlick;Racine;United States;US;42.757778;-87.820833;67;5268249;6252001;42.757778,,
PYM;Plymouth;Plymouth;United States;US;41.966667;-70.683333;67;5383872;6252001;41.966667,,
OSH;Wittman Field;Oshkosh;United States;US;43.983333;-88.55;67;5265838;6252001;43.983333,,
JFN;Ashtabula;Jefferson;United States;US;41.733333;-80.766667;67;5733532;6252001;41.733333,,
ZXS;Exchangest Railway Svc;Buffalo;United States;US;42.878333;-78.875278;67;5819881;6252001;42.878333,,
TOC;Toccoa;Toccoa;United States;US;42.216667;13.9;67;4226722;6252001;42.216667,,
BNA;Nashville International;Nashville,-86.678056,
ILN;Clinton Field;Wilmington;United States;US;39.416667;-83.8;67;4955840;6252001;39.416667,,
QNY;Marine Air Terminal;New York;United States;US;5.5;-70.483333;67;5128581;6252001;5.5,,
MMI;McMinn County;Athens;United States;US;35.45;-84.6;67;5244312;6252001;35.45,,
TVI;Municipal;Thomasville;United States;US;51.566667;8.133333;67;4494942;6252001;51.566667,,
RTL;Spirit Lake;Spirit Lake;United States;US;43.416667;-95.1;67;5608388;6252001;43.416667,,
AGN;Angoon;Angoon;United States;US;57.5;-134.583333;67;\N;6252001;57.5,,
AUO;Auburn-Opelika;Auburn;United States;US;32.616667;-85.433333;67;5785965;6252001;32.616667,,
BVY;Beverly Municiple Airport;Beverly;United States;US;42.516667;-70.833333;67;5095691;6252001;42.516667,,
ADS;Addison Airport;Dallas;United States;US;32.968611;-96.836389;67;5722064;6252001;32.968611,,
FWH;Fort Worth NAS Jrb/Carswell Field;Fort Worth,-97.441667,
FLV;Sherman AAF;Fort Leavenworth;United States;US;19.833333;-72.5;67;\N;6252001;19.833333,,
EVV;Evansville Regional Airport;Evansville,-87.5325,
HST;AFB;Homestead;United States;US;25.483333;-80.483333;67;5194067;6252001;25.483333,,
PCE;Painter Creek;Painter Creek;United States;US;47.8;10.216667;67;\N;6252001;47.8,,
BLF;Princeton;Princeton;United States;US;37.3;-81.2;67;5268096;6252001;37.3,,
RDM;Roberts Field;Redmond;United States;US;44.25;-121.15;67;5808079;6252001;44.25,,
SUU;Travis AFB;Fairfield;United States;US;5.816667;-54.816667;67;5347335;6252001;5.816667,,
AIB;Anita Bay;Anita Bay;United States;US;56.233333;-132.383333;67;\N;6252001;56.233333,,
BHB;Bar Harbor;Bar Harbor;United States;US;44.45;-68.366667;67;4957320;6252001;44.45,,
BXA;George R Carr;Bogalusa;United States;US;30.783333;-89.866667;67;4317412;6252001;30.783333,,
IWD;Gogebic County;Ironwood;United States;US;46.533333;-90.133333;67;4997249;6252001;46.533333,,
KLN;Larsen SPB;Larsen Bay;United States;US;57.533333;-154.0;67;\N;6252001;57.533333,,
AOO;Martinsburg;Martinsburg;United States;US;40.3;-78.316667;67;5200055;6252001;40.3,,
PVF;Placerville;Placerville;United States;US;38.716667;-120.8;67;5383559;6252001;38.716667,,
SAA;Shively Field;Saratoga;United States;US;41.45;-106.8;67;5837593;6252001;41.45,,
LMS;Winston County;Louisville;United States;US;33.15;-89.066667;67;5429522;6252001;33.15,,
AEL;Albert Lea;Albert Lea;United States;US;43.683333;-93.366667;67;5016024;6252001;43.683333,,
CVS;Cannon AFB;Clovis;United States;US;19.15;-72.55;67;5462393;6252001;19.15,,
AXV;Neil Armstrong;Wapakoneta;United States;US;40.566667;-84.183333;67;5175670;6252001;40.566667,,
BLW;Bellows Field;Waimanalo;United States;US;21.35;-157.716667;67;5854532;6252001;21.35,,
HCA;Howard County;Big Spring;United States;US;32.3;-101.433333;67;5517061;6252001;32.3,,
JCI;New Century Aircenter Airport;Olathe,-94.890278,
BFR;Virgil I Grissom Muni;Bedford;United States;US;38.85;-86.483333;67;5179630;6252001;38.85,,
SCJ;Smith Cove;Smith Cove;United States;US;55.4375;-132.341667;67;\N;6252001;55.4375,,
TLT;Tuluksak;Tuluksak;United States;US;37.966667;39.533333;67;\N;6252001;37.966667,,
LBT;Lumberton;Lumberton;United States;US;34.6;-79.066667;67;4708328;6252001;34.6,,
AIN;Wainwright;Wainwright;United States;US;70.633333;-160.033333;67;\N;6252001;70.633333,,
BIC;Big Creek;Big Creek;United States;US;57.666667;-157.583333;67;\N;6252001;57.666667,,
GDV;Dawson Community;Glendive;United States;US;47.133333;-104.683333;67;5654391;6252001;47.133333,,
LGF;Laguna AAF;Yuma;United States;US;-1.6;138.716667;67;5583657;6252001;-1.6,,
UGB;Ugashik Bay;Pilot Point;United States;US;57.433333;-157.75;67;4719021;6252001;57.433333,,
CTW;Cottonwood;Cottonwood;United States;US;34.733333;-112.033333;67;5589704;6252001;34.733333,,
MXC;San Juan County;Monticello;United States;US;37.866667;-109.35;67;5543377;6252001;37.866667,,
GOL;State;Gold Beach;United States;US;42.416667;-124.416667;67;5843997;6252001;42.416667,,
MLF;Milford;Milford;United States;US;38.433333;-113.016667;67;5543146;6252001;38.433333,,
KMY;Moser Bay;Moser Bay;United States;US;57.0;-154.166667;67;\N;6252001;57.0,,
FOK;Suffolk County;Westhampton;United States;US;40.833333;-72.616667;67;5144089;6252001;40.833333,,
BSI;Blairsville;Blairsville;United States;US;40.433333;-79.266667;67;5180834;6252001;40.433333,,
KTS;Brevig Mission;Teller Mission;United States;US;65.333333;-166.483333;67;\N;6252001;65.333333,,
CDL;Candle;Candle;United States;US;65.9;-161.916667;67;\N;6252001;65.9,,
IAH;George Bush Intercontinental;Houston;United States;US;29.984444;-95.341389;67;5864312;6252001;29.984444,,
AZO;Kalamazoo/Battle Creek Intl;Kalamazoo;United States;US;42.235;-85.551944;67;4997787;6252001;42.235,,
RSL;Russell;Russell;United States;US;38.883333;-98.85;67;4949204;6252001;38.883333,,
HPN;Westchester County Apt;White Plains;United States;US;41.066667;-73.7;67;5144336;6252001;41.066667,,
EGI;Duke Field;Valparaiso;United States;US;45.660833;18.418611;67;4927537;6252001;45.660833,,
DNS;Municipal;Denison;United States;US;41.983333;-95.383333;67;4853757;6252001;41.983333,,
FSK;Municipal;Fort Scott;United States;US;37.8;-94.766667;67;4271690;6252001;37.8,,
RUI;Municipal;Ruidoso;United States;US;33.416667;-105.583333;67;5488598;6252001;33.416667,,
SLN;Salina;Salina;United States;US;38.816667;-97.566667;67;5546253;6252001;38.816667,,
BNF;Warm Spring Bay SPB;Baranof;United States;US;57.083333;-134.816667;67;\N;6252001;57.083333,,
LOU;Bowman Field Airport;Louisville;United States;US;38.227778;-85.663611;67;5429522;6252001;38.227778,,
CDH;Harrell Fld;Camden;United States;US;33.616667;-92.766667;67;5111148;6252001;33.616667,,
MHM;Intermediate;Minchumina;United States;US;55.583333;-3.016667;67;\N;6252001;55.583333,,
BTT;Bettles;Bettles;United States;US;66.916667;-151.516667;67;\N;6252001;66.916667,,
MER;Castle AFB;Atwater,-120.568056,
GAB;Gabbs;Gabbs;United States;US;38.866667;-117.916667;67;\N;6252001;38.866667,,
HAY;Haycock;Haycock;United States;US;65.2;-161.15;67;\N;6252001;65.2,,
FAK;False Island;False Island;United States;US;57.530556;-135.216667;67;\N;6252001;57.530556,,
AKN;King Salmon;King Salmon;United States;US;58.516667;-156.633333;67;\N;6252001;58.516667,,
EWR;Newark Liberty International;Newark;United States;US;40.6925;-74.168611;21;5376803;6252001;40.6925,,
SAD;Safford;Safford;United States;US;32.85;-109.633333;67;5312476;6252001;32.85,,
SEA;Seattle-Tacoma International;Seattle,-122.309444,
ROC;Greater Rochester International;Rochester,-77.6725,
MDW;Midway;Chicago;United States;US;41.783333;-87.75;67;4887398;6252001;41.783333,,
RSJ;Rosario SPB;Rosario;United States;US;48.633333;-122.85;67;\N;6252001;48.633333,,
WMC;Winnemucca;Winnemucca;United States;US;40.966667;-117.733333;67;5710360;6252001;40.966667,,
LWC;Lawrence;Lawrence;United States;US;38.95;-95.283333;67;5124087;6252001;38.95,,
MKL;Mc Kellar-Sipes Regional;Jackson;United States;US;35.6;-88.915556;67;5828648;6252001;35.6,,
WBU;Municipal;Boulder;United States;US;40.033333;-105.233333;67;5641473;6252001;40.033333,,
PPM;Pompano Beach;Pompano Beach;United States;US;26.233333;-80.127778;67;4169014;6252001;26.233333,,
ATK;Atqasuk;Atqasuk;United States;US;70.466667;-157.333333;67;\N;6252001;70.466667,,
RKW;Municipal;Rockwood;United States;US;35.916667;-84.683333;67;5007451;6252001;35.916667,,
TYZ;Taylor;Taylor;United States;US;56.15;-1.666667;67;5316960;6252001;56.15,,
HRO;Boone County;Harrison;United States;US;36.228333;-93.109722;67;5120095;6252001;36.228333,,
DLN;Dillon;Dillon;United States;US;45.216667;-112.633333;67;5648657;6252001;45.216667,,
PLB;Clinton County;Plattsburgh;United States;US;44.683333;-73.516667;67;5131692;6252001;44.683333,,
CVR;Hughes;Culver City;United States;US;34.016667;-118.4;67;5341114;6252001;34.016667,,
KUY;Kamusi Airport;Kamusi;United States;US;57.634444;-153.998333;67;\N;6252001;57.634444,,
MSY;Louis Armstrong New Orléans International Airport;New Orleans;United States;US;29.993333;-90.258056;67;4335045;6252001;29.993333,,
SLE;Mcnary Field;Salem;United States;US;44.916667;-123.0;67;5750162;6252001;44.916667,,
UCA;Oneida County;Utica;United States;US;43.15;-75.383333;67;5174913;6252001;43.15,,
GAL;Galena;Galena;United States;US;64.716667;-156.933333;67;4893384;6252001;64.716667,,
GOF;Goodfellow AFB;San Angelo;United States;US;43.816667;12.8;67;5530022;6252001;43.816667,,
FLG;Pulliam Field;Grand Canyon;United States;US;35.133333;-111.683333;67;\N;6252001;35.133333,,
LMT;Kingsley Field;Klamath Falls;United States;US;42.166667;-121.733333;67;5735238;6252001;42.166667,,
MCL;Mt Mckinley;Mt Mckinley;United States;US;63.733333;-148.9;67;\N;6252001;63.733333,,
BBB;Municipal;Benson;United States;US;45.316667;-95.6;67;5771337;6252001;45.316667,,
JSG;San Rafael H/P;San Rafael;United States;US;8.45;-73.916667;67;5392567;6252001;8.45,,
PGC;Grant County;Petersburg;United States;US;39.0;-79.116667;67;5556338;6252001;39.0,,
LBF;Lee Bird Field;North Platte;United States;US;41.133333;-100.7;67;5697939;6252001;41.133333,,
NQA;Millington Regional Jetport;Millington,-89.870278,
LSV;Nellis AFB;Las Vegas,-115.034167,
DAY;James Cox Dayton Intl;Dayton,-84.183333,
TRL;Terrell Field;Terrell;United States;US;-21.8;121.033333;67;4736028;6252001;-21.8,,
MGI;Aransas National Wildlife Refuge;Matagorda Island,124.466944,
BKF;Lake Brooks SPB;Katmai National Park;United States;US;58.554722;-155.7775;67;\N;6252001;58.554722,,
RMP;Rampart;Rampart;United States;US;65.5;-150.15;67;\N;6252001;65.5,,
ANP;Lee;Annapolis;United States;US;38.983333;-76.5;67;4347242;6252001;38.983333,,
CKN;Municipal;Crookston;United States;US;47.85;-96.616667;67;5023465;6252001;47.85,,
CEM;Central;Central;United States;US;65.566667;-144.783333;67;4612476;6252001;65.566667,,
FEW;Warren AFB;Cheyenne;United States;US;32.9875;65.124167;67;5821086;6252001;32.9875,,
POF;Earl Fields Memorial;Poplar Bluff;United States;US;36.75;-90.5;67;4404233;6252001;36.75,,
PQI;Municipal;Presque Isle;United States;US;46.683333;-68.05;67;4975966;6252001;46.683333,,
TTD;Troutdale;Troutdale;United States;US;54.083333;-1.166667;67;5757477;6252001;54.083333,,
RWF;Redwood Falls Muni;Redwood Falls;United States;US;44.533333;-95.116667;67;5042832;6252001;44.533333,,
JUP;Cable Heliport;Upland;United States;US;-32.266667;27.183333;67;5404915;6252001;-32.266667,,
LFN;Franklin;Louisburg;United States;US;36.1;-78.3;67;4477296;6252001;36.1,,
SGU;Municipal;Saint George;United States;US;37.083333;-113.6;67;5546220;6252001;37.083333,,
RSW;Southwest Florida Reg;Fort Myers;United States;US;26.542222;-81.755278;67;4155995;6252001;26.542222,,
STG;St George Island;St George Island;United States;US;56.6;-169.533333;67;\N;6252001;56.6,,
BKX;Brookings;Brookings;United States;US;44.3;-96.816667;67;5715905;6252001;44.3,,
FSD;Joe Foss Field Airport;Sioux Falls;United States;US;43.581944;-96.741944;67;5231851;6252001;43.581944,,
WRI;Mc Guire Afb;Wrightstown,-74.593611,
ICL;Municipal;Clarinda;United States;US;40.733333;-95.033333;67;4851762;6252001;40.733333,,
SQI;Whiteside County;Sterling Rockfalls;United States;US;41.733333;-89.683333;67;\N;6252001;41.733333,,
CMI;University Of Illinois Willard;Champaign;United States;US;40.033333;-88.283333;67;4887158;6252001;40.033333,,
EBS;Municipal;Webster City;United States;US;42.466667;-93.8;67;4881096;6252001;42.466667,,
BTY;Beatty;Beatty;United States;US;52.9;-1.783332999999999;67;5550561;6252001;52.9,,
MTJ;Montrose Regional Airport;Montrose;United States;US;38.509722;-107.894167;67;5431710;6252001;38.509722,,
CXF;Coldfoot;Coldfoot;United States;US;67.266667;-150.166667;67;\N;6252001;67.266667,,
JCE;Convention Center H/P;Oakland;United States;US;-17.916667;142.05;67;5378538;6252001;-17.916667,,
JOR;The City Heliport;Orange;United States;US;33.791667;-117.875;67;5379513;6252001;33.791667,,
UNU;Dodge County;Juneau,-88.703889,
GCK;Garden City Municipal Airport;Garden City,-100.733333,
ART;Watertown;Watertown;United States;US;43.983333;-76.016667;67;5278005;6252001;43.983333,,
PIB;Hattiesburg-Laurel Regional;Hattiesburg/Laurel,-89.336944,
MWC;Lawrence J Timmerman;Milwaukee;United States;US;43.110278;-88.034167;67;5263045;6252001;43.110278,,
PIE;St. Petersburg-Clearwater International;Clearwater;United States;US;27.910556;-82.6875;67;5021527;6252001;27.910556,,
SVE;Susanville;Susanville;United States;US;40.4;-120.65;67;5572400;6252001;40.4,,
TCL;Van De Graaf;Tuscaloosa,-87.611389,
BSW;Boswell Bay;Boswell Bay;United States;US;60.4;-146.133333;67;\N;6252001;60.4,,
ZHC;N Philadelphia Rail St;Philadelphia;United States;US;29.483333;31.066667;67;5131095;6252001;29.483333,,
GSH;Goshen;Goshen;United States;US;41.583333;-85.833333;67;5353181;6252001;41.583333,,
MJQ;Jackson;Jackson;United States;US;43.616667;-95.016667;67;5828648;6252001;43.616667,,
EST;Municipal;Estherville;United States;US;43.4;-94.833333;67;4855709;6252001;43.4,,
WBB;Stebbins;Stebbins;United States;US;63.5;-162.266667;67;\N;6252001;63.5,,
AIA;Alliance;Alliance;United States;US;42.066667;-102.8;67;5693164;6252001;42.066667,,
WSH;Brookhaven;Shirley;United States;US;40.783333;-72.916667;67;5138022;6252001;40.783333,,
RKD;Knox County Regional;Rockland;United States;US;44.066667;-69.1;67;4948924;6252001;44.066667,,
OZA;Ozona Municipal;Ozona;United States;US;30.735278;-101.202778;67;5527870;6252001;30.735278,,
TUS;Tucson International Airport;Tucson,-110.941111,
DOV;Dover AFB;Dover-Cheswold,-75.466111,
PUB;Memorial;Pueblo;United States;US;38.283333;-104.5;67;5435464;6252001;38.283333,,
RBG;Municipal;Roseburg;United States;US;43.233333;-123.35;67;5749352;6252001;43.233333,,
BGS;Webb AFB;Big Spring;United States;US;-18.516666999999998;124.266667;67;5517061;6252001;-18.516666999999998,,
CWG;Callaway Gardens;Callaway Gardens;United States;US;32.833333;-84.883333;67;\N;6252001;32.833333,,
IFP;Laughlin Bullhead Intl;Bullhead City;United States;US;30.733333000000002;72.816667;67;5287565;6252001;30.733333000000002,,
ZRF;Park & Ride Bus Svc;Rockford;United States;US;-32.85;24.166667;67;5168451;6252001;-32.85,,
WEA;Parker County;Weatherford;United States;US;32.75;-97.783333;67;4740364;6252001;32.75,,
ANQ;Tri-State Steuben Cty;Angola;United States;US;41.633333;-85.0;67;5107227;6252001;41.633333,,
LGA;La Guardia;New York;United States;US;40.766667;-73.866667;67;5128581;6252001;40.766667,,
FUL;Municipal;Fullerton;United States;US;33.866667;-117.966667;67;5351247;6252001;33.866667,,
SCB;State;Scribner;United States;US;41.666667;-96.65;67;\N;6252001;41.666667,,
FLT;Flat;Flat;United States;US;62.45;-158.0;67;\N;6252001;62.45,,
FAT;Fresno Air Terminal Airport;Fresno;United States;US;36.766667;-119.716667;67;5350937;6252001;36.766667,,
IGM;Kingman;Kingman;United States;US;35.25;-113.933333;67;5301067;6252001;35.25,,
SSI;Mckinnon;Brunswick;United States;US;50.933333;5.95;67;5148480;6252001;50.933333,,
SYR;Syracuse Hancock International Airport;Syracuse;United States;US;43.116667;-76.116667;67;5782391;6252001;43.116667,,
TCC;Tucumcari;Tucumcari;United States;US;-5.6;-42.65;67;5495360;6252001;-5.6,,
PML;AFS;Port Moller;United States;US;55.983333;-160.533333;67;\N;6252001;55.983333,,
CZC;Copper Centre;Copper Centre;United States;US;42.483333;12.65;67;\N;6252001;42.483333,,
MDR;Medfra;Medfra;United States;US;63.1;-154.716667;67;\N;6252001;63.1,,
KSM;Saint Marys;Saint Marys;United States;US;62.05;-163.183333;67;5210117;6252001;62.05,,
TRP;Coast Guard Heliport;Tree Point;United States;US;39.983333;25.266666999999998;67;\N;6252001;39.983333,,
KPR;Port Williams SPB;Port Williams;United States;US;58.483333;-152.583333;67;\N;6252001;58.483333,,
KTB;Thorne Bay;Thorne Bay;United States;US;-36.777778;174.776944;67;\N;6252001;-36.777778,,
CHP;Circle Hot Springs;Circle Hot Springs;United States;US;65.466667;-144.583333;67;\N;6252001;65.466667,,
IOW;Iowa City;Iowa City,-91.546389,
RED;Mifflin County;Reedsville;United States;US;40.683333;-77.616667;67;5268583;6252001;40.683333,,
ONT;Ontario International;Ontario;United States;US;34.056111;-117.601111;67;5744166;6252001;34.056111,,
BMC;Brigham City;Brigham City;United States;US;41.533333;-112.05;67;5771960;6252001;41.533333,,
SVN;Hunter AAF;Savannah,-81.145556,
ACY;Atlantic City Intl;Atlantic City;United States;US;39.466667;-74.583333;67;4500546;6252001;39.466667,,
OSX;Attala County;Kosciusko;United States;US;33.083333;-89.55;67;4432542;6252001;33.083333,,
SLQ;Sleetmute;Sleetmute;United States;US;61.7;-157.116667;67;\N;6252001;61.7,,
NDV;USN Heliport;Anacostia;United States;US;12.15;36.366667;67;\N;6252001;12.15,,
ARG;Walnut Ridge;Walnut Ridge;United States;US;36.116667;-90.916667;67;4135205;6252001;36.116667,,
GTF;International;Great Falls;United States;US;47.5;-111.366667;67;5655240;6252001;47.5,,
HBO;Municipal;Humboldt;United States;US;40.166667;-95.95;67;4861335;6252001;40.166667,,
MGY;Dayton-Wright Brothers Airport;Dayton;United States;US;39.588889;-84.224722;67;6545140;6252001;39.588889,,
ILG;Greater Wilmington;Wilmington;United States;US;39.683333;-75.6;67;4955840;6252001;39.683333,,
CUH;Municipal;Cushing;United States;US;35.983333;-96.766667;67;4961976;6252001;35.983333,,
NPT;State;Newport;United States;US;41.6;-71.416667;67;5804694;6252001;41.6,,
TKA;Talkeetna;Talkeetna;United States;US;62.320556;150.093611;67;5875745;6252001;62.320556,,
CLM;Fairchild Intl;Port Angeles;United States;US;48.133333;-123.5;67;5807212;6252001;48.133333,,
MXG;Marlborough;Marlborough;United States;US;42.333333;-71.55;67;5089236;6252001;42.333333,,
CLK;Municipal;Clinton;United States;US;43.6;-81.533333;67;5773001;6252001;43.6,,
OBT;Oakland/Coliseum Stat;Oakland,-142.05,
PHO;Point Hope;Point Hope;United States;US;68.35;-166.8;67;\N;6252001;68.35,,
RUT;Rutland;Rutland;United States;US;43.533333;-72.95;67;5240509;6252001;43.533333,,
SWW;Sweetwater;Sweetwater;United States;US;32.466667;-100.466667;67;5531968;6252001;32.466667,,
GBH;Galbraith Lake;Galbraith Lake;United States;US;68.466667;-149.483333;67;\N;6252001;68.466667,,
DGN;NAF;Dahlgren;United States;US;77.533333;15.35;67;4755143;6252001;77.533333,,
FNR;SPB;Funter Bay;United States;US;58.233333;-134.916667;67;\N;6252001;58.233333,,
UKI;Ukiah;Ukiah;United States;US;39.126667;-123.2;67;5404476;6252001;39.126667,,
UKT;Upper Bucks;Quakertown;United States;US;40.433333;-75.333333;67;5207381;6252001;40.433333,,
AOS;Amook;Amook;United States;US;57.466667;-153.833333;67;\N;6252001;57.466667,,
AKP;Anaktuvuk;Anaktuvuk;United States;US;68.133333;-151.733333;67;\N;6252001;68.133333,,
ISN;Sloulin Field Intl;Williston;United States;US;48.183333;-103.65;67;5692947;6252001;48.183333,,
KEK;Ekwok;Ekwok;United States;US;59.366667;-157.483333;67;\N;6252001;59.366667,,
PKD;Park Rapids;Park Rapids;United States;US;46.9;-95.066667;67;5040822;6252001;46.9,,
BCS;Southern Seaplane;Belle Chasse;United States;US;30.05;-90.233333;67;4316329;6252001;30.05,,
HDH;Dillingham Airfield;Oahu;United States;US;3.866667;154.983333;67;\N;6252001;3.866667,,
MWA;Williamson County;Marion;United States;US;37.752778;-89.016667;67;5261872;6252001;37.752778,,
ABR;Municipal;Aberdeen;United States;US;45.45;-98.433333;67;5785243;6252001;45.45,,
PUW;Pullman-Moscow Regional Airport;Pullman;United States;US;46.75;-117.116667;67;5807540;6252001;46.75,,
WSG;County;Washington;United States;US;40.166667;-80.25;67;5549222;6252001;40.166667,,
LNY;Lanai City;Lanai City;United States;US;20.783333;-156.95;67;\N;6252001;20.783333,,
ENL;Municipal;Centralia;United States;US;38.516667;-89.091667;67;5789683;6252001;38.516667,,
OHC;AFS;Northeast Cape;United States;US;63.316667;-168.966667;67;\N;6252001;63.316667,,
HPY;Baytown;Baytown;United States;US;29.733333000000002;-94.966667;67;4672731;6252001;29.733333000000002,,
HUM;Terrebonne;Houma;United States;US;29.583333;-90.666667;67;4328010;6252001;29.583333,,
SUC;Schloredt;Sundance;United States;US;44.4;-104.366667;67;5840284;6252001;44.4,,
RNZ;Rensselaer;Rensselaer;United States;US;40.95;-87.15;67;5133667;6252001;40.95,,
PGD;Charlotte County;Punta Gorda;United States;US;26.916667;-81.983333;67;4169452;6252001;26.916667,,
CLL;Easterwood Field;College Station,-96.363889,
GGG;Kilgore;Kilgore;United States;US;32.383333;-94.716667;67;4703199;6252001;32.383333,,
KDK;Municipal;Kodiak;United States;US;57.8;-152.383333;67;5866583;6252001;57.8,,
BVX;Municipal;Batesville;United States;US;35.766667;-91.65;67;4672600;6252001;35.766667,,
EMM;Kemerer;Kemerer;United States;US;41.85;-110.55;67;\N;6252001;41.85,,
RMG;Richard B Russell;Rome;United States;US;34.35;-85.166667;67;5134295;6252001;34.35,,
MFV;Accomack County;Melfa;United States;US;13.633333;39.133333;67;\N;6252001;13.633333,,
LGC;Calloway;La Grange;United States;US;33.016667;-85.083333;67;4898846;6252001;33.016667,,
MLK;Malta;Malta;United States;US;48.35;-107.866667;67;5664486;6252001;48.35,,
SPW;Municipal;Spencer;United States;US;43.166667;-95.183333;67;5273956;6252001;43.166667,,
SHN;Sanderson Field;Shelton;United States;US;47.241667;-123.133333;67;5810176;6252001;47.241667,,
SHX;Shageluk;Shageluk;United States;US;62.633333;-159.583333;67;\N;6252001;62.633333,,
EYR;Yerington;Yerington;United States;US;38.983333;-119.166667;67;5515507;6252001;38.983333,,
LOZ;Corbin-London;London;United States;US;37.083333;-84.066667;67;5367815;6252001;37.083333,,
LYU;Ely;Ely;United States;US;47.9;-91.85;67;5503694;6252001;47.9,,
LHB;Lost Harbor Sea Port;Lost Harbor;United States;US;54.233333;-165.6;67;\N;6252001;54.233333,,
MYF;Montgomery Field;San Diego;United States;US;32.8;-117.133333;67;5391811;6252001;32.8,,
AMK;Animas Airpark;Durango;United States;US;14.466667;-87.85;67;5420241;6252001;14.466667,,
HKS;Hawkins Field;Jackson;United States;US;32.333611;-90.222222;67;5828648;6252001;32.333611,,
TLJ;Tatalina AFS;Tatalina;United States;US;-4.716667;-79.55;67;\N;6252001;-4.716667,,
VHN;Culberson County;Van Horn;United States;US;31.033333;-104.816667;67;5532924;6252001;31.033333,,
VLE;J t Robidoux;Valle;United States;US;35.65;-112.2;67;\N;6252001;35.65,,
MKF;Mckenna AAF;Columbus;United States;US;-12.5625;39.896389;67;5645893;6252001;-12.5625,,
KKT;Kentland;Kentland;United States;US;40.766667;-87.45;67;4922267;6252001;40.766667,,
KIP;Kickapoo;Wichita Falls;United States;US;33.9;-98.5;67;4741752;6252001;33.9,,
BTI;Barter Island;Barter Island;United States;US;70.133333;-143.633333;67;\N;6252001;70.133333,,
JSL;Steel Pier Hlpt;Atlantic City;United States;US;39.360556;-74.420833;67;4500546;6252001;39.360556,,
SUE;Door County;Sturgeon Bay;United States;US;44.833333;-87.416667;67;5274867;6252001;44.833333,,
LYH;Preston-Glenn Field;Lynchburg;United States;US;37.333333;-79.2;67;4771075;6252001;37.333333,,
CIN;Carroll;Carroll;United States;US;42.05;-94.783333;67;4850478;6252001;42.05,,
KOA;Kona International Airport;Kona,-156.045556,
KPB;Point Baker SPB;Point Baker;United States;US;56.366667;-133.616667;67;\N;6252001;56.366667,,
ITH;Tompkins County;Ithaca;United States;US;42.483333;-76.466667;67;5122432;6252001;42.483333,,
OXC;Waterbury-oxford;Oxford,-73.135278,
MDN;Jefferson Proving Grd;Madison;United States;US;38.733333;-85.366667;67;5261457;6252001;38.733333,,
ELY;Yelland;Ely;United States;US;39.3;-114.85;67;5503694;6252001;39.3,,
ZZV;Zanesville;Zanesville;United States;US;39.95;-81.883333;67;4528923;6252001;39.95,,
CXC;Chitina Arpt;Chitina;United States;US;61.566667;-144.416667;67;\N;6252001;61.566667,,
FLL;Fort Lauderdale/hollywood International;Fort Lauderdale,-80.152778,
HVE;Intermediate;Hanksville;United States;US;38.416667;-110.7;67;\N;6252001;38.416667,,
LVK;Livermore;Livermore;United States;US;37.683333;-121.766667;67;5367440;6252001;37.683333,,
MYH;Marble Canyon;Marble Canyon;United States;US;36.816667;-111.65;67;\N;6252001;36.816667,,
CRX;Roscoe Turner;Corinth;United States;US;34.9;-88.6;67;5113723;6252001;34.9,,
WAX;Zwara;Zwara;United States;US;48.9;-95.3;67;\N;6252001;48.9,,
ILI;Iliamna;Iliamna;United States;US;59.733333;-154.966667;67;\N;6252001;59.733333,,
BIE;Beatrice;Beatrice;United States;US;40.316667;-96.75;67;5063646;6252001;40.316667,,
PSG;Petersburg James A Johnson;Petersburg,-132.983333,
MRN;Lenoir;Morganton;United States;US;35.75;-81.725;67;4480219;6252001;35.75,,
ONO;Ontario Municipal Airport;Ontario;United States;US;44.020556;-117.013611;67;5744166;6252001;44.020556,,
PGS;Peach Springs;Peach Springs;United States;US;35.533333;-113.416667;67;\N;6252001;35.533333,,
DTN;Shreveport Downtown;Shreveport,-93.745,
DDC;Dodge City Municipal;Dodge City;United States;US;37.766667;-99.966667;67;5445298;6252001;37.766667,,
HNM;Hana;Hana;United States;US;20.8;-156.016667;67;\N;6252001;20.8,,
CYM;Chatham SPB;Chatham;United States;US;57.5;-134.75;67;5112335;6252001;57.5,,
ADQ;Kodiak Airport;Kodiak;United States;US;57.75;-152.483333;67;5866583;6252001;57.75,,
PHF;Newport News/williamsb;Newport News;United States;US;37.133333;-76.5;67;4776024;6252001;37.133333,,
FOB;Fort Bragg;Fort Bragg;United States;US;39.474444;-123.795556;67;5350039;6252001;39.474444,,
GNG;Gooding;Gooding;United States;US;42.916667;-114.783333;67;5594307;6252001;42.916667,,
NIE;Niblack;Niblack;United States;US;55.066667;-132.15;67;\N;6252001;55.066667,,
NOT;Novato;Novato;United States;US;38.1;-122.566667;67;5378044;6252001;38.1,,
HNS;Municipal;Haines;United States;US;59.25;-135.516667;67;5846901;6252001;59.25,,
AQY;Alyeska;Alyeska;United States;US;60.966667;-149.116667;67;\N;6252001;60.966667,,
ABE;Lehigh Valley International;Allentown;United States;US;40.652222;-75.440278;67;5178127;6252001;40.652222,,
HSL;Huslia;Huslia;United States;US;65.7;-156.416667;67;\N;6252001;65.7,,
GYR;Litchfield;Goodyear;United States;US;33.433333;-112.35;67;5296266;6252001;33.433333,,
JAE;Technology Park;Atlanta;United States;US;9.716667;-82.983333;67;4883772;6252001;9.716667,,
SOW;Show Low;Show Low,-110.005556,
KCN;SPB;Chernofski;United States;US;53.416667;-167.55;67;\N;6252001;53.416667,,
UST;St Augustine;St Augustine;United States;US;29.95;-81.333333;67;\N;6252001;29.95,,
SCE;University Park;State College;United States;US;40.772222;-77.883333;67;5213681;6252001;40.772222,,
FCA;Glacier Park International;Kalispell,-114.266667,
GNU;Goodnews Bay;Goodnews Bay;United States;US;59.116667;-161.516667;67;\N;6252001;59.116667,,
KLP;Kelp Bay;Kelp Bay;United States;US;57.558333;-134.866667;67;\N;6252001;57.558333,,
HPV;Princeville;Kauai Island;United States;US;22.2125;-159.446667;67;\N;6252001;22.2125,,
ROG;Rogers;Rogers;United States;US;36.333333;-94.116667;67;5043608;6252001;36.333333,,
PWD;Sherwood;Plentywood;United States;US;48.766667;-104.55;67;5671807;6252001;48.766667,,
PHX;Sky Harbor Intl;Phoenix;United States;US;33.433333;-112.033333;67;5745656;6252001;33.433333,,
SYV;Sylvester;Sylvester;United States;US;31.516666999999998;-83.833333;67;4225522;6252001;31.516666999999998,,
MLD;Malad City;Malad City;United States;US;42.336111;-112.3;67;5600035;6252001;42.336111,,
SYL;Roberts AAF;San Miguel;United States;US;80.0;-75.866667;67;5392448;6252001;80.0,,
BJJ;Wayne County;Wooster;United States;US;40.8;-81.933333;67;5177358;6252001;40.8,,
DUJ;Du Bois-Jefferson County;Du Bois;United States;US;41.178333;-78.898611;67;5187432;6252001;41.178333,,
ANY;Anthony;Anthony;United States;US;37.15;-98.033333;67;5516368;6252001;37.15,,
ERO;Coast Guard;Eldred Rock;United States;US;61.0;8.15;67;\N;6252001;61.0,,
EGV;Eagle River;Eagle River;United States;US;45.933333;-89.266667;67;5251171;6252001;45.933333,,
YUM;International;Yuma;United States;US;32.65;-114.6;67;5583657;6252001;32.65,,
MUU;Mount Union;Mount Union;United States;US;40.383333;-77.883333;67;5202382;6252001;40.383333,,
GCY;Municipal;Greenville;United States;US;36.183333;-82.816667;67;5564488;6252001;36.183333,,
JVL;Rock County;Janesville;United States;US;42.616667;-89.033333;67;5257754;6252001;42.616667,,
TVL;South Lake Tahoe;South Lake Tahoe;United States;US;38.883333;-120.0;67;5397664;6252001;38.883333,,
WWS;USAF Heliport;Wildwood;United States;US;53.616667;-1.25;67;4504856;6252001;53.616667,,
NAX;Barbers Point;Barbers Point;United States;US;18.433333;-72.383333;67;\N;6252001;18.433333,,
RCK;Coffield;Rockdale;United States;US;30.65;-97.0;67;4907953;6252001;30.65,,
KOT;Kotlik;Kotlik;United States;US;63.033333;-163.533333;67;\N;6252001;63.033333,,
WWA;Wasilla;Wasilla;United States;US;61.583333;-149.433333;67;5877641;6252001;61.583333,,
ESN;Easton;Easton;United States;US;38.808333;-76.075;67;5345171;6252001;38.808333,,
GBR;Walter J. Koladza Airport;Great Barrington;United States;US;42.184167;-73.403333;67;4938157;6252001;42.184167,,
HGR;Wash. County Regional;Hagerstown;United States;US;39.7;-77.716667;67;4357141;6252001;39.7,,
FSU;Fort Sumner;Fort Sumner;United States;US;34.466667;-104.25;67;5468133;6252001;34.466667,,
DUC;Halliburton Field;Duncan;United States;US;34.466667;-97.966667;67;4577083;6252001;34.466667,,
WTK;Noatak;Noatak;United States;US;67.583333;-163.0;67;\N;6252001;67.583333,,
PWR;Port Walter;Port Walter;United States;US;56.383333;-134.65;67;\N;6252001;56.383333,,
TMA;Henry Tift Myers;Tifton,-83.488611,
HKY;Hickory;Hickory;United States;US;35.733333;-81.383333;67;4470778;6252001;35.733333,,
EWB;New Bedford;New Bedford;United States;US;41.683333;-70.966667;67;4945121;6252001;41.683333,,
AHN;Athens;Athens;United States;US;33.95;-83.333333;67;5244312;6252001;33.95,,
FWL;Farewell;Farewell;United States;US;62.516667;-153.9;67;\N;6252001;62.516667,,
FCH;Fresno-Chandler;Fresno;United States;US;19.291389;-99.425833;67;5350937;6252001;19.291389,,
OIL;Splane Memorial;Oil City,-79.830833,
GMT;Granite Mountain;Granite Mountain;United States;US;65.4;-161.283333;67;\N;6252001;65.4,,
OLF;International;Wolf Point;United States;US;48.083333;-105.566667;67;5687028;6252001;48.083333,,
SYB;Seal Bay;Seal Bay;United States;US;58.166667;-152.5;67;\N;6252001;58.166667,,
SMU;Sheep Mountain;Sheep Mountain;United States;US;61.8;-147.666667;67;\N;6252001;61.8,,
FTY;Fulton County;Atlanta;United States;US;9.716667;-82.983333;67;4883772;6252001;9.716667,,
BFL;Meadows Field;Bakersfield;United States;US;35.433611;-119.056667;67;5325738;6252001;35.433611,,
HMN;Holloman AFB;Alamogordo;United States;US;37.633333;-6.433333;67;5454627;6252001;37.633333,,
SHR;Sheridan;Sheridan;United States;US;44.766667;-106.966667;67;5838198;6252001;44.766667,,
FCS;Butts AAF;Colorado Springs;United States;US;19.45;-71.7;67;5417598;6252001;19.45,,
CGS;College Park;College Park;United States;US;39.0;-76.916667;67;4351977;6252001;39.0,,
HII;Municipal;Lake Havasu City;United States;US;34.568333;-114.355278;67;5301388;6252001;34.568333,,
SBN;South Bend Regional;South Bend;United States;US;41.7;-86.316667;67;5811211;6252001;41.7,,
KYL;Port Largo;Key Largo;United States;US;25.083333;-80.4;67;4160795;6252001;25.083333,,
SQV;Sequim Valley Arpt;Sequim;United States;US;48.083333;-123.1;67;5809983;6252001;48.083333,,
MVW;Skagit Regional;Mount Vernon;United States;US;48.416667;-122.333333;67;5804127;6252001;48.416667,,
WMK;SPB;Meyers Chuck;United States;US;55.733333;-132.2;67;\N;6252001;55.733333,,
DNV;Vermilion County;Danville,-87.595556,
RVR;Green River;Green River;United States;US;38.966667;-110.25;67;5826559;6252001;38.966667,,
BKW;Beckley;Beckley;United States;US;37.783333;-81.116667;67;4798308;6252001;37.783333,,
HAF;Half Moon;Half Moon;United States;US;37.483333;-122.466667;67;4469607;6252001;37.483333,,
LXV;Leadville;Leadville;United States;US;39.333333;-106.5;67;5428184;6252001;39.333333,,
MYL;Mccall;Mccall;United States;US;45.883333;-116.1;67;5600363;6252001;45.883333,,
GFB;Togiak Fish;Togiak Fish;United States;US;-0.333333;122.0;67;\N;6252001;-0.333333,,
JCC;China Basin Heliport;San Francisco;United States;US;-38.7;-60.016667;67;5391959;6252001;-38.7,,
DKK;Dunkirk;Dunkirk;United States;US;42.483333;-79.333333;67;5115495;6252001;42.483333,,
LKP;Lake Placid;Lake Placid;United States;US;44.264444;-73.961944;67;5123831;6252001;44.264444,,
MOX;Municipal;Morris;United States;US;-16.166389;38.721944;67;5038252;6252001;-16.166389,,
RND;Randolph AFB;San Antonio;United States;US;6.233333;-76.733333;67;4726206;6252001;6.233333,,
WSN;South Naknek;South Naknek;United States;US;58.7;-157.0;67;\N;6252001;58.7,,
CIV;Chomley;Chomley;United States;US;55.216667;-132.216667;67;\N;6252001;55.216667,,
SFF;Felts Field;Spokane;United States;US;47.666667;-117.325;67;5811696;6252001;47.666667,,
CGZ;Municipal;Casa Grande;United States;US;32.883333;-111.75;67;5288636;6252001;32.883333,,
CUB;Owens Field;Columbia;United States;US;-10.75;-67.866667;67;5338800;6252001;-10.75,,
WFB;Waterfront SPB;Ketchikan;United States;US;55.366667;-131.65;67;5554428;6252001;55.366667,,
MFD;Lahm Municipal;Mansfield;United States;US;40.816667;-82.516667;67;5199710;6252001;40.816667,,
DOF;Dora Bay;Dora Bay;United States;US;55.2125;-132.266667;67;\N;6252001;55.2125,,
XES;Municipal;Lake Geneva;United States;US;42.566667;-88.416667;67;5259169;6252001;42.566667,,
AXN;Alexandria;Alexandria;United States;US;45.783333;-95.266667;67;5082573;6252001;45.783333,,
BFD;Bradford;Bradford;United States;US;41.8;-78.633333;67;5221030;6252001;41.8,,
WWD;Cape May County;Wildwood;United States;US;39.0;-74.916667;67;4504856;6252001;39.0,,
HAR;Capital City;Harrisburg;United States;US;40.215833;-76.851944;67;5730389;6252001;40.215833,,
ISW;Alexander Field;Wisconsin Rapids;United States;US;44.766667;-89.677778;67;5279436;6252001;44.766667,,
ROW;Industrial;Roswell;United States;US;33.416667;-104.55;67;5488441;6252001;33.416667,,
OLS;International;Nogales;United States;US;31.333333;-110.933333;67;5306611;6252001;31.333333,,
JDN;Jordan;Jordan;United States;US;47.316667;-106.916667;67;5122893;6252001;47.316667,,
ORT;Northway;Northway;United States;US;62.95;-141.95;67;\N;6252001;62.95,,
CDN;Woodward Fld;Camden;United States;US;34.266667;-80.6;67;5111148;6252001;34.266667,,
NLE;Jerry Tyler Memorial;Niles;United States;US;41.85;-86.216667;67;5164582;6252001;41.85,,
TAD;Las Animas;Trinidad;United States;US;5.416667;-71.666667;67;5442007;6252001;5.416667,,
SSU;Greenbrier;White Sulphur Springs;United States;US;61.833333;-1.833333;67;5686092;6252001;61.833333,,
ANB;Anniston Metropolitan;Anniston;United States;US;33.588056;-85.858056;67;4830198;6252001;33.588056,,
BBW;Broken Bow;Broken Bow;United States;US;41.4;-99.633333;67;5064638;6252001;41.4,,
LMA;Lake Minchumina;Lake Minchumina;United States;US;63.883333;-152.316667;67;\N;6252001;63.883333,,
GRM;Devils Track;Grand Marais;United States;US;47.75;-91.333333;67;5028500;6252001;47.75,,
NDP;Ellyson NAS;Pensacola,-87.198056,
MSO;Missoula International;Missoula;United States;US;46.916667;-114.083333;67;5666639;6252001;46.916667,,
MVN;Mt Vernon-Outland;Mt Vernon;United States;US;38.316667;-88.866667;67;\N;6252001;38.316667,,
ATS;Artesia;Artesia;United States;US;32.85;-104.466667;67;5455796;6252001;32.85,,
MFR;Rogue Valley International - Medford Airport;Medford;United States;US;42.366667;-122.866667;67;5740099;6252001;42.366667,,
SRC;Searcy;Searcy;United States;US;35.25;-91.733333;67;4130430;6252001;35.25,,
AGS;Bush Field;Augusta;United States;US;33.366667;-81.966667;67;5244365;6252001;33.366667,,
OZR;Cairns AAF;Ozark;United States;US;53.116667;22.45;67;4402245;6252001;53.116667,,
GIF;Gilbert Field;Winter Haven;United States;US;28.066667;-81.75;67;4178552;6252001;28.066667,,
CKK;Cherokee;Cherokee;United States;US;36.283333;-91.5;67;4851247;6252001;36.283333,,
KVL;Kivalina;Kivalina;United States;US;67.733333;-164.666667;67;\N;6252001;67.733333,,
WLN;Little Naukati;Little Naukati;United States;US;55.866667;-133.216667;67;\N;6252001;55.866667,,
BGT;Bagdad;Bagdad,-113.170278,
HLN;Helena;Helena;United States;US;46.6;-111.983333;67;5656882;6252001;46.6,,
IDP;Independence;Independence;United States;US;16.533333;-88.416667;67;5732763;6252001;16.533333,,
HWO;North Perry;Hollywood;United States;US;26.001389;-80.240556;67;4582042;6252001;26.001389,,
JPN;Pentagon Army;Washington;United States;US;49.0;-72.5;67;5549222;6252001;49.0,,
RBD;Redbird;Dallas;United States;US;7.716667;40.916667;67;5722064;6252001;7.716667,,
BLH;Blythe;Blythe;United States;US;33.616667;-114.716667;67;5329649;6252001;33.616667,,
KLS;Longview;Kelso;United States;US;46.15;-122.9;67;5799571;6252001;46.15,,
ODW;Oak Harbor;Oak Harbor;United States;US;48.283333;-122.616667;67;5805441;6252001;48.283333,,
VIH;Rolla National;Vichy;United States;US;38.316667;-90.833333;67;\N;6252001;38.316667,,
KWF;Waterfall SPB;Waterfall;United States;US;55.3;-133.25;67;\N;6252001;55.3,,
DUG;Bisbee-Douglas Intl;Douglas;United States;US;31.466667;-109.6;67;5823516;6252001;31.466667,,
PVZ;Casement;Painesville;United States;US;41.733333;-81.216667;67;5166009;6252001;41.733333,,
PBK;Pack Creek;Pack Creek;United States;US;-34.2;150.616667;67;\N;6252001;-34.2,,
INW;Winslow-Lindbergh;Winslow,-110.7225,
MDO;Intermediate;Middleton Island;United States;US;59.45;-146.316667;67;\N;6252001;59.45,,
JAN;Jackson-evers;Jackson;United States;US;32.311111;-90.075833;67;5828648;6252001;32.311111,,
AMW;Ames;Ames;United States;US;42.0;-93.616667;67;4846834;6252001;42.0,,
ELN;Bowers Field;Ellensburg;United States;US;47.033333;-120.533333;67;5793639;6252001;47.033333,,
CVG;Cincinnati/northern Kentucky;Covington,-84.667778,
LGB;Long Beach Municipal;Long Beach;United States;US;33.816667;-118.15;67;5801520;6252001;33.816667,,
LWT;Municipal;Lewistown;United States;US;47.05;-109.466667;67;5662162;6252001;47.05,,
MQB;Municipal;Macomb;United States;US;40.45;-90.616667;67;4900817;6252001;40.45,,
JOC;Centerport Heliport;Santa Ana;United States;US;1.083333;-77.55;67;5392900;6252001;1.083333,,
GYY;Gary/Chicago International;Gary,-87.412778,
PYL;Perry SPB;Perry Island;United States;US;60.683333;-147.916667;67;\N;6252001;60.683333,,
HCR;Holy Cross;Holy Cross;United States;US;62.15;-159.783333;67;\N;6252001;62.15,,
WYS;Yellowstone;West Yellowstone;United States;US;44.683333;-111.116667;67;5685767;6252001;44.683333,,
END;Vance Afb;Enid;United States;US;36.339167;-97.916389;67;4535961;6252001;36.339167,,
WST;Westerly State;Westerly;United States;US;41.333333;-71.766667;67;5225631;6252001;41.333333,,
JKV;Cherokee County;Jacksonville,-95.2175,
PNE;North Philadelphia;Philadelphia;United States;US;40.083333;-75.016667;67;5131095;6252001;40.083333,,
GSO;Piedmont Triad Intl;Greensboro,-79.937222,
WKK;Aleknagik;Aleknagik;United States;US;59.266667;-158.633333;67;\N;6252001;59.266667,,
GPZ;Grand Rapids;Grand Rapids;United States;US;47.216667;-93.516667;67;5028537;6252001;47.216667,,
CUW;Cube Cove;Cube Cove;United States;US;58.35;-133.766667;67;\N;6252001;58.35,,
HNB;Municipal;Huntingburg;United States;US;38.3;-86.95;67;4259271;6252001;38.3,,
OPF;Opa Locka;Miami;United States;US;25.906944;-80.278333;67;5304640;6252001;25.906944,,
JDA;John Day;John Day;United States;US;44.416667;-118.95;67;5733770;6252001;44.416667,,
DFI;Memorial;Defiance;United States;US;41.283333;-84.366667;67;5151861;6252001;41.283333,,
SMN;Salmon;Salmon;United States;US;45.183333;-113.916667;67;5606275;6252001;45.183333,,
SAS;Salton City;Salton City;United States;US;33.316667;-115.983333;67;5391503;6252001;33.316667,,
HQM;Bowerman;Hoquiam;United States;US;46.966667;-123.933333;67;5797693;6252001;46.966667,,
LUR;Cape Lisburne;Cape Lisburne;United States;US;68.866667;-166.1;67;\N;6252001;68.866667,,
CEY;Calloway County;Murray;United States;US;36.666667;-88.366667;67;5778755;6252001;36.666667,,
DEO;Hyatt Regency H/P;Dearborn;United States;US;42.312778;-83.218889;67;4990510;6252001;42.312778,,
EAA;Eagle;Eagle;United States;US;64.766667;-141.15;67;5591778;6252001;64.766667,,
MTN;Glenn L Martin;Baltimore;United States;US;39.183333;-76.683333;67;4505716;6252001;39.183333,,
RZH;Quartz Hill;Lancaster;United States;US;34.666667;-118.0;67;5364940;6252001;34.666667,,
RIC;Richmond International Airport;Richmond,-77.316667,
BYI;Rupert;Rupert;United States;US;42.533333;-113.766667;67;5606000;6252001;42.533333,,
NEN;Olf Usn;Whitehouse;United States;US;30.333333;-81.883333;67;5176713;6252001;30.333333,,
RGR;Ranger Municipal;Ranger;United States;US;32.466667;-98.683333;67;4721504;6252001;32.466667,,
VLO;Stolport;Vallejo;United States;US;38.116667;-122.233333;67;5405380;6252001;38.116667,,
DTW;Detroit Metropolitan Wayne County;Detroit,-83.353333,
CIC;Chico;Chico;United States;US;39.8;-121.85;67;5336269;6252001;39.8,,
EEK;Eek;Eek;United States;US;60.216667;-162.016667;67;\N;6252001;60.216667,,
KKL;Karluk Lake SPB;Karluk Lake;United States;US;40.05;26.966667;67;\N;6252001;40.05,,
CIL;Melsing Creek;Council;United States;US;64.9;-163.733333;67;\N;6252001;64.9,,
MKK;Molokai;Hoolehua;United States;US;21.166667;-157.116667;67;\N;6252001;21.166667,,
PGV;Pitt-Greenville;Greenville;United States;US;35.633333;-77.4;67;5564488;6252001;35.633333,,
PVC;Provincetown;Provincetown;United States;US;42.066667;-70.216667;67;4948087;6252001;42.066667,,
MOT;International;Minot;United States;US;48.266667;-101.283333;67;5690532;6252001;48.266667,,
LKE;Kenmore Air Harbor SPB;Seattle,-122.338611,
MIT;Kern County;Shafter;United States;US;35.5;-119.266667;67;5394842;6252001;35.5,,
VRS;Versailles;Versailles;United States;US;38.434722;-92.816667;67;5217183;6252001;38.434722,,
LIC;Municipal;Limon;United States;US;39.266667;-103.683333;67;5428504;6252001;39.266667,,
HNE;Tahneta Pass;Tahneta Pass Lodge;United States;US;35.742778;52.508611;67;\N;6252001;35.742778,,
SBT;Tri-City;San Bernardino;United States;US;34.1;-117.266667;67;5391710;6252001;34.1,,
JST;Cambria County;Johnstown;United States;US;40.316667;-78.833333;67;5578536;6252001;40.316667,,
PHT;Henry County;Paris;United States;US;36.333333;-88.383333;67;4974617;6252001;36.333333,,
FLP;Flippin;Flippin;United States;US;36.3;-92.583333;67;4111212;6252001;36.3,,
HGZ;Hogatza;Hogatza;United States;US;66.183333;-155.666667;67;\N;6252001;66.183333,,
LFT;Lafayette Regional;Lafayette,-91.9875,
CKM;Fletcher Field;Clarksdale,-90.512222,
MNM;Menominee;Menominee;United States;US;45.283333;-87.633333;67;5001669;6252001;45.283333,,
BUB;Municipal;Burwell;United States;US;41.783333;-99.133333;67;5064937;6252001;41.783333,,
NRS;NAS;Imperial Beach;United States;US;46.216667;26.1;67;5359054;6252001;46.216667,,
MPJ;Petit Jean Park;Morrilton;United States;US;-16.166389;38.721944;67;4122218;6252001;-16.166389,,
CPS;St. Louis Downtown Airport;St Louis,-90.156111,
HBR;Hobart;Hobart,-99.051389,
COA;Columbia;Columbia;United States;US;38.033333;-120.416667;67;5338800;6252001;38.033333,,
GVE;Municipal;Gordonsville;United States;US;38.15;-78.166667;67;4761471;6252001;38.15,,
BJC;Jeffco;Broomfield;United States;US;39.933333;-105.066667;67;5415035;6252001;39.933333,,
LUP;Kalaupapa;Kalaupapa;United States;US;21.183333;-156.966667;67;\N;6252001;21.183333,,
JMC;Marin County;Sausalito,-122.513611,
PGA;Page;Page;United States;US;36.933333;-111.45;67;5307778;6252001;36.933333,,
GEG;Spokane International;Spokane;United States;US;47.619722;-117.533889;67;5811696;6252001;47.619722,,
BYW;Blakely Island;Blakely Island;United States;US;48.583333;-122.833333;67;\N;6252001;48.583333,,
POC;Brackett Field;La Verne;United States;US;34.083333;-117.783333;67;5364134;6252001;34.083333,,
ISM;Kissimmee Gateway;Kissimmee;United States;US;28.283333;-81.433333;67;4160983;6252001;28.283333,,
AAF;Municipal;Apalachicola;United States;US;29.733333000000002;-85.033333;67;4146148;6252001;29.733333000000002,,
SHG;Shungnak;Shungnak;United States;US;66.883333;-157.05;67;\N;6252001;66.883333,,
COM;Coleman;Coleman;United States;US;31.833333;-99.433333;67;4989304;6252001;31.833333,,
WRB;Robins AFB;Macon;United States;US;50.033333;4.2;67;4434645;6252001;50.033333,,
KBW;Chignik Bay;Chignik;United States;US;56.296389;-158.399444;67;\N;6252001;56.296389,,
KCG;Fisheries;Chignik;United States;US;56.3;-158.4;67;\N;6252001;56.3,,
CDK;Lewis;Cedar Key;United States;US;29.133333;-83.033333;67;\N;6252001;29.133333,,
ADM;Ardmore Municipal Arpt;Ardmore;United States;US;34.966667;-86.883333;67;5178481;6252001;34.966667,,
BPI;Big Piney-marbleton;Big Piney;United States;US;42.583333;-110.116667;67;\N;6252001;42.583333,,
CVO;Albany;Albany;United States;US;44.5;-123.283333;67;5710756;6252001;44.5,,
LRK;Coast Guard;Lincoln Rock,-68.316667,
DLS;Columbia Gorge Regional/The Dalles Municipal Airport;The Dalles;United States;US;45.618611;-121.167222;67;5756304;6252001;45.618611,,
HEY;Hanchey Army Heliport;Ozark;United States;US;53.116667;22.45;67;4402245;6252001;53.116667,,
SBX;Shelby;Shelby;United States;US;48.533333;-111.866667;67;5677433;6252001;48.533333,,
ALI;International;Alice;United States;US;27.733333000000002;-98.016667;67;4670234;6252001;27.733333000000002,,
POH;Municipal;Pocahontas;United States;US;42.75;-94.65;67;4871727;6252001;42.75,,
SLC;Salt Lake City International;Salt Lake City,-111.966667,
MMN;Minute Man Airfield;Stow;United States;US;42.433333;-71.502778;67;5173171;6252001;42.433333,,
RWB;Rowan Bay;Rowan Bay;United States;US;56.75;-134.133333;67;\N;6252001;56.75,,
CKU;City;Cordova;United States;US;9.633333;-74.783333;67;5859888;6252001;9.633333,,
LWL;Harriet Field;Wells;United States;US;41.116667;-114.966667;67;5709967;6252001;41.116667,,
HBH;Hobart Bay;Hobart Bay;United States;US;57.408333;-133.466667;67;\N;6252001;57.408333,,
BOI;Boise Air Terminal/Gowen Field;Boise,-116.222778,
AYS;Ware County;Waycross;United States;US;31.25;-82.4;67;4229763;6252001;31.25,,
KBE;Hot Springs SPB;Bell Island;United States;US;55.916667;-131.566667;67;\N;6252001;55.916667,,
NRB;Ns;Mayport;United States;US;17.65;120.583333;67;\N;6252001;17.65,,
EMB;Embarkadero;San Francisco;United States;US;-38.7;-60.016667;67;5391959;6252001;-38.7,,
LAF;Purdue University;Lafayette;United States;US;40.416667;-86.933333;67;5735609;6252001;40.416667,,
PFD;Port Frederick;Port Frederick;United States;US;57.95;-135.65;67;\N;6252001;57.95,,
SPA;Spartanburg, SC;United States;US;34.915833;-81.956389;67;4597200;6252001;34.915833,-81.956389
VIS;Visalia;Visalia;United States;US;36.316667;-119.4;67;5406567;6252001;36.316667,,
MWM;Windom Municipal;Windom,-95.109444,
NEA;Brunswick Golden Isles;Glynco;United States;US;51.679444;-3.628056;67;\N;6252001;51.679444,,
ORD;Chicago O'hare International;Chicago,-87.904722,
WFK;Frenchville;Frenchville;United States;US;47.35;-68.383333;67;\N;6252001;47.35,,
MBG;Mobridge;Mobridge;United States;US;34.741667;73.625;67;5767189;6252001;34.741667,,
FMY;Page Field;Fort Myers;United States;US;26.583333;-81.866667;67;4155995;6252001;26.583333,,
PCT;Princeton;Princeton;United States;US;40.35;-74.666667;67;5268096;6252001;40.35,,
IGG;Igiugig;Igiugig;United States;US;59.316667;-155.9;67;\N;6252001;59.316667,,
CNY;Canyonlands Field;Moab;United States;US;38.766667;-109.75;67;5543307;6252001;38.766667,,
PHD;Harry Clever;New Philadelphia;United States;US;40.466667;-81.433333;67;5203246;6252001;40.466667,,
POQ;Polk Inlet;Polk Inlet;United States;US;55.35;-132.5;67;\N;6252001;55.35,,
MTM;SPB;Metlakatla;United States;US;55.133333;-131.583333;67;5555695;6252001;55.133333,,
VKW;West Kavik;West Kavik;United States;US;69.666667;-146.916667;67;\N;6252001;69.666667,,
CYT;Intermediate;Yakataga;United States;US;60.083333;-142.483333;67;\N;6252001;60.083333,,
RBF;Big Bear City Arpt;Big Bear;United States;US;34.266667;-116.85;67;\N;6252001;34.266667,,
ABY;Dougherty County;Albany;United States;US;31.533333;-84.2;67;5710756;6252001;31.533333,,
MSC;Falcon Field;Mesa;United States;US;33.45;-111.716667;67;5316163;6252001;33.45,,
FAL;Falcon State;Roma;United States;US;26.586111;-99.1375;67;\N;6252001;26.586111,,
JBR;Jonesboro;Jonesboro;United States;US;35.833333;-90.65;67;4922150;6252001;35.833333,,
NTD;Point Mugu NAS;Port Hueneme,-119.121111,
MZZ;Marion;Marion;United States;US;40.483333;-85.683333;67;5261872;6252001;40.483333,,
BXS;Borrego Springs;Borrego Springs;United States;US;33.25;-116.316667;67;5330143;6252001;33.25,,
QKB;Van Service;Breckenridge;United States;US;-28.833333;22.616667;67;5414872;6252001;-28.833333,,
MOS;Intermediate;Moses Point;United States;US;64.7;-162.05;67;\N;6252001;64.7,,
CEU;Oconee County;Clemson;United States;US;34.666667;-82.883333;67;4574989;6252001;34.666667,,
LJN;Brazoria County;Lake Jackson;United States;US;29.033333;-95.45;67;4704628;6252001;29.033333,,
BNL;Barnwell Regional;Barnwell,-81.388333,
LIZ;Loring AFB;Limestone;United States;US;46.950556;-67.885833;67;4969532;6252001;46.950556,,
MDD;Airpark;Midland;United States;US;44.75;-79.9;67;5803357;6252001;44.75,,
PRX;Cox Field;Paris;United States;US;33.633333;-95.45;67;4974617;6252001;33.633333,,
LUL;Hesler-Noble Field;Laurel,-89.172778,
FKN;Municipal;Franklin;United States;US;36.683333;-76.916667;67;5253710;6252001;36.683333,,
GRK;Gray Aaf;Fort Hood,-97.828889,
ZRL;Lancaster PA Rail;Lancaster;United States;US;40.066667;38.766667;67;5364940;6252001;40.066667,,
TCM;McChord AFB;Tacoma,-122.476389,
KIC;Mesa Del Rey;King City;United States;US;36.233333;-121.116667;67;5735043;6252001;36.233333,,
HYG;SPB;Hydaburg;United States;US;55.2;-132.833333;67;\N;6252001;55.2,,
LND;Hunt Field;Lander;United States;US;42.8;-108.675;67;5830007;6252001;42.8,,
ELK;Municipal;Elk City;United States;US;35.4;-99.416667;67;4535823;6252001;35.4,,
LRU;Municipal;Las Cruces,-106.933333,
NGZ;NAS;Alameda;United States;US;49.266667;-1.283333;67;5322737;6252001;49.266667,,
HES;State;Hermiston;United States;US;45.85;-119.283333;67;5731070;6252001;45.85,,
BID;Block Island;Block Island;United States;US;41.169444;-71.583333;67;\N;6252001;41.169444,,
MSV;Sullivan County Intl;Monticello;United States;US;41.616667;-74.7;67;5543377;6252001;41.616667,,
WVI;Watsonville;Watsonville;United States;US;36.916667;-121.75;67;5407529;6252001;36.916667,,
CGE;Cambridge;Cambridge;United States;US;38.55;-76.033333;67;5247533;6252001;38.55,,
HEZ;Hardy-Anders;Natchez;United States;US;31.616667;-91.3;67;4437982;6252001;31.616667,,
GTG;Municipal;Grantsburg;United States;US;45.783333;-92.683333;67;5254880;6252001;45.783333,,
THA;Tullahoma/William Northern Field;Tullahoma,-86.246389,
GJT;Walker Field;Grand Junction;United States;US;39.116667;-108.516667;67;5423573;6252001;39.116667,,
WBR;Big Rapids;Big Rapids;United States;US;43.716667;-85.5;67;4986020;6252001;43.716667,,
CEX;Chena Hot Springs;Chena Hot Springs;United States;US;65.05;-146.05;67;\N;6252001;65.05,,
PVU;Provo;Provo;United States;US;40.233333;-111.716667;67;5780026;6252001;40.233333,,
MQW;Telfair-Wheeler;Mc Rae;United States;US;17.366667;-88.766667;67;\N;6252001;17.366667,,
FIV;Five Finger;Five Finger Coast Guard Heliport;United States;US;57.27;-133.631389;67;\N;6252001;57.27,,
ONL;Municipal;Oneill;United States;US;42.45;-98.65;67;\N;6252001;42.45,,
PRW;Prentice;Prentice;United States;US;45.55;-90.283333;67;\N;6252001;45.55,,
REO;State;Rome;United States;US;42.590556;-117.867222;67;5134295;6252001;42.590556,,
UPP;Upolu Point;Upolu Point;United States;US;20.266666999999998;-155.85;67;\N;6252001;20.266666999999998,,
RBK;French Valley;Rancho;United States;US;-14.333333;-66.5;67;\N;6252001;-14.333333,,
KWK;Kwigillingok;Kwigillingok;United States;US;59.816667;-163.15;67;\N;6252001;59.816667,,
JRC;Municipal Heliport;Rochester;United States;US;49.916667;-0.966666999999999;67;5808524;6252001;49.916667,,
KPV;Perryville SPB;Perryville;United States;US;55.9;-159.133333;67;4402998;6252001;55.9,,
ASH;Boire Field;Nashua,-71.514722,
DLH;Duluth International;Duluth;United States;US;46.833333;-92.183333;67;5024719;6252001;46.833333,,
ZWW;Newport News Rail;Hampton;United States;US;52.166667;-2.016667;67;5098787;6252001;52.166667,,
OLV;Olive Branch Arpt;Olive Branch;United States;US;34.966667;-89.833333;67;4439869;6252001;34.966667,,
LWM;Lawrence;Lawrence;United States;US;42.716667;-71.116667;67;5124087;6252001;42.716667,,
ONP;Newport;Newport;United States;US;44.583333;-124.05;67;5804694;6252001;44.583333,,
PPA;Perry Lefors Field;Pampa;United States;US;35.533333;-100.95;67;5527953;6252001;35.533333,,
RFK;Rollang Field;Anguilla;United States;US;32.966667;-90.833333;67;\N;6252001;32.966667,,
WBN;Cummings Park;Woburn;United States;US;42.466667;-71.15;67;4956032;6252001;42.466667,,
MBS;MBS International;Saginaw;United States;US;43.532778;-83.079722;67;5007989;6252001;43.532778,,
CLC;Metroport;Clearlake;United States;US;29.5575;-95.139167;67;5337908;6252001;29.5575,,
RLD;Richland;Richland;United States;US;46.3;-119.3;67;5808276;6252001;46.3,,
AFF;USAF Academy Airstrip;Colorado Springs;United States;US;38.969722;-104.813056;67;5417598;6252001;38.969722,,
LFK;Lufkin Angelina County;Lufkin,-94.752778,
MIW;Municipal;Marshalltown;United States;US;42.116667;-92.916667;67;4866371;6252001;42.116667,,
ILM;Wilmington International;Wilmington;United States;US;34.270556;-77.9025;67;4955840;6252001;34.270556,,
BMI;Central Illinois Regional Airport at Bloomington-Normal;Bloomington/Normal,-88.915833,
AKO;Colorado Plains Regional Airport;Akron,-103.221944,
LNN;Lost Nation;Willoughby;United States;US;41.633333;-81.416667;67;5176937;6252001;41.633333,,
NME;Nightmute;Nightmute;United States;US;60.483333;-164.0;67;\N;6252001;60.483333,,
FCT;Firing Center AAF;Yakima;United States;US;56.8;41.266667;67;5816605;6252001;56.8,,
ALW;Walla Walla;Walla Walla;United States;US;46.1;-118.3;67;5814916;6252001;46.1,,
BOK;Brookings State;Brookings;United States;US;42.05;-124.283333;67;5715905;6252001;42.05,,
BNG;Banning;Banning;United States;US;33.933333;-116.866667;67;5326032;6252001;33.933333,,
WBI;Broker Inn;Boulder;United States;US;-30.783333;121.483333;67;5641473;6252001;-30.783333,,
DRA;Desert Rock;Mercury;United States;US;-29.133333;29.733333000000002;67;\N;6252001;-29.133333,,
KAL;Kaltag;Kaltag;United States;US;64.333333;-158.7;67;\N;6252001;64.333333,,
NTU;NAS;Oceana;United States;US;-41.933333;145.35;67;4817070;6252001;-41.933333,,
IDA;Fanning Field;Idaho Falls;United States;US;43.516667;-112.066667;67;5596475;6252001;43.516667,,
TLA;Teller;Teller;United States;US;65.240278;-166.339444;67;\N;6252001;65.240278,,
ADR;Andrews;Andrews;United States;US;33.45;-79.566667;67;5516288;6252001;33.45,,
GUF;Edwards;Gulf Shores;United States;US;30.289722;-87.671667;67;4065552;6252001;30.289722,,
GUY;Guymon;Guymon;United States;US;36.683333;-101.483333;67;5515743;6252001;36.683333,,
EMK;Emmonak;Emmonak;United States;US;62.766667;-164.5;67;\N;6252001;62.766667,,
FRP;Fresh Water Bay;Fresh Water Bay;United States;US;57.845833;-135.025;67;\N;6252001;57.845833,,
BLD;Boulder City;Boulder City;United States;US;8.734444;-9.798611;67;5500539;6252001;8.734444,,
HFF;Mackall AAF;Hoffman;United States;US;-40.2;-72.166667;67;\N;6252001;-40.2,,
ZTE;Rochester NY Rail;Rochester;United States;US;49.916667;-0.966666999999999;67;5808524;6252001;49.916667,,
BRL;Burlington;Burlington;United States;US;40.783333;-91.116667;67;5788539;6252001;40.783333,,
CRW;Yeager;Charleston;United States;US;38.366667;-81.6;67;4960682;6252001;38.366667,,
UIZ;Berz-Macomb;Utica;United States;US;37.066667;10.066667;67;5174913;6252001;37.066667,,
BED;Hanscom Field;Bedford/Hanscom;United States;US;42.466667;-71.283333;67;5179630;6252001;42.466667,,
SZN;Santa Cruz Island;Santa Barbara;United States;US;-0.883332999999999;-72.5;67;5392952;6252001;-0.883332999999999,,
HTO;East Hampton;East Hampton;United States;US;40.966667;-72.233333;67;5115871;6252001;40.966667,,
HAE;Havasupai;Havasupai;United States;US;36.230556;-112.669444;67;\N;6252001;36.230556,,
MAF;Midland International;Midland;United States;US;31.9425;-102.201944;67;5803357;6252001;31.9425,,
BEH;Ross Field;Benton Harbor;United States;US;42.133333;-86.433333;67;4985711;6252001;42.133333,,
BUF;Buffalo Niagara International;Buffalo,-78.732222,
NUQ;Moffett Field;Mountain View;United States;US;37.383333;-122.066667;67;5851253;6252001;37.383333,,
QMV;Montvale;Montvale;United States;US;43.866667;1.6;67;5101361;6252001;43.866667,,
ESP;Birchwood-Pocono;East Stroudsburg;United States;US;41.0;-75.183333;67;5188075;6252001;41.0,,
HFD;Brainard;Hartford;United States;US;41.766667;-72.683333;67;5255628;6252001;41.766667,,
OWK;Central Maine Airport of Norridgewock;Norridgewock;United States;US;44.716667;-69.8;67;4973430;6252001;44.716667,,
EWK;City-County;Newton;United States;US;38.05;-97.35;67;5101848;6252001;38.05,,
CKE;Clear Lake;Clear Lake;United States;US;39.033333;-122.833333;67;5790270;6252001;39.033333,,
HSB;Raleigh;Harrisburg;United States;US;37.733333;-88.55;67;5730389;6252001;37.733333,,
MMT;Mc Entire ANG Base;Columbia;United States;US;-10.75;-67.866667;67;5338800;6252001;-10.75,,
SVA;Savoonga;Savoonga;United States;US;62.7;-170.466667;67;\N;6252001;62.7,,
SPI;Capital;Springfield;United States;US;39.85;-89.683333;67;5754005;6252001;39.85,,
LXN;Lexington;Lexington;United States;US;40.783333;-99.75;67;5160635;6252001;40.783333,,
MPR;Mcpherson;Mcpherson;United States;US;38.35;-97.683333;67;4275261;6252001;38.35,,
MDF;Medford;Medford;United States;US;45.15;-90.333333;67;5740099;6252001;45.15,,
TTO;Municipal;Britton;United States;US;45.8;-97.75;67;5226523;6252001;45.8,,
EKA;Murray Field;Eureka,-124.112778,
TAL;Ralph Calhoun;Tanana;United States;US;-9.266667;161.083333;67;\N;6252001;-9.266667,,
DLO;Dolomi;Dolomi;United States;US;55.133333;-132.051389;67;\N;6252001;55.133333,,
CMY;Fort Mccoy;Sparta;United States;US;43.95;-90.783333;67;5273927;6252001;43.95,,
LEM;Lemmon;Lemmon;United States;US;45.916667;-102.1;67;5766453;6252001;45.916667,,
JID;City Of Industry H/P;Los Angeles;United States;US;34.027222;-117.958333;67;5368361;6252001;34.027222,,
FPY;Perry-Foley;Perry;United States;US;30.116667;-83.583333;67;5779613;6252001;30.116667,,
COU;Columbia Regional;Columbia;United States;US;38.95;-92.333333;67;5338800;6252001;38.95,,
GGE;Georgetown;Georgetown;United States;US;33.316667;-79.316667;67;5422889;6252001;33.316667,,
RRT;Warroad;Warroad;United States;US;-28.05;117.533333;67;5051893;6252001;-28.05,,
BRW;Wiley Post/W.Rogers M;Barrow;United States;US;71.333333;-156.65;67;5880054;6252001;71.333333,,
CKA;Kegelman Af;Cherokee;United States;US;26.283333;-77.033333;67;4851247;6252001;26.283333,,
PFN;Bay County;Panama City;United States;US;30.216667;-85.683333;67;4167694;6252001;30.216667,,
CLR;Calipatria;Calipatria;United States;US;33.133333;-115.516667;67;5332929;6252001;33.133333,,
MCI;Kansas City International Airport;Kansas City;United States;US;39.291667;-94.730556;67;4393217;6252001;39.291667,,
MUI;Muir AAF;Fort Indiantown;United States;US;19.833333;-72.5;67;\N;6252001;19.833333,,
WTC;World Trade Center;New York;United States;US;40.666667;-74.016667;67;5128581;6252001;40.666667,,
AET;Allakaket;Allakaket;United States;US;66.55;-152.65;67;\N;6252001;66.55,,
DIO;Diomede Island;Diomede Island;United States;US;65.75;-168.95;67;\N;6252001;65.75,,
ELW;Ellamar;Ellamar;United States;US;60.897222;-146.6125;67;\N;6252001;60.897222,,
PSM;Pease International;Portsmouth,-70.823333,
DAA;Davison AAF;Fort Belvoir;United States;US;38.716667;-77.183333;67;\N;6252001;38.716667,,
RCA;Ellsworth Afb;Rapid City;United States;US;44.145;-103.103611;67;5768233;6252001;44.145,,
IAG;International;Niagara Falls;United States;US;43.1;-79.033333;67;5128723;6252001;43.1,,
MIB;Minot AFB;Minot;United States;US;47.666667;4.866667;67;5690532;6252001;47.666667,,
NPH;Nephi;Nephi;United States;US;39.738889;-111.870833;67;5543853;6252001;39.738889,,
ZVE;New Haven Rail;New Haven;United States;US;6.083333;-58.133333;67;5003384;6252001;6.083333,,
BDX;Broadus;Broadus;United States;US;45.45;-105.416667;67;\N;6252001;45.45,,
LBB;International;Lubbock;United States;US;33.666667;-101.833333;67;5525577;6252001;33.666667,,
SBD;Norton Afb;San Bernardino;United States;US;34.095278;-117.235;67;5391710;6252001;34.095278,,
BCB;Virginia Tech;Blacksburg;United States;US;37.233333;-80.416667;67;4747845;6252001;37.233333,,
BML;Berlin Municipal Airport;Berlin;United States;US;44.575278;-71.175833;67;5245497;6252001;44.575278,,
GCC;Campbell County;Gillette;United States;US;44.35;-105.533333;67;5826027;6252001;44.35,,
MPO;Mt Pocono;Mt Pocono;United States;US;41.133333;-75.366667;67;\N;6252001;41.133333,,
ZGD;New London Rail;Groton;United States;US;-8.735278;125.352222;67;5281020;6252001;-8.735278,,
TPA;Tampa International;Tampa;United States;US;27.975556;-82.533056;67;4174757;6252001;27.975556,,
TOA;Torrance Airport;Torrance;United States;US;33.805;-118.343889;67;5403022;6252001;33.805,,
TDO;Winlock;Toledo;United States;US;6.533333;-75.783333;67;5757007;6252001;6.533333,,
VAK;Chevak;Chevak;United States;US;61.528611;-165.590278;67;\N;6252001;61.528611,,
FTK;Godman AAF;Fort Knox;United States;US;19.833333;-72.5;67;\N;6252001;19.833333,,
FAM;Regional;Farmington;United States;US;37.673333;-90.233889;67;5774662;6252001;37.673333,,
SOV;Seldovia;Seldovia;United States;US;59.45;-151.7;67;\N;6252001;59.45,,
DNL;Daniel Field;Augusta,-82.039444,
KZB;Zachar Bay SPB;Zachar Bay;United States;US;57.55;-153.75;67;\N;6252001;57.55,,
HVS;Municipal;Hartsville;United States;US;34.4;-80.116667;67;4628109;6252001;34.4,,
CHO;Albemarle;Charlottesville;United States;US;38.133333;-78.45;67;4752031;6252001;38.133333,,
